{"type":"FeatureCollection","attribution":"© OpenStreetMap contributors, ODbL 1.0","features":[{"type":"Feature","geometry":{"type":"Point","coordinates":[-1.34999,5.0859]},"properties":{"osm_type":"way","osm_id":1040425396,"name":"Bethel Methodist Church","religion":"christian","denomination":"methodist","start_date":"1900","end_date":null,"start_year":1900,"end_year":null}},{"type":"Feature","geometry":{"type":"Point","coordinates":[-0.60445,5.41942]},"properties":{"osm_type":"way","osm_id":742826655,"name":"Methodist Church","religion":"christian","denomination":null,"start_date":"1989","end_date":null,"start_year":1989,"end_year":null}},{"type":"Feature","geometry":{"type":"Point","coordinates":[-2.31556,7.87432]},"properties":{"osm_type":"way","osm_id":756508540,"name":"The Church of Pentecost","religion":"christian","denomination":"pentecostal","start_date":"1999-07-18","end_date":null,"start_year":1999,"end_year":null}},{"type":"Feature","geometry":{"type":"Point","coordinates":[-0.21293,5.58614]},"properties":{"osm_type":"node","osm_id":7274326740,"name":"Alhaja Khadijah Mosque","religion":"muslim","denomination":"sunni","start_date":"25th September, 2011","end_date":null,"start_year":2011,"end_year":null}}]}
