{"type":"FeatureCollection","attribution":"© OpenStreetMap contributors, ODbL 1.0","features":[{"type":"Feature","geometry":{"type":"Point","coordinates":[18.86418,-33.93766]},"properties":{"osm_type":"way","osm_id":74520925,"name":"Moedergemeente","religion":"christian","denomination":"dutch_reformed","start_date":"1686","end_date":null,"start_year":1686,"end_year":null}},{"type":"Feature","geometry":{"type":"Point","coordinates":[18.41495,-33.92233]},"properties":{"osm_type":"way","osm_id":885400249,"name":"Auwal Masjid","religion":"muslim","denomination":"sunni","start_date":"1794","end_date":null,"start_year":1794,"end_year":null}},{"type":"Feature","geometry":{"type":"Point","coordinates":[20.44642,-34.01768]},"properties":{"osm_type":"way","osm_id":195211419,"name":"Swellendam Dutch Reformed","religion":"christian","denomination":"protestant","start_date":"1802","end_date":null,"start_year":1802,"end_year":null}},{"type":"Feature","geometry":{"type":"Point","coordinates":[18.41683,-33.9248]},"properties":{"osm_type":"way","osm_id":1006207472,"name":"Palm Tree Mosque","religion":"muslim","denomination":null,"start_date":"1807","end_date":null,"start_year":1807,"end_year":null}},{"type":"Feature","geometry":{"type":"Point","coordinates":[18.471,-33.50604]},"properties":{"osm_type":"way","osm_id":328118447,"name":"Mamre Moravian Church","religion":"christian","denomination":"moravian","start_date":"1818","end_date":null,"start_year":1818,"end_year":null}},{"type":"Feature","geometry":{"type":"Point","coordinates":[18.85902,-33.93796]},"properties":{"osm_type":"way","osm_id":101729571,"name":"Rhenish Mission Church","religion":"christian","denomination":null,"start_date":"1823","end_date":null,"start_year":1823,"end_year":null}},{"type":"Feature","geometry":{"type":"Point","coordinates":[26.81998,-33.50195]},"properties":{"osm_type":"node","osm_id":6080319956,"name":"Saint John's Church","religion":"christian","denomination":"anglican","start_date":"1832","end_date":null,"start_year":1832,"end_year":null}},{"type":"Feature","geometry":{"type":"Point","coordinates":[18.41532,-33.92189]},"properties":{"osm_type":"way","osm_id":911615310,"name":"Nurul Islam Mosque","religion":"muslim","denomination":"sunni","start_date":"1834","end_date":null,"start_year":1834,"end_year":null}},{"type":"Feature","geometry":{"type":"Point","coordinates":[18.37888,-33.8111]},"properties":{"osm_type":"way","osm_id":865288579,"name":"Garrison Church","religion":"christian","denomination":null,"start_date":"1841","end_date":null,"start_year":1841,"end_year":null}},{"type":"Feature","geometry":{"type":"Point","coordinates":[18.42093,-33.92477]},"properties":{"osm_type":"way","osm_id":48801576,"name":"Groote Kerk","religion":"christian","denomination":"dutch_reformed","start_date":"1841","end_date":null,"start_year":1841,"end_year":null}},{"type":"Feature","geometry":{"type":"Point","coordinates":[25.39398,-33.76326]},"properties":{"osm_type":"way","osm_id":752334164,"name":"Masjid ul-Qudama","religion":"muslim","denomination":null,"start_date":"1849","end_date":null,"start_year":1849,"end_year":null}},{"type":"Feature","geometry":{"type":"Point","coordinates":[18.64935,-33.83466]},"properties":{"osm_type":"way","osm_id":454966304,"name":"All Saints Anglican Chapel","religion":"christian","denomination":"anglican","start_date":"1850","end_date":null,"start_year":1850,"end_year":null}},{"type":"Feature","geometry":{"type":"Point","coordinates":[18.41675,-33.91826]},"properties":{"osm_type":"way","osm_id":134513653,"name":"Jameah Masjid","religion":"muslim","denomination":"sunni","start_date":"1850","end_date":null,"start_year":1850,"end_year":null}},{"type":"Feature","geometry":{"type":"Point","coordinates":[27.0527,-32.27893]},"properties":{"osm_type":"node","osm_id":3752272106,"name":"Moravian Mission Church","religion":"christian","denomination":null,"start_date":"1850","end_date":null,"start_year":1850,"end_year":null}},{"type":"Feature","geometry":{"type":"Point","coordinates":[23.10868,-31.40399]},"properties":{"osm_type":"way","osm_id":763076111,"name":null,"religion":"christian","denomination":"dutch_reformed","start_date":"1850","end_date":null,"start_year":1850,"end_year":null}},{"type":"Feature","geometry":{"type":"Point","coordinates":[27.39153,-32.87648]},"properties":{"osm_type":"node","osm_id":2275294599,"name":"Sacred Heart Catholic Church","religion":"christian","denomination":"roman_catholic","start_date":"1851","end_date":null,"start_year":1851,"end_year":null}},{"type":"Feature","geometry":{"type":"Point","coordinates":[25.61593,-32.17229]},"properties":{"osm_type":"way","osm_id":1110915486,"name":"St Peter's Anglican Church","religion":"christian","denomination":"anglican","start_date":"1851","end_date":null,"start_year":1851,"end_year":null}},{"type":"Feature","geometry":{"type":"Point","coordinates":[18.96117,-33.7437]},"properties":{"osm_type":"way","osm_id":229376068,"name":"Nederduitsch Hervormde Kerk","religion":"christian","denomination":null,"start_date":"1852","end_date":null,"start_year":1852,"end_year":null}},{"type":"Feature","geometry":{"type":"Point","coordinates":[21.4623,-33.48285]},"properties":{"osm_type":"way","osm_id":275564445,"name":null,"religion":"christian","denomination":null,"start_date":"1853","end_date":null,"start_year":1853,"end_year":null}},{"type":"Feature","geometry":{"type":"Point","coordinates":[25.58591,-32.71702]},"properties":{"osm_type":"way","osm_id":1110821408,"name":"All Saints Anglican Church","religion":"christian","denomination":"anglican","start_date":"1855","end_date":null,"start_year":1855,"end_year":null}},{"type":"Feature","geometry":{"type":"Point","coordinates":[20.4408,-34.02231]},"properties":{"osm_type":"way","osm_id":195585549,"name":"Christ Church","religion":"christian","denomination":"anglican","start_date":"1855","end_date":null,"start_year":1855,"end_year":null}},{"type":"Feature","geometry":{"type":"Point","coordinates":[25.62291,-33.96061]},"properties":{"osm_type":"way","osm_id":1021064298,"name":"Masjid ul-Akbar","religion":"muslim","denomination":null,"start_date":"1855","end_date":null,"start_year":1855,"end_year":null}},{"type":"Feature","geometry":{"type":"Point","coordinates":[21.68669,-33.53311]},"properties":{"osm_type":"way","osm_id":1110915472,"name":"St Mark's Anglican Church","religion":"christian","denomination":"anglican","start_date":"1857","end_date":null,"start_year":1857,"end_year":null}},{"type":"Feature","geometry":{"type":"Point","coordinates":[20.04035,-34.53508]},"properties":{"osm_type":"way","osm_id":689095369,"name":"All Saints Anglican Church","religion":"christian","denomination":"anglican","start_date":"11 August 1861","end_date":null,"start_year":1861,"end_year":null}},{"type":"Feature","geometry":{"type":"Point","coordinates":[26.29411,-32.7091]},"properties":{"osm_type":"node","osm_id":2628762885,"name":"NG gemeente Adelaide","religion":"christian","denomination":null,"start_date":"1862","end_date":null,"start_year":1862,"end_year":null}},{"type":"Feature","geometry":{"type":"Point","coordinates":[22.20318,-33.58762]},"properties":{"osm_type":"way","osm_id":316726095,"name":"St Jude's Anglican Church","religion":"christian","denomination":"anglican","start_date":"1863","end_date":null,"start_year":1863,"end_year":null}},{"type":"Feature","geometry":{"type":"Point","coordinates":[27.09667,-26.7154]},"properties":{"osm_type":"way","osm_id":316690316,"name":"Nederduitsch Hervormde Kerk","religion":"christian","denomination":null,"start_date":"1866","end_date":null,"start_year":1866,"end_year":null}},{"type":"Feature","geometry":{"type":"Point","coordinates":[26.21941,-29.12109]},"properties":{"osm_type":"way","osm_id":1110821403,"name":"St Andrew and St Michael","religion":"christian","denomination":"anglican","start_date":"30 November 1866","end_date":null,"start_year":1866,"end_year":null}},{"type":"Feature","geometry":{"type":"Point","coordinates":[27.89083,-32.57399]},"properties":{"osm_type":"way","osm_id":1110915477,"name":"St Paul's Anglican Church","religion":"christian","denomination":"anglican","start_date":"13 June 1866","end_date":null,"start_year":1866,"end_year":null}},{"type":"Feature","geometry":{"type":"Point","coordinates":[30.23531,-29.48458]},"properties":{"osm_type":"way","osm_id":872158573,"name":"St. Luke's Anglican Church","religion":"christian","denomination":"anglican","start_date":"1867","end_date":null,"start_year":1867,"end_year":null}},{"type":"Feature","geometry":{"type":"Point","coordinates":[30.02073,-29.21102]},"properties":{"osm_type":"way","osm_id":1110915469,"name":"St John's","religion":"christian","denomination":"anglican","start_date":"17 July 1872","end_date":null,"start_year":1872,"end_year":null}},{"type":"Feature","geometry":{"type":"Point","coordinates":[21.68833,-33.53094]},"properties":{"osm_type":"way","osm_id":554450790,"name":"NG Kerk - Calitzdorp","religion":"christian","denomination":"dutch_reformed","start_date":"22/02/1873","end_date":null,"start_year":1873,"end_year":null}},{"type":"Feature","geometry":{"type":"Point","coordinates":[23.12839,-33.6561]},"properties":{"osm_type":"way","osm_id":1110821405,"name":"All Saints Anglican Chapel","religion":"christian","denomination":"anglican","start_date":"1876","end_date":null,"start_year":1876,"end_year":null}},{"type":"Feature","geometry":{"type":"Point","coordinates":[18.41474,-33.92026]},"properties":{"osm_type":"way","osm_id":681868452,"name":"Mosque Shafie","religion":"muslim","denomination":null,"start_date":"1876","end_date":null,"start_year":1876,"end_year":null}},{"type":"Feature","geometry":{"type":"Point","coordinates":[26.35527,-33.24821]},"properties":{"osm_type":"way","osm_id":1110825599,"name":"St Peter's Anglican Church","religion":"christian","denomination":"anglican","start_date":"1877","end_date":null,"start_year":1877,"end_year":null}},{"type":"Feature","geometry":{"type":"Point","coordinates":[26.25947,-32.00799]},"properties":{"osm_type":"way","osm_id":767308200,"name":"NG Kerk Tarkastad","religion":"christian","denomination":"dutch_reformed","start_date":"1880","end_date":null,"start_year":1880,"end_year":null}},{"type":"Feature","geometry":{"type":"Point","coordinates":[27.90621,-33.02071]},"properties":{"osm_type":"way","osm_id":224977727,"name":"St John the Evangelist","religion":"christian","denomination":"anglican","start_date":"1880","end_date":null,"start_year":1880,"end_year":null}},{"type":"Feature","geometry":{"type":"Point","coordinates":[20.8582,-33.19611]},"properties":{"osm_type":"way","osm_id":437202411,"name":"NG Kerk - Laingsburg","religion":"christian","denomination":"dutch_reformed","start_date":"6 December 1882","end_date":null,"start_year":1882,"end_year":null}},{"type":"Feature","geometry":{"type":"Point","coordinates":[24.06504,-32.4751]},"properties":{"osm_type":"way","osm_id":767442084,"name":"Wesleyan Methodist Church","religion":"christian","denomination":null,"start_date":"1883","end_date":null,"start_year":1883,"end_year":null}},{"type":"Feature","geometry":{"type":"Point","coordinates":[24.66379,-32.94388]},"properties":{"osm_type":"way","osm_id":767653638,"name":"NG Kerk - Jansenville","religion":"christian","denomination":"dutch_reformed","start_date":"1885","end_date":null,"start_year":1885,"end_year":null}},{"type":"Feature","geometry":{"type":"Point","coordinates":[18.43238,-33.93211]},"properties":{"osm_type":"way","osm_id":895009330,"name":"Moravian Hill Chapel","religion":"christian","denomination":"moravian","start_date":"1886","end_date":null,"start_year":1886,"end_year":null}},{"type":"Feature","geometry":{"type":"Point","coordinates":[26.08364,-33.31533]},"properties":{"osm_type":"way","osm_id":1290848645,"name":"St. Barnabas Anglican Church","religion":"christian","denomination":"anglican","start_date":"21 January 1887","end_date":null,"start_year":1887,"end_year":null}},{"type":"Feature","geometry":{"type":"Point","coordinates":[27.45863,-29.19538]},"properties":{"osm_type":"way","osm_id":643493277,"name":"NG Kerk - Ladybrand","religion":"christian","denomination":null,"start_date":"1889","end_date":null,"start_year":1889,"end_year":null}},{"type":"Feature","geometry":{"type":"Point","coordinates":[29.15884,-27.42931]},"properties":{"osm_type":"way","osm_id":1110821410,"name":"All Saints Anglican Church","religion":"christian","denomination":"anglican","start_date":"1890","end_date":null,"start_year":1890,"end_year":null}},{"type":"Feature","geometry":{"type":"Point","coordinates":[28.35586,-26.49892]},"properties":{"osm_type":"node","osm_id":965137273,"name":"Klipkerk","religion":"christian","denomination":null,"start_date":"1890","end_date":null,"start_year":1890,"end_year":null}},{"type":"Feature","geometry":{"type":"Point","coordinates":[30.7918,-27.7675]},"properties":{"osm_type":"way","osm_id":94125467,"name":"NG Kerk - Vryheid","religion":"christian","denomination":"dutch_reformed","start_date":"Sept 1891","end_date":null,"start_year":1891,"end_year":null}},{"type":"Feature","geometry":{"type":"Point","coordinates":[18.42279,-33.92869]},"properties":{"osm_type":"way","osm_id":868289152,"name":"Dutch Reformed Church Tafelberg","religion":"christian","denomination":"dutch_reformed","start_date":"1892","end_date":null,"start_year":1892,"end_year":null}},{"type":"Feature","geometry":{"type":"Point","coordinates":[19.55746,-34.03409]},"properties":{"osm_type":"way","osm_id":764239526,"name":"Moravian Church","religion":"christian","denomination":"moravian","start_date":"1893","end_date":null,"start_year":1893,"end_year":null}},{"type":"Feature","geometry":{"type":"Point","coordinates":[30.31958,-27.65441]},"properties":{"osm_type":"way","osm_id":640854135,"name":"NG Kerk","religion":"christian","denomination":null,"start_date":"1893","end_date":null,"start_year":1893,"end_year":null}},{"type":"Feature","geometry":{"type":"Point","coordinates":[27.09142,-26.71368]},"properties":{"osm_type":"way","osm_id":1255739169,"name":"NG Kerk","religion":"christian","denomination":null,"start_date":"1894","end_date":null,"start_year":1894,"end_year":null}},{"type":"Feature","geometry":{"type":"Point","coordinates":[25.62799,-33.96874]},"properties":{"osm_type":"way","osm_id":1233703627,"name":"Rudolph Street Mosque","religion":"muslim","denomination":null,"start_date":"1894","end_date":null,"start_year":1894,"end_year":null}},{"type":"Feature","geometry":{"type":"Point","coordinates":[18.37667,-33.80556]},"properties":{"osm_type":"way","osm_id":353389038,"name":"Church of the Good Shepherd","religion":"christian","denomination":"anglican","start_date":"1895","end_date":null,"start_year":1895,"end_year":null}},{"type":"Feature","geometry":{"type":"Point","coordinates":[28.7837,-31.58981]},"properties":{"osm_type":"node","osm_id":11865773818,"name":"All Saints Catholic Cathedral – Amaroma","religion":"christian","denomination":"roman_catholic","start_date":"1896","end_date":null,"start_year":1896,"end_year":null}},{"type":"Feature","geometry":{"type":"Point","coordinates":[27.6222,-28.32267]},"properties":{"osm_type":"way","osm_id":217398558,"name":"Moederkerk Senekal (Klipkerk)","religion":"christian","denomination":null,"start_date":"1896","end_date":null,"start_year":1896,"end_year":null}},{"type":"Feature","geometry":{"type":"Point","coordinates":[23.50442,-30.59004]},"properties":{"osm_type":"way","osm_id":204030624,"name":"NG Kerk Britstown","religion":"christian","denomination":"dutch_reformed","start_date":"1896","end_date":null,"start_year":1896,"end_year":null}},{"type":"Feature","geometry":{"type":"Point","coordinates":[27.45808,-29.19225]},"properties":{"osm_type":"way","osm_id":669238635,"name":"St James's Anglican Chapel","religion":"christian","denomination":"anglican","start_date":"1896","end_date":null,"start_year":1896,"end_year":null}},{"type":"Feature","geometry":{"type":"Point","coordinates":[18.45124,-33.92831]},"properties":{"osm_type":"way","osm_id":662865260,"name":"Woodstock Baptist Church","religion":"christian","denomination":"baptist","start_date":"1897","end_date":null,"start_year":1897,"end_year":null}},{"type":"Feature","geometry":{"type":"Point","coordinates":[24.7712,-34.02594]},"properties":{"osm_type":"way","osm_id":1110915470,"name":"St Mark's Anglican Church","religion":"christian","denomination":"anglican","start_date":"1898","end_date":null,"start_year":1898,"end_year":null}},{"type":"Feature","geometry":{"type":"Point","coordinates":[20.66048,-32.39432]},"properties":{"osm_type":"way","osm_id":762894306,"name":"Sutherland NG Kerk","religion":"christian","denomination":"dutch_reformed","start_date":"1899-05-08","end_date":null,"start_year":1899,"end_year":null}},{"type":"Feature","geometry":{"type":"Point","coordinates":[19.77272,-31.47542]},"properties":{"osm_type":"way","osm_id":239946298,"name":"NG Kerk Calvinia","religion":"christian","denomination":"dutch_reformed","start_date":"1900","end_date":null,"start_year":1900,"end_year":null}},{"type":"Feature","geometry":{"type":"Point","coordinates":[18.47171,-33.95338]},"properties":{"osm_type":"way","osm_id":213454933,"name":"Rosebank Methodist Church","religion":"christian","denomination":"methodist","start_date":"1900","end_date":null,"start_year":1900,"end_year":null}},{"type":"Feature","geometry":{"type":"Point","coordinates":[25.62831,-33.96614]},"properties":{"osm_type":"way","osm_id":185271191,"name":"Masjid Azîez","religion":"muslim","denomination":"sunni","start_date":"1901-07","end_date":null,"start_year":1901,"end_year":null}},{"type":"Feature","geometry":{"type":"Point","coordinates":[18.44988,-33.93232]},"properties":{"osm_type":"way","osm_id":894693526,"name":"Greek Orthodox Cathedral of St George","religion":"christian","denomination":"greek_orthodox","start_date":"1904","end_date":null,"start_year":1904,"end_year":null}},{"type":"Feature","geometry":{"type":"Point","coordinates":[18.46924,-33.94316]},"properties":{"osm_type":"way","osm_id":1009989712,"name":"Salvation Army","religion":"christian","denomination":"salvation_army","start_date":"1904","end_date":null,"start_year":1904,"end_year":null}},{"type":"Feature","geometry":{"type":"Point","coordinates":[30.14304,-27.35739]},"properties":{"osm_type":"node","osm_id":11865790832,"name":"St Joseph's Catholic Church","religion":"christian","denomination":"roman_catholic","start_date":"1904","end_date":null,"start_year":1904,"end_year":null}},{"type":"Feature","geometry":{"type":"Point","coordinates":[20.48569,-30.46447]},"properties":{"osm_type":"way","osm_id":223305858,"name":null,"religion":"christian","denomination":"protestant","start_date":"1905","end_date":null,"start_year":1905,"end_year":null}},{"type":"Feature","geometry":{"type":"Point","coordinates":[28.35476,-26.50351]},"properties":{"osm_type":"way","osm_id":1110806444,"name":"Heidelberg Presbyterian Church","religion":"christian","denomination":"presbyterian","start_date":"1906-02-13","end_date":null,"start_year":1906,"end_year":null}},{"type":"Feature","geometry":{"type":"Point","coordinates":[26.08348,-33.31598]},"properties":{"osm_type":"node","osm_id":6329070733,"name":null,"religion":"christian","denomination":null,"start_date":"1906","end_date":null,"start_year":1906,"end_year":null}},{"type":"Feature","geometry":{"type":"Point","coordinates":[24.06331,-32.4756]},"properties":{"osm_type":"way","osm_id":767442081,"name":"Aberdeen NG Kerk","religion":"christian","denomination":"dutch_reformed","start_date":"1907","end_date":null,"start_year":1907,"end_year":null}},{"type":"Feature","geometry":{"type":"Point","coordinates":[23.76187,-31.96308]},"properties":{"osm_type":"way","osm_id":767758994,"name":"NG Kerk - Murraysburg","religion":"christian","denomination":"dutch_reformed","start_date":"14 December 1907","end_date":null,"start_year":1907,"end_year":null}},{"type":"Feature","geometry":{"type":"Point","coordinates":[19.11544,-31.37558]},"properties":{"osm_type":"way","osm_id":239946299,"name":"NG Kerk Nieuwoudtville","religion":"christian","denomination":null,"start_date":"1907","end_date":null,"start_year":1907,"end_year":null}},{"type":"Feature","geometry":{"type":"Point","coordinates":[24.34103,-33.01815]},"properties":{"osm_type":"way","osm_id":1218255927,"name":"NG Gemeente Klipplaat","religion":"christian","denomination":null,"start_date":"1908","end_date":null,"start_year":1908,"end_year":null}},{"type":"Feature","geometry":{"type":"Point","coordinates":[22.87943,-30.57647]},"properties":{"osm_type":"way","osm_id":655222362,"name":"NG Kerk Vosburg","religion":"christian","denomination":"dutch_reformed","start_date":"1909","end_date":null,"start_year":1909,"end_year":null}},{"type":"Feature","geometry":{"type":"Point","coordinates":[18.41944,-33.92489]},"properties":{"osm_type":"way","osm_id":141281671,"name":"St. George's Cathedral","religion":"christian","denomination":"anglican","start_date":"1909","end_date":null,"start_year":1909,"end_year":null}},{"type":"Feature","geometry":{"type":"Point","coordinates":[18.45175,-33.93305]},"properties":{"osm_type":"way","osm_id":739638046,"name":"All Saints Church","religion":"christian","denomination":"anglican","start_date":"1912","end_date":null,"start_year":1912,"end_year":null}},{"type":"Feature","geometry":{"type":"Point","coordinates":[28.24168,-26.22182]},"properties":{"osm_type":"way","osm_id":239878490,"name":"St Michael and All Angels Church","religion":"christian","denomination":"anglican","start_date":"May 1912","end_date":null,"start_year":1912,"end_year":null}},{"type":"Feature","geometry":{"type":"Point","coordinates":[28.04935,-26.19396]},"properties":{"osm_type":"way","osm_id":61652833,"name":"Old Synagogue","religion":"christian","denomination":null,"start_date":"1914","end_date":null,"start_year":1914,"end_year":null}},{"type":"Feature","geometry":{"type":"Point","coordinates":[18.8974,-33.3827]},"properties":{"osm_type":"way","osm_id":763987866,"name":"NG Kerk Riebeek-Kasteel","religion":"christian","denomination":"dutch_reformed","start_date":"1915-01-13","end_date":null,"start_year":1915,"end_year":null}},{"type":"Feature","geometry":{"type":"Point","coordinates":[26.87218,-31.89371]},"properties":{"osm_type":"way","osm_id":1110806441,"name":"The Cathedral Church of Saint Michael and All Angels","religion":"christian","denomination":"anglican","start_date":"1921","end_date":null,"start_year":1921,"end_year":null}},{"type":"Feature","geometry":{"type":"Point","coordinates":[27.45403,-29.19378]},"properties":{"osm_type":"node","osm_id":11774474781,"name":"St Michael's","religion":"christian","denomination":"catholic","start_date":"1922","end_date":null,"start_year":1922,"end_year":null}},{"type":"Feature","geometry":{"type":"Point","coordinates":[31.05226,-25.79209]},"properties":{"osm_type":"way","osm_id":1110821411,"name":"All Saints Anglican Church","religion":"christian","denomination":"anglican","start_date":"1924","end_date":null,"start_year":1924,"end_year":null}},{"type":"Feature","geometry":{"type":"Point","coordinates":[22.35331,-31.47786]},"properties":{"osm_type":"way","osm_id":762779037,"name":"Nederduitse Gereformeerde Kerk - Loxton","religion":"christian","denomination":"dutch_reformed","start_date":"1924","end_date":null,"start_year":1924,"end_year":null}},{"type":"Feature","geometry":{"type":"Point","coordinates":[28.9622,-27.85926]},"properties":{"osm_type":"node","osm_id":6917154621,"name":"NG gemeente Warden","religion":"christian","denomination":null,"start_date":"14 May 1924","end_date":null,"start_year":1924,"end_year":null}},{"type":"Feature","geometry":{"type":"Point","coordinates":[18.53872,-32.47979]},"properties":{"osm_type":"way","osm_id":763180110,"name":"NG Kerk Redelinghuys","religion":"christian","denomination":"dutch_reformed","start_date":"1927","end_date":null,"start_year":1927,"end_year":null}},{"type":"Feature","geometry":{"type":"Point","coordinates":[18.46675,-33.93924]},"properties":{"osm_type":"way","osm_id":1035171519,"name":"Masjid IbaaDur-Ragmaan","religion":"muslim","denomination":null,"start_date":"1929","end_date":null,"start_year":1929,"end_year":null}},{"type":"Feature","geometry":{"type":"Point","coordinates":[31.0167,-29.85726]},"properties":{"osm_type":"way","osm_id":471726381,"name":"Grey Street Mosque","religion":"muslim","denomination":null,"start_date":"1930","end_date":null,"start_year":1930,"end_year":null}},{"type":"Feature","geometry":{"type":"Point","coordinates":[25.60044,-33.93442]},"properties":{"osm_type":"node","osm_id":11865790831,"name":"St Patrick's Church","religion":"christian","denomination":"roman_catholic","start_date":"1934","end_date":null,"start_year":1934,"end_year":null}},{"type":"Feature","geometry":{"type":"Point","coordinates":[26.89482,-33.58999]},"properties":{"osm_type":"way","osm_id":1110806442,"name":"St Paul's","religion":"christian","denomination":"anglican","start_date":"1936","end_date":null,"start_year":1936,"end_year":null}},{"type":"Feature","geometry":{"type":"Point","coordinates":[28.59928,-27.02884]},"properties":{"osm_type":"way","osm_id":642108025,"name":"NG Kerk","religion":"christian","denomination":null,"start_date":"March 1941","end_date":null,"start_year":1941,"end_year":null}},{"type":"Feature","geometry":{"type":"Point","coordinates":[25.61212,-33.97335]},"properties":{"osm_type":"way","osm_id":1026139499,"name":"Saint Saviour","religion":"christian","denomination":null,"start_date":"1942","end_date":null,"start_year":1942,"end_year":null}},{"type":"Feature","geometry":{"type":"Point","coordinates":[25.56221,-33.94595]},"properties":{"osm_type":"way","osm_id":1034007815,"name":"NG Wes","religion":"christian","denomination":"dutch_reformed","start_date":"1 May 1948","end_date":null,"start_year":1948,"end_year":null}},{"type":"Feature","geometry":{"type":"Point","coordinates":[22.20942,-33.5831]},"properties":{"osm_type":"node","osm_id":7341729050,"name":"NG Kerk Oudtshoorn-Noord","religion":"christian","denomination":"dutch_reformed","start_date":"1951","end_date":null,"start_year":1951,"end_year":null}},{"type":"Feature","geometry":{"type":"Point","coordinates":[25.56311,-33.95359]},"properties":{"osm_type":"way","osm_id":112265484,"name":"Newton Park N.G. Church","religion":"christian","denomination":"dutch_reformed","start_date":"29 May 1953","end_date":null,"start_year":1953,"end_year":null}},{"type":"Feature","geometry":{"type":"Point","coordinates":[27.1438,-29.52723]},"properties":{"osm_type":"node","osm_id":7343301596,"name":"NG Kerk - Hobhouse","religion":"christian","denomination":"dutch_reformed","start_date":"1 December 1956","end_date":null,"start_year":1956,"end_year":null}},{"type":"Feature","geometry":{"type":"Point","coordinates":[30.86547,-29.81925]},"properties":{"osm_type":"node","osm_id":2648068264,"name":"NG Kerk","religion":"christian","denomination":null,"start_date":"29 November 1958","end_date":null,"start_year":1958,"end_year":null}},{"type":"Feature","geometry":{"type":"Point","coordinates":[27.24001,-25.67117]},"properties":{"osm_type":"way","osm_id":947894380,"name":"Gereformeerde Kerke","religion":"christian","denomination":"reformed","start_date":"11.02.1959","end_date":null,"start_year":1959,"end_year":null}},{"type":"Feature","geometry":{"type":"Point","coordinates":[29.16894,-27.42384]},"properties":{"osm_type":"node","osm_id":692795211,"name":"Vrede Catholic Church","religion":"christian","denomination":"catholic","start_date":"1959","end_date":null,"start_year":1959,"end_year":null}},{"type":"Feature","geometry":{"type":"Point","coordinates":[19.30933,-33.36558]},"properties":{"osm_type":"node","osm_id":7341728958,"name":"NG Kerk Ceresvallei","religion":"christian","denomination":"dutch_reformed","start_date":"22/02/1964","end_date":null,"start_year":1964,"end_year":null}},{"type":"Feature","geometry":{"type":"Point","coordinates":[27.59731,-30.96792]},"properties":{"osm_type":"way","osm_id":1110806440,"name":"St Stephen's Church","religion":"christian","denomination":"anglican","start_date":"1974","end_date":null,"start_year":1974,"end_year":null}},{"type":"Feature","geometry":{"type":"Point","coordinates":[18.44431,-34.06334]},"properties":{"osm_type":"way","osm_id":814043646,"name":"Tokai Community Church","religion":"christian","denomination":"anglican","start_date":"1983","end_date":null,"start_year":1983,"end_year":null}},{"type":"Feature","geometry":{"type":"Point","coordinates":[28.19262,-25.68393]},"properties":{"osm_type":"node","osm_id":6405727363,"name":"The Upper Room","religion":"christian","denomination":"evangelical","start_date":"2016","end_date":null,"start_year":2016,"end_year":null}}]}
