{"type":"FeatureCollection", "features": [
{"type":"Feature","geometry":{"type":"Polygon","coordinates":[[[-61.42337,15.6394],[-61.42441,15.63943],[-61.42564,15.63919],[-61.42705,15.63914],[-61.42911,15.63928],[-61.43127,15.63934],[-61.43339,15.63922],[-61.43658,15.63943],[-61.4395,15.6394],[-61.44144,15.63917],[-61.44264,15.63919],[-61.44436,15.63931],[-61.44639,15.63914],[-61.44841,15.63884],[-61.45078,15.6384],[-61.45336,15.63789],[-61.45505,15.63789],[-61.45622,15.6381],[-61.45739,15.63825],[-61.45797,15.63819],[-61.45825,15.63843],[-61.45883,15.6381],[-61.45911,15.63772],[-61.46089,15.63535],[-61.46178,15.63396],[-61.46323,15.63079],[-61.46427,15.62745],[-61.46486,15.62472],[-61.46559,15.62312],[-61.46618,15.62188],[-61.46618,15.62022],[-61.46627,15.61578],[-61.46642,15.61419],[-61.46615,15.61271],[-61.46538,15.61211],[-61.46464,15.6109],[-61.46433,15.60954],[-61.46452,15.60853],[-61.46516,15.60809],[-61.46615,15.60773],[-61.4663,15.60714],[-61.46578,15.60584],[-61.46486,15.60572],[-61.4643,15.60522],[-61.46409,15.60418],[-61.4635,15.60326],[-61.46301,15.60202],[-61.46261,15.60075],[-61.46169,15.59942],[-61.46169,15.59814],[-61.46224,15.59654],[-61.46295,15.59471],[-61.46375,15.5932],[-61.46569,15.59136],[-61.46756,15.59039],[-61.46891,15.59045],[-61.47051,15.59056],[-61.47159,15.59009],[-61.473,15.5898],[-61.47432,15.58991],[-61.4754,15.59012],[-61.47709,15.59],[-61.47819,15.58852],[-61.4785,15.58657],[-61.47844,15.5845],[-61.47776,15.58287],[-61.47629,15.58219],[-61.4734,15.58207],[-61.47177,15.58254],[-61.46851,15.58447],[-61.46704,15.58473],[-61.46575,15.58432],[-61.46461,15.58423],[-61.46353,15.5842],[-61.462,15.58346],[-61.46006,15.58112],[-61.45911,15.58026],[-61.45831,15.57902],[-61.45813,15.57769],[-61.45736,15.57591],[-61.4564,15.57399],[-61.45613,15.57135],[-61.45662,15.56913],[-61.45754,15.56768],[-61.45797,15.56632],[-61.45846,15.56528],[-61.45932,15.56339],[-61.45982,15.56268],[-61.46025,15.56096],[-61.46061,15.55871],[-61.46159,15.55552],[-61.4627,15.55353],[-61.46462,15.55145],[-61.46635,15.5496],[-61.46851,15.54802],[-61.47048,15.54793],[-61.47168,15.54742],[-61.47365,15.54567],[-61.47542,15.54506],[-61.47648,15.54391],[-61.47768,15.54233],[-61.47936,15.54071],[-61.47989,15.53877],[-61.47974,15.5366],[-61.47864,15.53438],[-61.47749,15.53336],[-61.47643,15.53251],[-61.47605,15.5322],[-61.47477,15.53018],[-61.47452,15.52906],[-61.47446,15.527],[-61.47393,15.52579],[-61.47129,15.51959],[-61.47113,15.51841],[-61.47048,15.51699],[-61.47001,15.51515],[-61.46889,15.51309],[-61.46759,15.50998],[-61.467,15.50782],[-61.46698,15.50539],[-61.46755,15.50335],[-61.46832,15.50259],[-61.46899,15.50128],[-61.46972,15.49923],[-61.46989,15.49863],[-61.46964,15.49683],[-61.4694,15.49482],[-61.46879,15.49425],[-61.46838,15.49402],[-61.46696,15.49178],[-61.46622,15.4904],[-61.46572,15.48866],[-61.46543,15.48752],[-61.4647,15.4861],[-61.4638,15.48468],[-61.46315,15.48348],[-61.46279,15.48255],[-61.46097,15.48047],[-61.45984,15.47863],[-61.45947,15.47738],[-61.45929,15.47643],[-61.45851,15.47435],[-61.45807,15.47239],[-61.45841,15.47179],[-61.45851,15.47093],[-61.45809,15.47014],[-61.45741,15.46942],[-61.45717,15.46855],[-61.45654,15.46722],[-61.45607,15.46614],[-61.45585,15.46511],[-61.45575,15.46453],[-61.45495,15.46326],[-61.45434,15.4624],[-61.45391,15.46179],[-61.45353,15.46125],[-61.45249,15.46043],[-61.45117,15.45903],[-61.44979,15.45729],[-61.44865,15.45584],[-61.44698,15.45298],[-61.44684,15.45205],[-61.4472,15.4511],[-61.44771,15.45037],[-61.44871,15.44925],[-61.44954,15.44798],[-61.4503,15.44631],[-61.45052,15.44492],[-61.45027,15.44354],[-61.44981,15.44305],[-61.44889,15.44248],[-61.44828,15.44187],[-61.44733,15.4417],[-61.4468,15.44125],[-61.44621,15.44064],[-61.44553,15.44039],[-61.44427,15.43933],[-61.44269,15.43764],[-61.4413,15.43653],[-61.44008,15.43581],[-61.43903,15.43569],[-61.43846,15.43546],[-61.43742,15.43446],[-61.43662,15.43315],[-61.4362,15.43154],[-61.43603,15.42942],[-61.4361,15.42875],[-61.43612,15.42816],[-61.43561,15.42716],[-61.43457,15.42574],[-61.43355,15.42479],[-61.43201,15.42278],[-61.43115,15.42132],[-61.43068,15.41961],[-61.43018,15.41942],[-61.42979,15.41918],[-61.4294,15.41872],[-61.42875,15.4176],[-61.42769,15.41537],[-61.42704,15.41423],[-61.4269,15.41313],[-61.427,15.41229],[-61.4269,15.41108],[-61.42664,15.41008],[-61.42629,15.40795],[-61.42639,15.40598],[-61.42674,15.40427],[-61.42696,15.4034],[-61.42745,15.40211],[-61.42772,15.4013],[-61.42772,15.40022],[-61.42745,15.3987],[-61.427,15.39775],[-61.42625,15.39703],[-61.4257,15.3961],[-61.42509,15.39443],[-61.42513,15.39373],[-61.42495,15.39333],[-61.4243,15.39242],[-61.42352,15.39187],[-61.42316,15.39138],[-61.42216,15.3906],[-61.4206,15.38984],[-61.42031,15.3897],[-61.41885,15.38903],[-61.41758,15.38872],[-61.41651,15.38829],[-61.41478,15.38719],[-61.41311,15.38539],[-61.41203,15.38398],[-61.4115,15.38248],[-61.41164,15.38178],[-61.41162,15.38099],[-61.41112,15.38053],[-61.41004,15.37989],[-61.409,15.37915],[-61.408,15.37797],[-61.40749,15.37731],[-61.40634,15.37526],[-61.40544,15.37291],[-61.40465,15.36999],[-61.40444,15.36811],[-61.4043,15.36733],[-61.40343,15.36619],[-61.40253,15.36504],[-61.40147,15.36462],[-61.40074,15.36422],[-61.39942,15.36337],[-61.3973,15.36126],[-61.3957,15.35876],[-61.39568,15.35804],[-61.39596,15.35762],[-61.39588,15.3569],[-61.39541,15.35652],[-61.39458,15.35616],[-61.39437,15.3554],[-61.39411,15.35424],[-61.3938,15.35271],[-61.39389,15.35182],[-61.39395,15.35077],[-61.39384,15.34948],[-61.39362,15.34745],[-61.39315,15.34453],[-61.39293,15.34262],[-61.39285,15.3404],[-61.39263,15.33865],[-61.39266,15.33734],[-61.39313,15.33604],[-61.39396,15.33456],[-61.39512,15.33219],[-61.39583,15.33148],[-61.39595,15.33041],[-61.39577,15.32964],[-61.39546,15.32919],[-61.39528,15.32836],[-61.3954,15.32667],[-61.39552,15.32558],[-61.39534,15.32392],[-61.39485,15.32208],[-61.39448,15.32072],[-61.39402,15.32006],[-61.393,15.31909],[-61.39153,15.31811],[-61.39117,15.31785],[-61.39058,15.31743],[-61.38922,15.31571],[-61.38879,15.31443],[-61.38876,15.31345],[-61.3891,15.30999],[-61.38947,15.30844],[-61.39011,15.30595],[-61.39039,15.30441],[-61.3907,15.30222],[-61.39085,15.29982],[-61.39039,15.2984],[-61.38852,15.29694],[-61.38753,15.29602],[-61.38597,15.29493],[-61.384,15.29377],[-61.382,15.29306],[-61.37997,15.29184],[-61.37874,15.29075],[-61.37758,15.28968],[-61.37665,15.28749],[-61.37589,15.28571],[-61.37539,15.28396],[-61.37509,15.28135],[-61.37478,15.27844],[-61.37481,15.27658],[-61.37469,15.27441],[-61.37484,15.27287],[-61.37527,15.27198],[-61.37577,15.26981],[-61.37595,15.26905],[-61.37628,15.26656],[-61.37656,15.26584],[-61.37718,15.26439],[-61.37745,15.26285],[-61.37773,15.26063],[-61.37779,15.25965],[-61.37751,15.2587],[-61.37678,15.25686],[-61.37607,15.25538],[-61.37579,15.25416],[-61.37552,15.25244],[-61.37506,15.25102],[-61.37453,15.24957],[-61.3738,15.24791],[-61.37312,15.24604],[-61.37309,15.24459],[-61.37293,15.24207],[-61.37257,15.24153],[-61.37183,15.2402],[-61.37078,15.23871],[-61.36977,15.23756],[-61.36891,15.23696],[-61.36722,15.23611],[-61.3663,15.23551],[-61.3659,15.23492],[-61.36544,15.23415],[-61.3654,15.23413],[-61.36482,15.23388],[-61.36356,15.23329],[-61.36209,15.23284],[-61.36132,15.23219],[-61.36076,15.23044],[-61.36083,15.22917],[-61.36107,15.2265],[-61.36129,15.2251],[-61.3615,15.22383],[-61.36221,15.22276],[-61.36359,15.2198],[-61.36454,15.21846],[-61.36522,15.21751],[-61.36541,15.21662],[-61.36565,15.21514],[-61.36648,15.21413],[-61.36826,15.213],[-61.3698,15.21324],[-61.37155,15.21381],[-61.37235,15.21458],[-61.37333,15.21526],[-61.37389,15.21508],[-61.3738,15.21443],[-61.37312,15.2136],[-61.3721,15.21306],[-61.37063,15.2128],[-61.3686,15.21203],[-61.36645,15.21096],[-61.36488,15.20998],[-61.3604,15.20853],[-61.35861,15.20808],[-61.35465,15.20773],[-61.35072,15.20787],[-61.34844,15.20903],[-61.3465,15.20965],[-61.34475,15.20921],[-61.34374,15.20894],[-61.34251,15.20951],[-61.3418,15.21051],[-61.34033,15.21114],[-61.33888,15.21117],[-61.3379,15.2106],[-61.33698,15.21037],[-61.33553,15.21063],[-61.33437,15.21167],[-61.33422,15.21172],[-61.33283,15.21223],[-61.33074,15.2125],[-61.33019,15.21348],[-61.33083,15.21481],[-61.33157,15.21606],[-61.33181,15.21716],[-61.33135,15.21837],[-61.33019,15.22024],[-61.32794,15.22196],[-61.32487,15.22395],[-61.32041,15.22525],[-61.31716,15.22599],[-61.31586,15.22662],[-61.3147,15.22816],[-61.31451,15.22928],[-61.31436,15.23071],[-61.31298,15.23394],[-61.31304,15.23495],[-61.31328,15.2364],[-61.3131,15.23723],[-61.31245,15.23866],[-61.31116,15.24135],[-61.31039,15.24266],[-61.30858,15.24346],[-61.30717,15.24432],[-61.30514,15.24506],[-61.30262,15.24524],[-61.30025,15.24503],[-61.29847,15.24473],[-61.29703,15.24456],[-61.29429,15.24429],[-61.29281,15.24405],[-61.29205,15.24337],[-61.29116,15.24209],[-61.29109,15.241],[-61.29048,15.24061],[-61.28907,15.241],[-61.28854,15.24198],[-61.28713,15.24272],[-61.28572,15.24304],[-61.28396,15.24367],[-61.2828,15.24393],[-61.28147,15.2437],[-61.27899,15.24316],[-61.27594,15.24313],[-61.27308,15.24384],[-61.2709,15.24414],[-61.26875,15.24521],[-61.26709,15.24636],[-61.26663,15.24728],[-61.26503,15.24817],[-61.26399,15.2488],[-61.26282,15.24972],[-61.26144,15.25007],[-61.26058,15.25049],[-61.25953,15.25072],[-61.25944,15.25176],[-61.2599,15.25286],[-61.25975,15.25387],[-61.25904,15.25499],[-61.25803,15.25621],[-61.2579,15.25772],[-61.25781,15.25938],[-61.25818,15.26095],[-61.25827,15.26264],[-61.25769,15.26546],[-61.25735,15.26721],[-61.25729,15.26869],[-61.2568,15.27068],[-61.25597,15.27332],[-61.25501,15.27453],[-61.25468,15.27649],[-61.25458,15.27856],[-61.254,15.28076],[-61.25471,15.28185],[-61.25461,15.28307],[-61.25375,15.28322],[-61.25323,15.2836],[-61.25237,15.28452],[-61.25126,15.28485],[-61.25013,15.28565],[-61.24881,15.28633],[-61.24736,15.28666],[-61.24598,15.28689],[-61.24543,15.28722],[-61.24573,15.28817],[-61.24644,15.28921],[-61.24678,15.29057],[-61.24755,15.2919],[-61.24715,15.29256],[-61.24641,15.29336],[-61.24641,15.29543],[-61.2473,15.29674],[-61.2485,15.29762],[-61.24887,15.29914],[-61.24807,15.30032],[-61.24739,15.301],[-61.24755,15.30234],[-61.24751,15.30323],[-61.24696,15.30421],[-61.24687,15.30495],[-61.24718,15.30625],[-61.24721,15.30824],[-61.2465,15.30966],[-61.24653,15.31067],[-61.24598,15.31191],[-61.24576,15.31334],[-61.2457,15.31488],[-61.24506,15.3182],[-61.24435,15.31938],[-61.24377,15.32095],[-61.24377,15.32235],[-61.24355,15.32412],[-61.24263,15.32599],[-61.24186,15.32765],[-61.24112,15.32884],[-61.24146,15.33008],[-61.2414,15.33094],[-61.24128,15.33228],[-61.24186,15.33308],[-61.24312,15.33476],[-61.24435,15.33595],[-61.24515,15.33672],[-61.24561,15.33826],[-61.24625,15.34046],[-61.24644,15.34212],[-61.24665,15.34263],[-61.24699,15.34348],[-61.24816,15.34472],[-61.24905,15.34603],[-61.2497,15.34855],[-61.25016,15.35053],[-61.24964,15.35163],[-61.24936,15.35287],[-61.24988,15.35441],[-61.25016,15.35613],[-61.25031,15.35756],[-61.25053,15.35886],[-61.25099,15.36203],[-61.25169,15.36538],[-61.25169,15.36683],[-61.25197,15.36816],[-61.25191,15.36938],[-61.25173,15.37113],[-61.2512,15.37382],[-61.25074,15.37557],[-61.25,15.37631],[-61.24884,15.37634],[-61.24761,15.37637],[-61.24622,15.37708],[-61.2446,15.37771],[-61.24441,15.37842],[-61.24463,15.37948],[-61.24506,15.38106],[-61.24579,15.38168],[-61.24733,15.38186],[-61.24917,15.38206],[-61.25114,15.38266],[-61.25222,15.38325],[-61.25216,15.3842],[-61.25133,15.38529],[-61.25074,15.3863],[-61.25077,15.3868],[-61.25114,15.38728],[-61.25114,15.38787],[-61.25216,15.38831],[-61.25212,15.38983],[-61.25166,15.3911],[-61.25136,15.39166],[-61.2505,15.39205],[-61.24899,15.39223],[-61.24785,15.39231],[-61.24669,15.39258],[-61.24644,15.393],[-61.24496,15.39332],[-61.24389,15.39291],[-61.24321,15.39291],[-61.24294,15.39356],[-61.24297,15.39421],[-61.24235,15.39466],[-61.24048,15.39489],[-61.24063,15.39581],[-61.24131,15.39673],[-61.24195,15.39815],[-61.24241,15.39886],[-61.24257,15.39943],[-61.24192,15.39984],[-61.24125,15.40043],[-61.24152,15.401],[-61.24201,15.402],[-61.2422,15.40292],[-61.24294,15.40334],[-61.24475,15.40351],[-61.24601,15.40346],[-61.24782,15.40307],[-61.24985,15.40325],[-61.25133,15.40384],[-61.25246,15.40366],[-61.25382,15.40378],[-61.25428,15.40476],[-61.25421,15.40547],[-61.25385,15.40603],[-61.25283,15.4066],[-61.25228,15.40737],[-61.25243,15.40805],[-61.25237,15.40891],[-61.25169,15.40956],[-61.2508,15.40947],[-61.24902,15.40944],[-61.24807,15.40991],[-61.24748,15.41086],[-61.24721,15.41276],[-61.24696,15.41335],[-61.24708,15.41451],[-61.24804,15.41504],[-61.24893,15.41501],[-61.24896,15.4164],[-61.24862,15.41735],[-61.24813,15.4178],[-61.24844,15.41877],[-61.24948,15.4191],[-61.25056,15.41993],[-61.25013,15.42097],[-61.24973,15.42185],[-61.24985,15.42313],[-61.25068,15.4244],[-61.25083,15.42574],[-61.24988,15.42689],[-61.24893,15.42707],[-61.24807,15.42769],[-61.24795,15.42846],[-61.24868,15.42982],[-61.24945,15.43056],[-61.24933,15.43163],[-61.2489,15.43296],[-61.24942,15.43341],[-61.25031,15.43317],[-61.25142,15.43276],[-61.25268,15.43282],[-61.25428,15.43205],[-61.25492,15.4324],[-61.25597,15.43341],[-61.25695,15.43468],[-61.25741,15.43584],[-61.25729,15.43699],[-61.25652,15.43824],[-61.25532,15.43975],[-61.25489,15.44064],[-61.25461,15.44176],[-61.25434,15.44283],[-61.25382,15.44434],[-61.25323,15.44632],[-61.25246,15.44804],[-61.25166,15.44899],[-61.25086,15.44926],[-61.24905,15.44932],[-61.24868,15.44973],[-61.24924,15.45062],[-61.24936,15.45112],[-61.24914,15.4524],[-61.24865,15.45364],[-61.24782,15.45423],[-61.24681,15.45459],[-61.24656,15.45527],[-61.24669,15.45693],[-61.24644,15.45788],[-61.24586,15.45844],[-61.24506,15.45909],[-61.24509,15.46025],[-61.24641,15.46066],[-61.24702,15.4614],[-61.24675,15.46273],[-61.2465,15.46407],[-61.24598,15.46475],[-61.24398,15.46516],[-61.24226,15.46549],[-61.24158,15.46632],[-61.24183,15.46727],[-61.243,15.46774],[-61.24441,15.46801],[-61.24503,15.46836],[-61.2453,15.46993],[-61.24493,15.471],[-61.2449,15.47171],[-61.24456,15.47254],[-61.24407,15.47319],[-61.24392,15.47405],[-61.24456,15.47482],[-61.24543,15.475],[-61.24696,15.475],[-61.24745,15.4755],[-61.24715,15.47636],[-61.24724,15.47713],[-61.24779,15.47947],[-61.24761,15.48101],[-61.24733,15.48243],[-61.24659,15.48299],[-61.24669,15.48373],[-61.24739,15.48427],[-61.24816,15.48545],[-61.24853,15.48655],[-61.24948,15.4869],[-61.24973,15.48747],[-61.2493,15.48809],[-61.24884,15.4885],[-61.24881,15.48981],[-61.24908,15.49096],[-61.24868,15.49132],[-61.24844,15.492],[-61.24914,15.49289],[-61.25007,15.49315],[-61.25114,15.49377],[-61.25228,15.49484],[-61.25308,15.49641],[-61.25323,15.49786],[-61.25271,15.49833],[-61.25188,15.49884],[-61.25212,15.49958],[-61.25286,15.49967],[-61.25391,15.50005],[-61.2548,15.50091],[-61.25547,15.50159],[-61.25677,15.50186],[-61.25781,15.50227],[-61.25846,15.50328],[-61.25904,15.50396],[-61.25925,15.5055],[-61.25886,15.50648],[-61.25809,15.50695],[-61.25698,15.50763],[-61.25692,15.50982],[-61.25698,15.51433],[-61.25695,15.51652],[-61.25634,15.51708],[-61.25615,15.5177],[-61.25689,15.51815],[-61.25787,15.51841],[-61.25849,15.51898],[-61.25925,15.51918],[-61.26027,15.51883],[-61.26125,15.51868],[-61.2627,15.51886],[-61.26396,15.51942],[-61.26522,15.51975],[-61.26685,15.51915],[-61.26829,15.51859],[-61.2697,15.51767],[-61.2706,15.51764],[-61.27164,15.51821],[-61.27282,15.51905],[-61.27296,15.51915],[-61.27388,15.51998],[-61.27487,15.52123],[-61.27521,15.52277],[-61.27514,15.52422],[-61.27459,15.5251],[-61.27388,15.52587],[-61.27351,15.52679],[-61.27287,15.52827],[-61.2717,15.53091],[-61.27133,15.53183],[-61.27195,15.53263],[-61.2717,15.53346],[-61.27109,15.53464],[-61.27078,15.53636],[-61.2713,15.53807],[-61.27232,15.53979],[-61.27299,15.54071],[-61.27434,15.54145],[-61.2753,15.5416],[-61.27671,15.54136],[-61.27809,15.54157],[-61.27905,15.54222],[-61.27988,15.54195],[-61.28126,15.54207],[-61.2824,15.54213],[-61.28366,15.5418],[-61.28581,15.5416],[-61.28722,15.54195],[-61.28759,15.54278],[-61.28768,15.54417],[-61.28814,15.54503],[-61.28959,15.54533],[-61.29069,15.54589],[-61.29165,15.5474],[-61.29199,15.5495],[-61.29235,15.5503],[-61.29306,15.55089],[-61.29444,15.5514],[-61.29512,15.55205],[-61.2958,15.55403],[-61.29604,15.55611],[-61.2965,15.55877],[-61.29684,15.56078],[-61.29749,15.56232],[-61.29825,15.56377],[-61.29844,15.56484],[-61.29844,15.56629],[-61.29878,15.567],[-61.29936,15.56756],[-61.30001,15.56741],[-61.30065,15.56721],[-61.30136,15.56736],[-61.30191,15.56801],[-61.30234,15.56881],[-61.30259,15.5699],[-61.30305,15.57055],[-61.30348,15.57097],[-61.30351,15.57174],[-61.30339,15.57221],[-61.30409,15.5728],[-61.30538,15.57337],[-61.30563,15.57416],[-61.30511,15.57526],[-61.30486,15.57612],[-61.30523,15.57662],[-61.30529,15.57742],[-61.30508,15.57816],[-61.30474,15.57875],[-61.30477,15.57994],[-61.30462,15.58056],[-61.30406,15.58106],[-61.30342,15.58157],[-61.30271,15.58234],[-61.30231,15.58325],[-61.30243,15.58399],[-61.30308,15.5845],[-61.30372,15.58461],[-61.30437,15.58515],[-61.30511,15.58589],[-61.30631,15.58642],[-61.3075,15.58642],[-61.30873,15.58645],[-61.31039,15.58663],[-61.31159,15.58663],[-61.3127,15.58698],[-61.3142,15.58758],[-61.31528,15.5884],[-61.31617,15.58935],[-61.31691,15.58959],[-61.31771,15.58923],[-61.31771,15.58873],[-61.31762,15.58799],[-61.31774,15.58716],[-61.31838,15.58657],[-61.31937,15.58615],[-61.3205,15.58615],[-61.32158,15.58657],[-61.32235,15.58654],[-61.32324,15.58642],[-61.32395,15.58678],[-61.3249,15.5871],[-61.32598,15.58719],[-61.32681,15.58758],[-61.32794,15.58829],[-61.32877,15.58846],[-61.32945,15.58817],[-61.33015,15.58766],[-61.3308,15.58775],[-61.33089,15.58843],[-61.33062,15.58885],[-61.33025,15.58962],[-61.3308,15.59003],[-61.33215,15.59033],[-61.33347,15.59051],[-61.33384,15.5908],[-61.33406,15.59199],[-61.33424,15.59314],[-61.33418,15.59427],[-61.33378,15.59512],[-61.33427,15.59554],[-61.33476,15.59545],[-61.33563,15.59545],[-61.33661,15.59583],[-61.33765,15.5958],[-61.33827,15.59607],[-61.33907,15.59604],[-61.3402,15.5958],[-61.34082,15.59524],[-61.34159,15.59495],[-61.34199,15.59527],[-61.34171,15.5958],[-61.34186,15.59657],[-61.34248,15.59725],[-61.34312,15.5974],[-61.34377,15.59699],[-61.34426,15.59634],[-61.34488,15.59586],[-61.34561,15.59512],[-61.34657,15.59444],[-61.3482,15.59388],[-61.34955,15.59338],[-61.35059,15.59338],[-61.35262,15.59344],[-61.35465,15.59344],[-61.35631,15.59332],[-61.35705,15.59391],[-61.35692,15.59456],[-61.35695,15.59539],[-61.35735,15.59637],[-61.35794,15.59681],[-61.35901,15.59696],[-61.35957,15.59684],[-61.36061,15.59734],[-61.36138,15.59805],[-61.36224,15.59882],[-61.36328,15.59962],[-61.36371,15.60039],[-61.36415,15.60087],[-61.36473,15.60107],[-61.3651,15.6006],[-61.36574,15.60001],[-61.36688,15.59894],[-61.36842,15.59752],[-61.36995,15.5966],[-61.37084,15.59669],[-61.37078,15.5974],[-61.37106,15.59791],[-61.37174,15.59767],[-61.37272,15.59702],[-61.37413,15.59545],[-61.37502,15.59444],[-61.37592,15.59438],[-61.37632,15.5948],[-61.3769,15.59521],[-61.37761,15.5948],[-61.37785,15.59397],[-61.37874,15.59367],[-61.37963,15.59429],[-61.3801,15.59569],[-61.38031,15.59654],[-61.38065,15.5964],[-61.38089,15.59542],[-61.3816,15.5937],[-61.3824,15.59373],[-61.38329,15.59435],[-61.38372,15.59533],[-61.38403,15.59622],[-61.38489,15.59675],[-61.38544,15.59669],[-61.38566,15.5961],[-61.38566,15.59545],[-61.38673,15.59527],[-61.38882,15.59515],[-61.38968,15.59474],[-61.39042,15.59492],[-61.39048,15.59566],[-61.39036,15.59631],[-61.3907,15.59723],[-61.39097,15.59791],[-61.39165,15.59814],[-61.3934,15.59933],[-61.3946,15.60024],[-61.39522,15.60078],[-61.39543,15.60143],[-61.39512,15.60249],[-61.39509,15.60368],[-61.39528,15.60445],[-61.39605,15.60501],[-61.39663,15.60528],[-61.39654,15.60584],[-61.39694,15.60634],[-61.39774,15.60652],[-61.39893,15.60643],[-61.39989,15.60723],[-61.40133,15.60898],[-61.40201,15.61066],[-61.40192,15.61194],[-61.40216,15.61306],[-61.40281,15.61463],[-61.40327,15.61567],[-61.40376,15.61608],[-61.40437,15.61617],[-61.4053,15.61629],[-61.40634,15.61709],[-61.40665,15.61803],[-61.40671,15.61886],[-61.40693,15.61963],[-61.4076,15.62028],[-61.40831,15.62138],[-61.40858,15.62227],[-61.40846,15.62321],[-61.40865,15.62484],[-61.40908,15.62605],[-61.40978,15.62697],[-61.41046,15.62753],[-61.41141,15.62798],[-61.41252,15.62857],[-61.41492,15.631],[-61.41648,15.63236],[-61.41731,15.63304],[-61.41722,15.63342],[-61.41685,15.63405],[-61.41679,15.63476],[-61.41691,15.63532],[-61.41731,15.63582],[-61.41783,15.63624],[-61.41857,15.63629],[-61.41934,15.63662],[-61.41992,15.63715],[-61.42057,15.63742],[-61.42112,15.63706],[-61.42168,15.63653],[-61.42217,15.63662],[-61.42266,15.63736],[-61.42297,15.63819],[-61.42297,15.63893],[-61.42337,15.6394]]]},"properties":{"area_code":"DM","area_name":"Dominica"}}
]}