{"type":"FeatureCollection","attribution":"© OpenStreetMap contributors, ODbL 1.0","features":[{"type":"Feature","geometry":{"type":"Point","coordinates":[76.36606,13.19101]},"properties":{"osm_type":"node","osm_id":2266831734,"name":"Chennakesava Temple","religion":"Vishnu","denomination":null,"start_date":"1163","end_date":null,"start_year":1163,"end_year":null}},{"type":"Feature","geometry":{"type":"Point","coordinates":[76.42919,12.76356]},"properties":{"osm_type":"node","osm_id":2264653446,"name":"Brahmeshvara Temple","religion":null,"denomination":null,"start_date":"1171 AD","end_date":null,"start_year":1171,"end_year":null}},{"type":"Feature","geometry":{"type":"Point","coordinates":[75.85386,13.74148]},"properties":{"osm_type":"node","osm_id":2266563929,"name":"Amruteshvara temple","religion":"hindu","denomination":null,"start_date":"1196 AD","end_date":null,"start_year":1196,"end_year":null}},{"type":"Feature","geometry":{"type":"Point","coordinates":[75.79378,14.99463]},"properties":{"osm_type":"node","osm_id":2269536887,"name":"Venugopalaswamy Temple","religion":"hindu","denomination":null,"start_date":"1215 AD","end_date":null,"start_year":1215,"end_year":null}},{"type":"Feature","geometry":{"type":"Point","coordinates":[76.3915,12.77412]},"properties":{"osm_type":"node","osm_id":2266561172,"name":"Panchalingeshwara Temple","religion":"hindu","denomination":null,"start_date":"1238 A.D.","end_date":null,"start_year":1238,"end_year":null}},{"type":"Feature","geometry":{"type":"Point","coordinates":[76.61541,13.25214]},"properties":{"osm_type":"node","osm_id":2266574895,"name":"Chennakeshava Temple","religion":"hindu","denomination":null,"start_date":"1250 AD","end_date":null,"start_year":1250,"end_year":null}},{"type":"Feature","geometry":{"type":"Point","coordinates":[76.88151,12.27577]},"properties":{"osm_type":"way","osm_id":151811088,"name":null,"religion":"hindu","denomination":null,"start_date":"1268 AD","end_date":null,"start_year":1268,"end_year":null}},{"type":"Feature","geometry":{"type":"Point","coordinates":[76.74888,14.72157]},"properties":{"osm_type":"way","osm_id":1026835774,"name":"Hirematha","religion":"hindu","denomination":"lingayat","start_date":"c. 1300","end_date":null,"start_year":1300,"end_year":null}},{"type":"Feature","geometry":{"type":"Point","coordinates":[85.17046,19.77905]},"properties":{"osm_type":"way","osm_id":326104203,"name":null,"religion":"hindu","denomination":null,"start_date":"1300","end_date":null,"start_year":1300,"end_year":null}},{"type":"Feature","geometry":{"type":"Point","coordinates":[76.66361,9.80045]},"properties":{"osm_type":"way","osm_id":668442576,"name":"St Augustine Church","religion":"christian","denomination":"assyrian","start_date":"1450","end_date":null,"start_year":1450,"end_year":null}},{"type":"Feature","geometry":{"type":"Point","coordinates":[77.21796,28.56258]},"properties":{"osm_type":"way","osm_id":231621851,"name":"Moth Ki Masjid","religion":"muslim","denomination":null,"start_date":"1505","end_date":null,"start_year":1505,"end_year":null}},{"type":"Feature","geometry":{"type":"Point","coordinates":[74.52412,15.8573]},"properties":{"osm_type":"way","osm_id":641684766,"name":null,"religion":null,"denomination":null,"start_date":"1519","end_date":null,"start_year":1519,"end_year":null}},{"type":"Feature","geometry":{"type":"Point","coordinates":[73.94159,15.51245]},"properties":{"osm_type":"way","osm_id":837341439,"name":"church of saint Blaise","religion":"christian","denomination":"roman_catholic","start_date":"1563","end_date":null,"start_year":1563,"end_year":null}},{"type":"Feature","geometry":{"type":"Point","coordinates":[77.57413,12.95958]},"properties":{"osm_type":"way","osm_id":347446474,"name":"Lakshmi Venkateshwara Temple","religion":"hindu","denomination":null,"start_date":"1689","end_date":null,"start_year":1689,"end_year":null}},{"type":"Feature","geometry":{"type":"Point","coordinates":[80.28732,13.0892]},"properties":{"osm_type":"way","osm_id":1076727642,"name":"Armenian Church of the Virgin Mary","religion":"christian","denomination":"armenian_apostolic","start_date":"1712","end_date":null,"start_year":1712,"end_year":null}},{"type":"Feature","geometry":{"type":"Point","coordinates":[77.2319,28.65606]},"properties":{"osm_type":"way","osm_id":265824671,"name":"Shahi Sunehri Masjid","religion":"muslim","denomination":null,"start_date":"1721","end_date":null,"start_year":1721,"end_year":null}},{"type":"Feature","geometry":{"type":"Point","coordinates":[79.79385,11.93134]},"properties":{"osm_type":"way","osm_id":1317522732,"name":"St. Andrews Church","religion":"christian","denomination":"roman_catholic","start_date":"1745-11-30","end_date":null,"start_year":1745,"end_year":null}},{"type":"Feature","geometry":{"type":"Point","coordinates":[80.27276,13.06373]},"properties":{"osm_type":"way","osm_id":1080595427,"name":"Triplicane Big Wallajah Mosque","religion":"muslim","denomination":null,"start_date":"1765","end_date":null,"start_year":1765,"end_year":null}},{"type":"Feature","geometry":{"type":"Point","coordinates":[73.80604,15.57849]},"properties":{"osm_type":"way","osm_id":1313272677,"name":"Our Lady of Assumption","religion":"christian","denomination":null,"start_date":"1768","end_date":null,"start_year":1768,"end_year":null}},{"type":"Feature","geometry":{"type":"Point","coordinates":[88.34476,22.75671]},"properties":{"osm_type":"way","osm_id":357708583,"name":"Catholic Church","religion":"christian","denomination":"catholic","start_date":"1776","end_date":null,"start_year":1776,"end_year":null}},{"type":"Feature","geometry":{"type":"Point","coordinates":[77.60039,12.97605]},"properties":{"osm_type":"way","osm_id":38773816,"name":"St. Mark's Cathedral","religion":"christian","denomination":"anglican","start_date":"1808","end_date":null,"start_year":1808,"end_year":null}},{"type":"Feature","geometry":{"type":"Point","coordinates":[79.83413,10.91693]},"properties":{"osm_type":"way","osm_id":759412266,"name":"Our Lady of Angels Church","religion":"christian","denomination":"roman_catholic","start_date":"1822","end_date":null,"start_year":1822,"end_year":null}},{"type":"Feature","geometry":{"type":"Point","coordinates":[77.60587,12.98265]},"properties":{"osm_type":"way","osm_id":1350961416,"name":"Jumma Masjid","religion":"muslim","denomination":"sunni","start_date":"1835","end_date":null,"start_year":1835,"end_year":null}},{"type":"Feature","geometry":{"type":"Point","coordinates":[77.60589,12.9701]},"properties":{"osm_type":"way","osm_id":403474594,"name":"St. Patrick's Church","religion":"christian","denomination":"catholic","start_date":"1841","end_date":null,"start_year":1841,"end_year":null}},{"type":"Feature","geometry":{"type":"Point","coordinates":[73.79329,15.54636]},"properties":{"osm_type":"way","osm_id":1369863618,"name":"St. Anne’s Chapel","religion":"christian","denomination":null,"start_date":"1843","end_date":null,"start_year":1843,"end_year":null}},{"type":"Feature","geometry":{"type":"Point","coordinates":[73.81324,15.59076]},"properties":{"osm_type":"way","osm_id":1183638234,"name":"Swiss Chapel","religion":"christian","denomination":null,"start_date":"1843","end_date":null,"start_year":1843,"end_year":null}},{"type":"Feature","geometry":{"type":"Point","coordinates":[79.12793,12.92013]},"properties":{"osm_type":"way","osm_id":1174506138,"name":"St. John's Church","religion":"christian","denomination":null,"start_date":"1846","end_date":null,"start_year":1846,"end_year":null}},{"type":"Feature","geometry":{"type":"Point","coordinates":[88.35754,22.65486]},"properties":{"osm_type":"way","osm_id":291865633,"name":"Dakshineswar Kali Hindu Temple","religion":"hindu","denomination":"hindu","start_date":"1847","end_date":null,"start_year":1847,"end_year":null}},{"type":"Feature","geometry":{"type":"Point","coordinates":[73.78567,15.622]},"properties":{"osm_type":"way","osm_id":1193396752,"name":"Mãe de Deus Chapel","religion":"christian","denomination":null,"start_date":"1847","end_date":null,"start_year":1847,"end_year":null}},{"type":"Feature","geometry":{"type":"Point","coordinates":[72.83348,18.92704]},"properties":{"osm_type":"way","osm_id":407952106,"name":"Church of St Andrew and St Columba","religion":"christian","denomination":"protestant","start_date":"1850","end_date":null,"start_year":1850,"end_year":null}},{"type":"Feature","geometry":{"type":"Point","coordinates":[76.31822,32.24276]},"properties":{"osm_type":"way","osm_id":43752491,"name":"Church of Saint John in the Wilderness","religion":"christian","denomination":"anglican","start_date":"1852","end_date":null,"start_year":1852,"end_year":null}},{"type":"Feature","geometry":{"type":"Point","coordinates":[77.62031,12.97193]},"properties":{"osm_type":"way","osm_id":133881869,"name":"The Holy Trinity Church","religion":"christian","denomination":null,"start_date":"1852","end_date":null,"start_year":1852,"end_year":null}},{"type":"Feature","geometry":{"type":"Point","coordinates":[74.75308,15.33569]},"properties":{"osm_type":"way","osm_id":1315849359,"name":"Shri Someshwara Temple","religion":"hindu","denomination":null,"start_date":"1856","end_date":null,"start_year":1856,"end_year":null}},{"type":"Feature","geometry":{"type":"Point","coordinates":[77.613,12.99177]},"properties":{"osm_type":"way","osm_id":346209154,"name":"St. John's Church","religion":"christian","denomination":"anglican","start_date":"1857","end_date":null,"start_year":1857,"end_year":null}},{"type":"Feature","geometry":{"type":"Point","coordinates":[77.22326,28.65913]},"properties":{"osm_type":"way","osm_id":320348680,"name":"St Stephens Church","religion":"christian","denomination":null,"start_date":"1862","end_date":null,"start_year":1862,"end_year":null}},{"type":"Feature","geometry":{"type":"Point","coordinates":[76.66369,9.80065]},"properties":{"osm_type":"way","osm_id":668442575,"name":"St Augustine Forane Church ( OLD )","religion":"christian","denomination":"roman_catholic","start_date":"1864","end_date":null,"start_year":1864,"end_year":null}},{"type":"Feature","geometry":{"type":"Point","coordinates":[77.61449,12.97399]},"properties":{"osm_type":"way","osm_id":133881879,"name":"East Parade Church","religion":"christian","denomination":"anglican","start_date":"1865","end_date":null,"start_year":1865,"end_year":null}},{"type":"Feature","geometry":{"type":"Point","coordinates":[77.60429,12.9795]},"properties":{"osm_type":"way","osm_id":370390346,"name":"St. Andrews Church","religion":"christian","denomination":"anglican","start_date":"1866-11-18","end_date":null,"start_year":1866,"end_year":null}},{"type":"Feature","geometry":{"type":"Point","coordinates":[73.79667,15.61515]},"properties":{"osm_type":"way","osm_id":1183381337,"name":"St. Sebastian Chapel","religion":"christian","denomination":null,"start_date":"1871","end_date":null,"start_year":1871,"end_year":null}},{"type":"Feature","geometry":{"type":"Point","coordinates":[76.60856,8.98131]},"properties":{"osm_type":"node","osm_id":7255007908,"name":"Dutch Church","religion":"christian","denomination":null,"start_date":"1878","end_date":null,"start_year":1878,"end_year":null}},{"type":"Feature","geometry":{"type":"Point","coordinates":[77.60426,12.9844]},"properties":{"osm_type":"way","osm_id":400483216,"name":"St Mary's Basilica","religion":"christian","denomination":"catholic","start_date":"1882-09-08","end_date":null,"start_year":1882,"end_year":null}},{"type":"Feature","geometry":{"type":"Point","coordinates":[77.7498,12.97115]},"properties":{"osm_type":"way","osm_id":477485293,"name":"CSI KCD Memorial Church","religion":"christian","denomination":"anglican","start_date":"1886","end_date":null,"start_year":1886,"end_year":null}},{"type":"Feature","geometry":{"type":"Point","coordinates":[77.61888,12.95682]},"properties":{"osm_type":"node","osm_id":4548858192,"name":"Sri Kasi Vishwanathar Temple","religion":"hindu","denomination":null,"start_date":"1887","end_date":null,"start_year":1887,"end_year":null}},{"type":"Feature","geometry":{"type":"Point","coordinates":[73.76852,15.61481]},"properties":{"osm_type":"way","osm_id":1315636894,"name":"Our Lady of Piety Chapel","religion":"christian","denomination":null,"start_date":"1897","end_date":null,"start_year":1897,"end_year":null}},{"type":"Feature","geometry":{"type":"Point","coordinates":[77.62968,12.98039]},"properties":{"osm_type":"way","osm_id":239772775,"name":"Ramakrishna Math","religion":"unitarian_universalist","denomination":null,"start_date":"1906","end_date":null,"start_year":1906,"end_year":null}},{"type":"Feature","geometry":{"type":"Point","coordinates":[77.61765,12.99741]},"properties":{"osm_type":"way","osm_id":1375061408,"name":"Buddha Vihar","religion":"buddhist","denomination":"tibetan","start_date":"1907","end_date":null,"start_year":1907,"end_year":null}},{"type":"Feature","geometry":{"type":"Point","coordinates":[76.40765,10.19597]},"properties":{"osm_type":"node","osm_id":10762968920,"name":"Infant Jesus Church, Kidangoor","religion":"christian","denomination":"catholic","start_date":"1909","end_date":null,"start_year":1909,"end_year":null}},{"type":"Feature","geometry":{"type":"Point","coordinates":[76.4075,10.196]},"properties":{"osm_type":"way","osm_id":221474717,"name":"Infant Jesus Church, Kidangoor","religion":"christian","denomination":"catholic","start_date":"1909","end_date":null,"start_year":1909,"end_year":null}},{"type":"Feature","geometry":{"type":"Point","coordinates":[77.62195,12.97537]},"properties":{"osm_type":"node","osm_id":12449741773,"name":"CSI Wesleyan Centenary Kannada Church","religion":"christian","denomination":null,"start_date":"1913","end_date":null,"start_year":1913,"end_year":null}},{"type":"Feature","geometry":{"type":"Point","coordinates":[74.79457,13.03633]},"properties":{"osm_type":"node","osm_id":2020246294,"name":"Shri Jnanashakthi Subrahmanyaswami Temple, Nagavruja Kshetra Pavanje","religion":"hindu","denomination":"hindu","start_date":"1920","end_date":null,"start_year":1920,"end_year":null}},{"type":"Feature","geometry":{"type":"Point","coordinates":[77.59741,12.98348]},"properties":{"osm_type":"way","osm_id":345936007,"name":"Parsi Fire Temple","religion":"zoroastrian","denomination":null,"start_date":"1926","end_date":null,"start_year":1926,"end_year":null}},{"type":"Feature","geometry":{"type":"Point","coordinates":[78.18013,29.93355]},"properties":{"osm_type":"node","osm_id":9476383272,"name":"Chandi Devi Temple","religion":"hindu","denomination":"hindu","start_date":"1929","end_date":null,"start_year":1929,"end_year":null}},{"type":"Feature","geometry":{"type":"Point","coordinates":[73.82119,15.59477]},"properties":{"osm_type":"way","osm_id":1375058985,"name":null,"religion":"christian","denomination":null,"start_date":"1933","end_date":null,"start_year":1933,"end_year":null}},{"type":"Feature","geometry":{"type":"Point","coordinates":[88.71315,26.53713]},"properties":{"osm_type":"way","osm_id":1221594059,"name":"Netaji Para Baroari Kali O Sheetala Mandir","religion":"hindu","denomination":null,"start_date":"1948-01-01","end_date":null,"start_year":1948,"end_year":null}},{"type":"Feature","geometry":{"type":"Point","coordinates":[76.74877,8.87788]},"properties":{"osm_type":"way","osm_id":831269637,"name":"St George Malankara Catholic Church","religion":"christian","denomination":"catholic","start_date":"1961","end_date":null,"start_year":1961,"end_year":null}},{"type":"Feature","geometry":{"type":"Point","coordinates":[76.63835,26.74268]},"properties":{"osm_type":"node","osm_id":10899904010,"name":"Bala ji Mandir , Dalpura","religion":"hindu","denomination":"reformed","start_date":"15/8/1975","end_date":null,"start_year":1975,"end_year":null}},{"type":"Feature","geometry":{"type":"Point","coordinates":[72.82679,19.11305]},"properties":{"osm_type":"way","osm_id":1282468105,"name":"ISKCON Juhu Temple","religion":"hindu","denomination":"hare_krishna","start_date":"1978","end_date":null,"start_year":1978,"end_year":null}},{"type":"Feature","geometry":{"type":"Point","coordinates":[76.59307,26.7118]},"properties":{"osm_type":"node","osm_id":10902634844,"name":"Alunda Mata mandir","religion":"hindu","denomination":"reformed","start_date":"1980-11-15","end_date":null,"start_year":1980,"end_year":null}},{"type":"Feature","geometry":{"type":"Point","coordinates":[88.41776,23.72629]},"properties":{"osm_type":"way","osm_id":807685178,"name":"Barnia Gyamapara Jumma Masjid","religion":"muslim","denomination":"sunni","start_date":"1985","end_date":null,"start_year":1985,"end_year":null}},{"type":"Feature","geometry":{"type":"Point","coordinates":[77.25862,28.55336]},"properties":{"osm_type":"way","osm_id":44827278,"name":"Lotus Temple","religion":"bahai","denomination":null,"start_date":"1986","end_date":null,"start_year":1986,"end_year":null}},{"type":"Feature","geometry":{"type":"Point","coordinates":[77.55118,13.01009]},"properties":{"osm_type":"way","osm_id":29459362,"name":"ISKCON Sri Radha Krishna-Chandra Temple","religion":"hindu","denomination":null,"start_date":"1997-05-01","end_date":null,"start_year":1997,"end_year":null}},{"type":"Feature","geometry":{"type":"Point","coordinates":[77.23217,28.57274]},"properties":{"osm_type":"node","osm_id":10274753893,"name":"Shri Sanatan Dharam Sabha","religion":"hindu","denomination":null,"start_date":"25-02-2002","end_date":null,"start_year":2002,"end_year":null}},{"type":"Feature","geometry":{"type":"Point","coordinates":[73.77811,18.61437]},"properties":{"osm_type":"way","osm_id":359777986,"name":"दत्त देऊळ","religion":"hindu","denomination":null,"start_date":"2002-02-25","end_date":null,"start_year":2002,"end_year":null}},{"type":"Feature","geometry":{"type":"Point","coordinates":[77.27734,28.61253]},"properties":{"osm_type":"way","osm_id":400921719,"name":"Swaminarayan's Akshardham Temple","religion":"hindu","denomination":"hindu","start_date":"2005-11-06","end_date":null,"start_year":2005,"end_year":null}},{"type":"Feature","geometry":{"type":"Point","coordinates":[79.03584,21.17766]},"properties":{"osm_type":"node","osm_id":11575989673,"name":"Shri Navdurga Jagrut Mandir","religion":"hindu","denomination":null,"start_date":"2010-01-31","end_date":null,"start_year":2010,"end_year":null}},{"type":"Feature","geometry":{"type":"Point","coordinates":[77.33518,11.05331]},"properties":{"osm_type":"way","osm_id":946026563,"name":"St. John","religion":"christian","denomination":"lutheran","start_date":"2015","end_date":null,"start_year":2015,"end_year":null}},{"type":"Feature","geometry":{"type":"Point","coordinates":[76.11829,31.0996]},"properties":{"osm_type":"node","osm_id":7465504457,"name":"FrankMedia Records","religion":"sikh","denomination":"Sikh","start_date":"2020/04/30","end_date":null,"start_year":2020,"end_year":null}},{"type":"Feature","geometry":{"type":"Point","coordinates":[75.39059,19.47636]},"properties":{"osm_type":"node","osm_id":9128839417,"name":"Niware Patil","religion":null,"denomination":null,"start_date":"2021-09-05","end_date":null,"start_year":2021,"end_year":null}},{"type":"Feature","geometry":{"type":"Point","coordinates":[77.60096,12.9834]},"properties":{"osm_type":"way","osm_id":1047676477,"name":"Masjid-E-Ahle Hadees Choti Charminar","religion":"muslim","denomination":null,"start_date":"2022","end_date":null,"start_year":2022,"end_year":null}},{"type":"Feature","geometry":{"type":"Point","coordinates":[78.63704,17.35569]},"properties":{"osm_type":"node","osm_id":11146637035,"name":"مسجد رشیدیہ","religion":"muslim","denomination":"sunni","start_date":"2023-09-18","end_date":null,"start_year":2023,"end_year":null}},{"type":"Feature","geometry":{"type":"Point","coordinates":[82.19452,26.79565]},"properties":{"osm_type":"way","osm_id":1241983860,"name":"Sri Ram Janmabhoomi Mandir","religion":"hindu","denomination":null,"start_date":"22-01-2024","end_date":null,"start_year":2024,"end_year":null}},{"type":"Feature","geometry":{"type":"Point","coordinates":[73.66585,18.69239]},"properties":{"osm_type":"way","osm_id":1415652702,"name":"Shri Veer Mandir","religion":"hindu","denomination":null,"start_date":"2025-07-18","end_date":null,"start_year":2025,"end_year":null}},{"type":"Feature","geometry":{"type":"Point","coordinates":[74.50937,15.85028]},"properties":{"osm_type":"way","osm_id":1125009582,"name":"Hazrat Sayyad Muradullah Shah Quadri","religion":"muslim","denomination":null,"start_date":"786","end_date":null,"start_year":null,"end_year":null}},{"type":"Feature","geometry":{"type":"Point","coordinates":[79.61457,29.63235]},"properties":{"osm_type":"way","osm_id":484264917,"name":"Surya temple","religion":"hindu","denomination":null,"start_date":"C9","end_date":null,"start_year":null,"end_year":null}},{"type":"Feature","geometry":{"type":"Point","coordinates":[77.30194,8.24176]},"properties":{"osm_type":"way","osm_id":718103092,"name":"Thiruvithamcode Arappally","religion":"christian","denomination":"orthodox","start_date":"57","end_date":null,"start_year":null,"end_year":null}},{"type":"Feature","geometry":{"type":"Point","coordinates":[79.65708,11.91901]},"properties":{"osm_type":"way","osm_id":496599425,"name":"TiruvandarKoil","religion":"hindu","denomination":null,"start_date":"947 A.D","end_date":null,"start_year":null,"end_year":null}}]}
