{"type":"FeatureCollection", "features": [
{"type":"Feature","geometry":{"type":"Polygon","coordinates":[[[44.83515,41.75703],[44.82472,41.76364],[44.8098,41.77869],[44.80685,41.78693],[44.8235,41.80066],[44.826,41.80846],[44.81881,41.81398],[44.80608,41.81412],[44.79015,41.8201],[44.76957,41.82298],[44.75352,41.81862],[44.74749,41.81223],[44.73627,41.81165],[44.71008,41.81628],[44.70012,41.80683],[44.7198,41.79586],[44.74797,41.79176],[44.74809,41.76472],[44.7315,41.7649],[44.72342,41.75437],[44.70797,41.74559],[44.72354,41.73393],[44.68383,41.73398],[44.67014,41.72817],[44.67339,41.7146],[44.68932,41.70308],[44.71213,41.69781],[44.71436,41.68808],[44.72649,41.68429],[44.7452,41.68303],[44.76113,41.67532],[44.77959,41.67059],[44.79081,41.65405],[44.85801,41.65448],[44.88066,41.649],[44.88826,41.63213],[44.90009,41.64837],[44.91668,41.64945],[44.92271,41.64526],[44.94926,41.64178],[44.95397,41.65058],[44.98788,41.66473],[44.99144,41.68294],[45.00242,41.69204],[45.00604,41.70511],[44.98534,41.70294],[44.9661,41.69402],[44.94136,41.69488],[44.87716,41.70803],[44.88126,41.72402],[44.83515,41.75703]]]},"properties":{"area_code":"tbilisi","area_name":"Tbilisi","boundary_source_name":"Tbilisi","area_unit_id":"ge-region-geoboundaries-adm1:tbilisi","boundary_set_id":"ge-region-geoboundaries-adm1","boundary_level":"region","land_area_sq_km":248.7919249075154}},
{"type":"Feature","geometry":{"type":"Polygon","coordinates":[[[42.12733,43.21345],[42.11166,43.21115],[42.09648,43.21265],[42.08161,43.20772],[42.07085,43.19988],[42.0489,43.19086],[42.03402,43.1944],[42.01649,43.21094],[41.98909,43.21545],[41.95948,43.20707],[41.94814,43.20739],[41.93812,43.21555],[41.92222,43.22103],[41.89761,43.225],[41.89025,43.2397],[41.86712,43.24464],[41.85725,43.23863],[41.84827,43.21276],[41.83884,43.20589],[41.79759,43.20278],[41.78919,43.2046],[41.76931,43.21802],[41.74942,43.22103],[41.72482,43.23884],[41.71259,43.23788],[41.70508,43.22929],[41.69197,43.22597],[41.67606,43.22672],[41.65116,43.23584],[41.63923,43.23573],[41.62627,43.2265],[41.61286,43.22704],[41.59725,43.23745],[41.56985,43.24603],[41.5479,43.25719],[41.53199,43.27135],[41.5093,43.27918],[41.48043,43.29602],[41.46894,43.30577],[41.45789,43.30877],[41.433,43.30985],[41.41989,43.31392],[41.41414,43.32946],[41.41429,43.35528],[41.40353,43.36481],[41.39293,43.36738],[41.36229,43.36685],[41.33857,43.34724],[41.31603,43.34178],[41.30219,43.34521],[41.28186,43.35956],[41.24635,43.3646],[41.2247,43.37659],[41.19347,43.38612],[41.16224,43.39244],[41.14191,43.39929],[41.11687,43.40078],[41.09742,43.38601],[41.07194,43.38601],[41.04115,43.39789],[41.03069,43.41876],[41.00432,43.43353],[40.98532,43.43834],[40.96278,43.42861],[40.93921,43.42968],[40.9314,43.43299],[40.91918,43.45139],[40.90224,43.45855],[40.89472,43.46625],[40.89782,43.47662],[40.88765,43.48678],[40.8579,43.49094],[40.83079,43.49201],[40.79072,43.5059],[40.73916,43.53272],[40.69659,43.53763],[40.6882,43.54126],[40.67936,43.5561],[40.65785,43.56283],[40.63457,43.55258],[40.60688,43.54361],[40.59068,43.52663],[40.56401,43.51936],[40.50641,43.53346],[40.49183,43.54425],[40.46797,43.54809],[40.44292,43.55578],[40.41449,43.54831],[40.38459,43.54948],[40.36485,43.5561],[40.33804,43.55717],[40.32743,43.55994],[40.31137,43.56987],[40.2962,43.5688],[40.28456,43.57318],[40.27131,43.5831],[40.25157,43.58716],[40.22269,43.58257],[40.19809,43.57467],[40.16244,43.5735],[40.12576,43.56539],[40.10455,43.56475],[40.09498,43.56016],[40.09332,43.54232],[40.08549,43.52163],[40.0604,43.50327],[40.0413,43.47271],[40.03485,43.45299],[40.01207,43.43093],[40.00746,43.38645],[40.04268,43.3782],[40.07892,43.37777],[40.11766,43.35988],[40.13048,43.35796],[40.15036,43.3451],[40.16554,43.33835],[40.21135,43.32903],[40.24166,43.31822],[40.25494,43.30153],[40.26477,43.27329],[40.26887,43.25532],[40.27418,43.20429],[40.27993,43.18594],[40.29322,43.17549],[40.30972,43.17123],[40.32037,43.16084],[40.34315,43.14607],[40.35353,43.1583],[40.37006,43.16926],[40.3843,43.17371],[40.40651,43.17089],[40.41918,43.16138],[40.43565,43.15443],[40.46244,43.14774],[40.47203,43.1403],[40.51336,43.14404],[40.53943,43.12951],[40.56254,43.10401],[40.57449,43.09445],[40.59283,43.09189],[40.61582,43.09392],[40.64822,43.1007],[40.68774,43.08665],[40.72407,43.08508],[40.75707,43.08777],[40.79045,43.08246],[40.81128,43.08467],[40.86483,43.07523],[40.88048,43.06504],[40.89632,43.04685],[40.91075,43.03445],[40.92281,43.0279],[40.93667,43.00895],[40.95242,42.99999],[40.9691,42.98192],[40.97665,42.98192],[40.99993,42.99578],[41.01502,42.99475],[41.03416,42.99923],[41.05273,42.98716],[41.06885,42.96529],[41.08375,42.93645],[41.10611,42.84448],[41.13602,42.81444],[41.15001,42.79769],[41.17417,42.79402],[41.19612,42.80104],[41.22794,42.80202],[41.27081,42.78948],[41.28333,42.78721],[41.31589,42.77304],[41.33769,42.77272],[41.36258,42.76493],[41.38659,42.76244],[41.40088,42.75833],[41.4165,42.7446],[41.43123,42.73594],[41.45495,42.70596],[41.46496,42.68637],[41.48294,42.63415],[41.49767,42.60239],[41.50017,42.58265],[41.51299,42.53426],[41.51608,42.51526],[41.54238,42.42115],[41.55919,42.42468],[41.57287,42.43275],[41.59304,42.43985],[41.61944,42.44096],[41.63858,42.4379],[41.65168,42.44256],[41.64603,42.45355],[41.64499,42.47303],[41.63481,42.48109],[41.63518,42.48693],[41.66667,42.48902],[41.68308,42.50105],[41.70071,42.50438],[41.71551,42.51133],[41.72871,42.52127],[41.74313,42.52669],[41.78216,42.54565],[41.81422,42.56684],[41.83468,42.57503],[41.84976,42.59613],[41.87258,42.61584],[41.88653,42.62146],[41.89445,42.63068],[41.90614,42.63658],[41.93244,42.64157],[41.94168,42.64698],[41.92754,42.67298],[41.93103,42.68095],[41.93122,42.69897],[41.91529,42.70583],[41.90793,42.71497],[41.89916,42.73575],[41.90011,42.74164],[41.92914,42.74198],[41.94046,42.74967],[41.94734,42.76068],[41.94611,42.77729],[41.93763,42.78344],[41.92113,42.78434],[41.90576,42.77528],[41.89219,42.78414],[41.89313,42.80233],[41.88295,42.81554],[41.88078,42.83207],[41.86937,42.849],[41.87069,42.85861],[41.88653,42.87015],[41.91208,42.88155],[41.92481,42.88459],[41.93744,42.89247],[41.93669,42.89972],[41.90426,42.90483],[41.89775,42.91236],[41.89209,42.92858],[41.88333,42.93928],[41.89907,42.95619],[41.89822,42.9655],[41.887,42.97357],[41.86843,42.97771],[41.85504,42.99509],[41.85542,43.00054],[41.8738,43.0115],[41.88512,43.02363],[41.90369,43.02639],[41.92264,43.02391],[41.99863,43.05113],[42.0206,43.04982],[42.03823,43.05712],[42.04398,43.06421],[42.04803,43.08074],[42.07235,43.09906],[42.07669,43.11062],[42.10243,43.13182],[42.11365,43.15163],[42.13882,43.16703],[42.14127,43.18628],[42.12733,43.21345]]]},"properties":{"area_code":"abkhazia","area_name":"Abkhazia A.R.","boundary_source_name":"Abkhazia","area_unit_id":"ge-region-geoboundaries-adm1:abkhazia","boundary_set_id":"ge-region-geoboundaries-adm1","boundary_level":"region","land_area_sq_km":8658.405872143723}},
{"type":"Feature","geometry":{"type":"Polygon","coordinates":[[[42.4968,41.80836],[42.49367,41.80827],[42.4568,41.81826],[42.4349,41.8214],[42.42682,41.84339],[42.41795,41.84797],[42.38953,41.85458],[42.38162,41.85319],[42.37257,41.83826],[42.34982,41.82855],[42.32973,41.8304],[42.31724,41.82756],[42.29926,41.81709],[42.26782,41.81943],[42.25708,41.81745],[42.22167,41.7973],[42.21274,41.80157],[42.21135,41.81862],[42.20423,41.82963],[42.19343,41.8313],[42.15795,41.8272],[42.14612,41.82752],[42.12935,41.83521],[42.10473,41.83471],[42.09562,41.82873],[42.0952,41.81592],[42.07848,41.81178],[42.07239,41.82711],[42.04578,41.83089],[42.01701,41.84763],[41.98731,41.85563],[41.96412,41.87129],[41.96073,41.88926],[41.95149,41.90407],[41.9349,41.91214],[41.91265,41.91543],[41.90463,41.91087],[41.89775,41.9],[41.88794,41.89796],[41.87145,41.90687],[41.85693,41.91094],[41.82836,41.90659],[41.78999,41.90673],[41.7672,41.91225],[41.77711,41.85763],[41.76931,41.80747],[41.75693,41.77814],[41.74279,41.75694],[41.72556,41.72166],[41.70847,41.6946],[41.68711,41.66963],[41.66766,41.65301],[41.64512,41.6518],[41.63511,41.65752],[41.62509,41.6529],[41.58532,41.62031],[41.57235,41.60412],[41.56086,41.54571],[41.54819,41.53359],[41.54613,41.52057],[41.57427,41.5187],[41.58576,41.50943],[41.59961,41.50369],[41.62038,41.49917],[41.63702,41.4856],[41.66442,41.48317],[41.70258,41.49399],[41.7176,41.49056],[41.71171,41.47534],[41.72231,41.47191],[41.76091,41.46805],[41.78448,41.45734],[41.79406,41.44663],[41.81018,41.44164],[41.81915,41.43473],[41.83296,41.43318],[41.85414,41.44992],[41.88245,41.46096],[41.90017,41.49096],[41.9126,41.49958],[41.93079,41.5051],[41.95219,41.51975],[41.96969,41.52079],[41.98004,41.51682],[41.99293,41.50303],[42.01871,41.50131],[42.03091,41.49269],[42.05301,41.49286],[42.07856,41.50545],[42.10088,41.50527],[42.11654,41.50786],[42.13725,41.50338],[42.1628,41.50889],[42.18398,41.50717],[42.20584,41.48976],[42.24175,41.49165],[42.26707,41.48683],[42.28525,41.48769],[42.30459,41.4801],[42.33589,41.46389],[42.35361,41.46648],[42.36996,41.46061],[42.40103,41.46079],[42.42888,41.44267],[42.44937,41.43439],[42.47054,41.43404],[42.49655,41.43974],[42.51566,41.43611],[42.52141,41.44336],[42.51105,41.45682],[42.51128,41.47096],[42.53522,41.48752],[42.55594,41.49717],[42.56445,41.50493],[42.56399,41.52147],[42.57573,41.54353],[42.57527,41.55783],[42.5854,41.57143],[42.6014,41.5807],[42.58768,41.61573],[42.57571,41.63828],[42.56619,41.64709],[42.53404,41.6628],[42.52357,41.67421],[42.51971,41.68526],[42.50736,41.70413],[42.50547,41.72137],[42.52499,41.75486],[42.52574,41.76758],[42.51452,41.7872],[42.50104,41.80182],[42.49915,41.8047],[42.4968,41.80836]]]},"properties":{"area_code":"adjara","area_name":"Adjara A.R.","boundary_source_name":"Adjara","area_unit_id":"ge-region-geoboundaries-adm1:adjara","boundary_set_id":"ge-region-geoboundaries-adm1","boundary_level":"region","land_area_sq_km":3014.643773414279}},
{"type":"Feature","geometry":{"type":"Polygon","coordinates":[[[42.49367,41.80827],[42.4968,41.80836],[42.4991,41.80842],[42.53649,41.80927],[42.56523,41.80094],[42.58285,41.79802],[42.59872,41.80004],[42.60795,41.80793],[42.60739,41.82051],[42.62388,41.83885],[42.6401,41.83583],[42.65934,41.83556],[42.65471,41.85382],[42.66238,41.87759],[42.65429,41.89502],[42.66099,41.90319],[42.65429,41.91383],[42.64874,41.93242],[42.63577,41.94871],[42.62762,41.95149],[42.61169,41.94866],[42.59413,41.95252],[42.57012,41.94979],[42.54357,41.9628],[42.51485,41.96598],[42.50435,41.96913],[42.47629,41.99146],[42.46205,41.99922],[42.45011,41.99859],[42.43152,41.99236],[42.41493,42.00648],[42.40908,42.02155],[42.40817,42.03835],[42.40371,42.05193],[42.39502,42.06479],[42.3678,42.07106],[42.33999,42.07231],[42.33939,42.05995],[42.33046,42.05314],[42.30136,42.05251],[42.28429,42.06231],[42.23187,42.07267],[42.22631,42.08429],[42.21453,42.09541],[42.22273,42.10653],[42.22499,42.11702],[42.22367,42.13765],[42.20312,42.12346],[42.17446,42.11961],[42.13071,42.12143],[42.1244,42.1417],[42.10309,42.151],[42.06623,42.14995],[42.06453,42.15701],[42.04577,42.1654],[42.0106,42.16833],[41.99363,42.17218],[41.97921,42.17113],[41.96337,42.16568],[41.953,42.1668],[41.943,42.1735],[41.92556,42.17665],[41.91359,42.16204],[41.87691,42.15547],[41.8475,42.15457],[41.81318,42.14835],[41.77321,42.15457],[41.74958,42.14631],[41.7503,42.14036],[41.77184,42.13637],[41.77245,42.12859],[41.75169,42.12792],[41.743,42.11579],[41.72173,42.11471],[41.69731,42.10674],[41.70797,42.08429],[41.70523,42.08059],[41.71598,42.06718],[41.74839,42.02002],[41.75517,42.01291],[41.76106,41.95707],[41.7672,41.91225],[41.78999,41.90673],[41.82836,41.90659],[41.85693,41.91094],[41.87145,41.90687],[41.88794,41.89796],[41.89775,41.9],[41.90463,41.91087],[41.91265,41.91543],[41.9349,41.91214],[41.95149,41.90407],[41.96073,41.88926],[41.96412,41.87129],[41.98731,41.85563],[42.01701,41.84763],[42.04578,41.83089],[42.07239,41.82711],[42.07848,41.81178],[42.0952,41.81592],[42.09562,41.82873],[42.10473,41.83471],[42.12935,41.83521],[42.14612,41.82752],[42.15795,41.8272],[42.19343,41.8313],[42.20423,41.82963],[42.21135,41.81862],[42.21274,41.80157],[42.22167,41.7973],[42.25708,41.81745],[42.26782,41.81943],[42.29926,41.81709],[42.31724,41.82756],[42.32973,41.8304],[42.34982,41.82855],[42.37257,41.83826],[42.38162,41.85319],[42.38953,41.85458],[42.41795,41.84797],[42.42682,41.84339],[42.4349,41.8214],[42.4568,41.81826],[42.49367,41.80827]]]},"properties":{"area_code":"guria","area_name":"Guria","boundary_source_name":"Guria","area_unit_id":"ge-region-geoboundaries-adm1:guria","boundary_set_id":"ge-region-geoboundaries-adm1","boundary_level":"region","land_area_sq_km":2004.8583645492301}},
{"type":"Feature","geometry":{"type":"Polygon","coordinates":[[[42.65934,41.83556],[42.6806,41.8299],[42.68887,41.82077],[42.73346,41.81156],[42.75113,41.8143],[42.76845,41.82199],[42.79156,41.82855],[42.79585,41.84047],[42.8119,41.84011],[42.83392,41.83588],[42.84496,41.82738],[42.85679,41.82968],[42.87748,41.82594],[42.89329,41.83368],[42.91194,41.83368],[42.92587,41.82176],[42.93921,41.81605],[42.95761,41.8179],[42.96859,41.83332],[42.98995,41.83898],[43.07026,41.83417],[43.09506,41.84096],[43.11497,41.83593],[43.12421,41.8375],[43.13682,41.84725],[43.1625,41.84868],[43.20146,41.86344],[43.22401,41.87035],[43.2549,41.87435],[43.29671,41.88756],[43.30576,41.89389],[43.33497,41.90076],[43.3614,41.92164],[43.38366,41.92398],[43.38951,41.92937],[43.40979,41.93237],[43.42546,41.94428],[43.40575,41.95899],[43.39935,41.97406],[43.41347,41.98864],[43.43079,41.99294],[43.44424,42.00545],[43.46307,42.01092],[43.47097,42.02182],[43.47206,42.03333],[43.45999,42.04965],[43.47176,42.05856],[43.47224,42.07612],[43.48032,42.09327],[43.49993,42.09363],[43.51737,42.10925],[43.53294,42.117],[43.54802,42.13396],[43.55285,42.15463],[43.58845,42.19702],[43.5969,42.20985],[43.58519,42.21869],[43.58664,42.2279],[43.59545,42.24041],[43.58429,42.25859],[43.58549,42.27323],[43.60884,42.29046],[43.61633,42.30158],[43.63738,42.30582],[43.64831,42.31394],[43.6486,42.33421],[43.65397,42.33477],[43.67481,42.3232],[43.68612,42.3317],[43.70243,42.33073],[43.71411,42.33618],[43.7167,42.34417],[43.73013,42.35356],[43.73967,42.36606],[43.73652,42.38038],[43.74992,42.38841],[43.75088,42.40645],[43.75969,42.4208],[43.74714,42.42614],[43.73157,42.42717],[43.71872,42.42267],[43.71275,42.41389],[43.70177,42.42195],[43.71094,42.43255],[43.70255,42.4411],[43.65887,42.43166],[43.64348,42.44507],[43.62833,42.45255],[43.61524,42.45206],[43.60088,42.44671],[43.57554,42.44996],[43.57014,42.44673],[43.56441,42.43658],[43.54518,42.43741],[43.525,42.44409],[43.51416,42.44465],[43.50709,42.46009],[43.48955,42.45898],[43.47183,42.44319],[43.46636,42.44235],[43.42535,42.45286],[43.39471,42.45035],[43.37887,42.45877],[43.2976,42.46677],[43.26658,42.46621],[43.2581,42.45738],[43.23952,42.453],[43.23311,42.44562],[43.21954,42.44444],[43.20927,42.43888],[43.17447,42.40756],[43.16203,42.39858],[43.13686,42.3928],[43.11866,42.38277],[43.0851,42.38785],[43.06596,42.37797],[43.04965,42.37532],[43.0356,42.37734],[43.02542,42.38827],[43.01495,42.39336],[42.9861,42.40185],[42.95829,42.39774],[42.9483,42.39893],[42.9383,42.40672],[42.93255,42.41779],[42.93519,42.42628],[42.95914,42.43366],[42.96338,42.43915],[42.95688,42.44994],[42.90257,42.48687],[42.82951,42.50501],[42.81838,42.50904],[42.80745,42.49458],[42.78755,42.48937],[42.77369,42.49055],[42.76144,42.49715],[42.75748,42.50417],[42.74352,42.51383],[42.72278,42.51509],[42.6962,42.49938],[42.68988,42.48749],[42.68026,42.48297],[42.63303,42.47525],[42.62728,42.47776],[42.61945,42.50153],[42.61172,42.51078],[42.61125,42.53933],[42.61512,42.55218],[42.62624,42.56566],[42.62077,42.57149],[42.60757,42.57267],[42.57279,42.56177],[42.52904,42.55906],[42.52112,42.55517],[42.5148,42.53364],[42.49189,42.52363],[42.48294,42.51724],[42.4819,42.50042],[42.47672,42.49145],[42.45701,42.48151],[42.45239,42.46593],[42.43523,42.43512],[42.44249,42.41675],[42.42477,42.40721],[42.40676,42.38862],[42.39394,42.3788],[42.38385,42.3609],[42.36292,42.34327],[42.34048,42.31323],[42.32087,42.28366],[42.29513,42.26099],[42.27807,42.2395],[42.28514,42.22051],[42.28137,42.19397],[42.28439,42.18056],[42.2973,42.16554],[42.29579,42.15771],[42.28524,42.14849],[42.28542,42.13248],[42.27354,42.12416],[42.2479,42.12458],[42.23762,42.13297],[42.22367,42.13765],[42.22499,42.11702],[42.22273,42.10653],[42.21453,42.09541],[42.22631,42.08429],[42.23187,42.07267],[42.28429,42.06231],[42.30136,42.05251],[42.33046,42.05314],[42.33939,42.05995],[42.33999,42.07231],[42.3678,42.07106],[42.39502,42.06479],[42.40371,42.05193],[42.40817,42.03835],[42.40908,42.02155],[42.41493,42.00648],[42.43152,41.99236],[42.45011,41.99859],[42.46205,41.99922],[42.47629,41.99146],[42.50435,41.96913],[42.51485,41.96598],[42.54357,41.9628],[42.57012,41.94979],[42.59413,41.95252],[42.61169,41.94866],[42.62762,41.95149],[42.63577,41.94871],[42.64874,41.93242],[42.65429,41.91383],[42.66099,41.90319],[42.65429,41.89502],[42.66238,41.87759],[42.65471,41.85382],[42.65934,41.83556]]]},"properties":{"area_code":"imereti","area_name":"Imereti","boundary_source_name":"Imereti","area_unit_id":"ge-region-geoboundaries-adm1:imereti","boundary_set_id":"ge-region-geoboundaries-adm1","boundary_level":"region","land_area_sq_km":6466.1996884322725}},
{"type":"Feature","geometry":{"type":"Polygon","coordinates":[[[45.30443,41.46915],[45.30995,41.472],[45.33803,41.46148],[45.35921,41.45665],[45.36634,41.45233],[45.38338,41.43439],[45.39235,41.42887],[45.40547,41.42766],[45.42826,41.4356],[45.43517,41.44388],[45.45726,41.4563],[45.47936,41.44716],[45.48695,41.4387],[45.50261,41.43042],[45.52677,41.42196],[45.55232,41.4192],[45.5735,41.4123],[45.58179,41.40332],[45.58777,41.3864],[45.60572,41.3788],[45.6536,41.37845],[45.67316,41.37517],[45.69101,41.36664],[45.7106,41.36465],[45.7355,41.37139],[45.74713,41.37007],[45.75759,41.35945],[45.75479,41.35238],[45.73299,41.34939],[45.71738,41.34209],[45.69705,41.32273],[45.69683,41.31289],[45.7105,41.28992],[45.73387,41.26911],[45.74301,41.25798],[45.75906,41.25123],[45.78234,41.23627],[45.80768,41.22353],[45.8638,41.21356],[45.88811,41.21101],[45.89872,41.20082],[45.91566,41.19029],[45.95145,41.17798],[46.00272,41.17998],[46.02923,41.18629],[46.06238,41.18929],[46.07711,41.18485],[46.08433,41.17476],[46.09994,41.17354],[46.1157,41.18286],[46.12543,41.19572],[46.14531,41.20436],[46.20291,41.19594],[46.24239,41.18463],[46.25476,41.18374],[46.27097,41.18918],[46.2801,41.18862],[46.29145,41.17421],[46.30643,41.16171],[46.36865,41.11918],[46.37116,41.10889],[46.37836,41.10293],[46.42871,41.10238],[46.45136,41.0994],[46.46107,41.09425],[46.47366,41.06606],[46.49488,41.05503],[46.54943,41.11211],[46.58212,41.11072],[46.59932,41.09366],[46.61008,41.09188],[46.62879,41.09621],[46.64219,41.1161],[46.6461,41.1473],[46.65884,41.1629],[46.66061,41.18042],[46.65648,41.1986],[46.67784,41.22021],[46.69684,41.23472],[46.70539,41.25987],[46.71393,41.26717],[46.73117,41.27481],[46.73618,41.28123],[46.73397,41.29175],[46.7073,41.30038],[46.69773,41.31355],[46.69846,41.32992],[46.6883,41.34087],[46.67342,41.34441],[46.66915,41.36332],[46.66414,41.36929],[46.636,41.38786],[46.61759,41.39361],[46.6036,41.39162],[46.59137,41.39427],[46.56511,41.40443],[46.52467,41.4151],[46.48413,41.42875],[46.45128,41.45315],[46.42947,41.45867],[46.41725,41.47258],[46.36215,41.49001],[46.35066,41.49553],[46.33917,41.51197],[46.33254,41.52609],[46.30453,41.55424],[46.30104,41.5639],[46.30575,41.57427],[46.32696,41.57455],[46.34327,41.57039],[46.34309,41.58598],[46.33451,41.60191],[46.32517,41.60776],[46.30189,41.61369],[46.29255,41.60015],[46.28105,41.60163],[46.27558,41.60776],[46.27841,41.61932],[46.26455,41.62708],[46.24853,41.60015],[46.24044,41.59839],[46.2144,41.61439],[46.2063,41.63507],[46.20409,41.66688],[46.19672,41.68679],[46.1899,41.72382],[46.18875,41.74186],[46.20141,41.7707],[46.20855,41.76984],[46.23225,41.75886],[46.24031,41.75971],[46.25159,41.77173],[46.29233,41.7765],[46.30264,41.78594],[46.32164,41.79715],[46.33667,41.80978],[46.37438,41.82965],[46.39499,41.84276],[46.40097,41.84928],[46.40695,41.86505],[46.41478,41.87293],[46.40857,41.89264],[46.42445,41.91337],[46.40682,41.9254],[46.40173,41.93984],[46.36939,41.94139],[46.34431,41.94763],[46.33668,41.94651],[46.32194,41.93592],[46.31325,41.93614],[46.28644,41.94578],[46.27775,41.96419],[46.26964,41.9701],[46.26007,41.98379],[46.2471,41.99014],[46.25845,42.00087],[46.25771,42.00558],[46.24048,42.0093],[46.22439,42.01603],[46.21949,42.01091],[46.19064,41.9995],[46.16137,41.99572],[46.15327,41.99813],[46.15165,42.00755],[46.14428,42.01072],[46.13073,42.00634],[46.10863,41.99069],[46.09891,41.99397],[46.08727,42.00788],[46.08197,42.03469],[46.06635,42.03458],[46.05251,42.02232],[46.04102,42.02145],[46.02761,42.02626],[46.01886,42.04201],[46.00199,42.03942],[45.99162,42.0439],[45.97785,42.04138],[45.96031,42.02569],[45.94825,42.028],[45.93618,42.03844],[45.93109,42.05545],[45.91506,42.06329],[45.91327,42.06966],[45.92223,42.07995],[45.91346,42.09618],[45.90007,42.10496],[45.88517,42.10402],[45.85467,42.1144],[45.84436,42.11036],[45.82241,42.10752],[45.80414,42.11473],[45.78956,42.1038],[45.78131,42.10675],[45.76717,42.12576],[45.75126,42.12642],[45.74124,42.13287],[45.74581,42.14248],[45.74109,42.15395],[45.72209,42.16214],[45.68585,42.18124],[45.65359,42.19008],[45.63017,42.20111],[45.60954,42.21507],[45.60851,42.23253],[45.6175,42.24321],[45.61883,42.25259],[45.63385,42.26644],[45.65109,42.28824],[45.67142,42.28399],[45.68217,42.28475],[45.69661,42.29521],[45.72106,42.2914],[45.74065,42.29314],[45.75376,42.30491],[45.75498,42.32808],[45.74376,42.34411],[45.74286,42.38287],[45.75848,42.41017],[45.77203,42.42355],[45.78101,42.44432],[45.77542,42.46627],[45.77807,42.48452],[45.76761,42.4918],[45.73122,42.47811],[45.70839,42.47811],[45.69513,42.48735],[45.68998,42.50223],[45.67775,42.5057],[45.65963,42.5006],[45.64593,42.50071],[45.63326,42.50907],[45.60925,42.50972],[45.60026,42.51287],[45.59526,42.53144],[45.582,42.54381],[45.56727,42.54652],[45.55563,42.54066],[45.53012,42.54663],[45.49684,42.53746],[45.45354,42.54348],[45.43145,42.54403],[45.41568,42.54934],[45.40051,42.54793],[45.37709,42.5322],[45.35396,42.52427],[45.3326,42.52818],[45.32538,42.53882],[45.31802,42.56779],[45.30068,42.57464],[45.29065,42.54635],[45.26982,42.52648],[45.27689,42.50543],[45.27142,42.48054],[45.26491,42.46733],[45.24653,42.45216],[45.21221,42.43414],[45.21149,42.41674],[45.21891,42.40491],[45.21184,42.38904],[45.23286,42.37685],[45.23644,42.36759],[45.23466,42.34271],[45.22688,42.33432],[45.20956,42.32808],[45.17348,42.32496],[45.15244,42.31037],[45.14377,42.29706],[45.12057,42.29008],[45.11426,42.28276],[45.11237,42.26378],[45.09861,42.25108],[45.08352,42.22791],[45.0789,42.18412],[45.06533,42.16337],[45.07098,42.14415],[45.05571,42.13352],[45.03374,42.12982],[45.02837,42.11751],[45.03346,42.1101],[45.06118,42.10157],[45.06259,42.0938],[45.03921,42.07295],[45.04327,42.05972],[45.05646,42.04222],[45.07985,42.03193],[45.08663,42.0224],[45.08192,42.01575],[45.05665,41.99809],[45.05241,41.9831],[45.06504,41.97427],[45.06985,41.96389],[45.08003,41.95625],[45.10351,41.95667],[45.12312,41.95429],[45.14122,41.94342],[45.168,41.94545],[45.18299,41.93599],[45.19194,41.92575],[45.18817,41.91094],[45.15715,41.90568],[45.14084,41.89284],[45.13283,41.89361],[45.09446,41.91929],[45.07513,41.92273],[45.06024,41.91817],[45.04063,41.90582],[45.01442,41.90168],[45.01451,41.88772],[45.02328,41.88245],[45.05062,41.87557],[45.05203,41.86736],[45.04081,41.85402],[45.03997,41.84575],[45.06552,41.84229],[45.07607,41.82339],[45.08456,41.78966],[45.11973,41.75239],[45.13604,41.75549],[45.14235,41.77342],[45.16121,41.77033],[45.16922,41.76266],[45.15866,41.74346],[45.16121,41.73854],[45.18091,41.73009],[45.191,41.71398],[45.20769,41.70068],[45.19817,41.69505],[45.1794,41.69139],[45.18233,41.66843],[45.20401,41.64209],[45.19986,41.63236],[45.17478,41.61728],[45.1646,41.59966],[45.1778,41.5773],[45.20137,41.56644],[45.22098,41.5445],[45.23107,41.54189],[45.24681,41.54739],[45.2668,41.53455],[45.31507,41.51055],[45.31705,41.5018],[45.2981,41.5001],[45.30291,41.48584],[45.30443,41.46915]]]},"properties":{"area_code":"kakheti","area_name":"Kakheti","boundary_source_name":"Kakheti","area_unit_id":"ge-region-geoboundaries-adm1:kakheti","boundary_set_id":"ge-region-geoboundaries-adm1","boundary_level":"region","land_area_sq_km":11477.87816671189}},
{"type":"Feature","geometry":{"type":"Polygon","coordinates":[[[44.83515,41.75703],[44.86131,41.77019],[44.86527,41.79521],[44.88789,41.81658],[44.88356,41.82255],[44.85716,41.83351],[44.86791,41.84243],[44.89148,41.83513],[44.90034,41.8347],[44.90854,41.84566],[44.94532,41.85928],[45.01226,41.84847],[45.03997,41.84575],[45.04081,41.85402],[45.05203,41.86736],[45.05062,41.87557],[45.02328,41.88245],[45.01451,41.88772],[45.01442,41.90168],[45.04063,41.90582],[45.06024,41.91817],[45.07513,41.92273],[45.09446,41.91929],[45.13283,41.89361],[45.14084,41.89284],[45.15715,41.90568],[45.18817,41.91094],[45.19194,41.92575],[45.18299,41.93599],[45.168,41.94545],[45.14122,41.94342],[45.12312,41.95429],[45.10351,41.95667],[45.08003,41.95625],[45.06985,41.96389],[45.06504,41.97427],[45.05241,41.9831],[45.05665,41.99809],[45.08192,42.01575],[45.08663,42.0224],[45.07985,42.03193],[45.05646,42.04222],[45.04327,42.05972],[45.03921,42.07295],[45.06259,42.0938],[45.06118,42.10157],[45.03346,42.1101],[45.02837,42.11751],[45.03374,42.12982],[45.05571,42.13352],[45.07098,42.14415],[45.06533,42.16337],[45.0789,42.18412],[45.08352,42.22791],[45.09861,42.25108],[45.11237,42.26378],[45.11426,42.28276],[45.12057,42.29008],[45.14377,42.29706],[45.15244,42.31037],[45.17348,42.32496],[45.20956,42.32808],[45.22688,42.33432],[45.23466,42.34271],[45.23644,42.36759],[45.23286,42.37685],[45.21184,42.38904],[45.21891,42.40491],[45.21149,42.41674],[45.21221,42.43414],[45.24653,42.45216],[45.26491,42.46733],[45.27142,42.48054],[45.27689,42.50543],[45.26982,42.52648],[45.29065,42.54635],[45.30068,42.57464],[45.28973,42.57951],[45.27927,42.60716],[45.24849,42.61616],[45.24554,42.62917],[45.23302,42.64391],[45.17498,42.68788],[45.15819,42.71127],[45.14861,42.71203],[45.10235,42.7078],[45.08394,42.71159],[45.05271,42.69665],[45.03459,42.69795],[45.0175,42.71267],[44.9904,42.72891],[44.97184,42.74579],[44.96226,42.74979],[44.93265,42.75184],[44.89242,42.75001],[44.88413,42.74748],[44.86894,42.73176],[44.86457,42.72195],[44.86019,42.68795],[44.8549,42.68169],[44.82636,42.67238],[44.81439,42.63413],[44.81163,42.61956],[44.78884,42.62125],[44.77204,42.63277],[44.75501,42.65529],[44.75017,42.68254],[44.7382,42.70098],[44.74488,42.71721],[44.74189,42.72127],[44.71657,42.73547],[44.70091,42.7468],[44.67744,42.75339],[44.64567,42.74646],[44.60171,42.74934],[44.58076,42.7468],[44.56857,42.75086],[44.55706,42.76117],[44.54785,42.76252],[44.53427,42.7561],[44.51217,42.7539],[44.49307,42.73886],[44.49468,42.73176],[44.50504,42.72077],[44.50941,42.70199],[44.46913,42.71028],[44.43852,42.71265],[44.42218,42.71738],[44.40675,42.71738],[44.39525,42.71011],[44.38333,42.71008],[44.35313,42.71928],[44.33207,42.72177],[44.30953,42.71895],[44.30261,42.70921],[44.2892,42.70131],[44.2425,42.67879],[44.23204,42.66774],[44.22777,42.65604],[44.21291,42.63486],[44.22304,42.62583],[44.2105,42.61487],[44.2122,42.60841],[44.22719,42.60439],[44.23944,42.59669],[44.25312,42.60363],[44.27046,42.59821],[44.29064,42.5767],[44.29158,42.56635],[44.30091,42.55843],[44.32373,42.5501],[44.32741,42.53572],[44.3226,42.52572],[44.30299,42.50695],[44.28498,42.5023],[44.27244,42.48033],[44.28432,42.47317],[44.29347,42.45961],[44.29248,42.4322],[44.30286,42.41269],[44.32772,42.40708],[44.33767,42.40213],[44.33791,42.38368],[44.31704,42.36224],[44.31112,42.3519],[44.31571,42.33517],[44.33797,42.30997],[44.34021,42.29229],[44.34606,42.28127],[44.34461,42.27435],[44.3241,42.2568],[44.31486,42.25515],[44.31257,42.24608],[44.29441,42.22397],[44.28228,42.21423],[44.25881,42.20341],[44.24439,42.19992],[44.23878,42.19049],[44.25971,42.17632],[44.25724,42.16125],[44.24208,42.16023],[44.23633,42.15387],[44.23685,42.14094],[44.24753,42.12886],[44.25253,42.10567],[44.24433,42.09694],[44.229,42.06654],[44.24294,42.05121],[44.25223,42.05296],[44.25778,42.06846],[44.26641,42.07594],[44.28144,42.07258],[44.28035,42.05655],[44.27438,42.04355],[44.2757,42.03293],[44.29224,42.03351],[44.29639,42.04607],[44.30478,42.0502],[44.33042,42.0544],[44.3357,42.06483],[44.35173,42.06224],[44.36201,42.06455],[44.39812,42.06035],[44.41169,42.05265],[44.43828,42.05622],[44.45864,42.05181],[44.47863,42.02772],[44.48122,41.99092],[44.48411,41.9829],[44.49546,41.97267],[44.50191,41.95629],[44.53365,41.92905],[44.53968,41.9137],[44.54687,41.90615],[44.54687,41.8783],[44.53552,41.86734],[44.50053,41.87804],[44.49232,41.8775],[44.48623,41.86703],[44.46541,41.8602],[44.48152,41.85166],[44.48719,41.83754],[44.47941,41.83035],[44.47898,41.8165],[44.46601,41.80706],[44.45057,41.77939],[44.45461,41.76697],[44.46197,41.75968],[44.46293,41.75833],[44.47639,41.75842],[44.49141,41.76297],[44.50529,41.76184],[44.53359,41.75513],[44.54445,41.74321],[44.56068,41.73672],[44.56394,41.72983],[44.58367,41.70736],[44.59737,41.69718],[44.6209,41.69344],[44.63677,41.69673],[44.66187,41.7115],[44.67339,41.7146],[44.67014,41.72817],[44.68383,41.73398],[44.72354,41.73393],[44.70797,41.74559],[44.72342,41.75437],[44.7315,41.7649],[44.74809,41.76472],[44.74797,41.79176],[44.7198,41.79586],[44.70012,41.80683],[44.71008,41.81628],[44.73627,41.81165],[44.74749,41.81223],[44.75352,41.81862],[44.76957,41.82298],[44.79015,41.8201],[44.80608,41.81412],[44.81881,41.81398],[44.826,41.80846],[44.8235,41.80066],[44.80685,41.78693],[44.8098,41.77869],[44.82472,41.76364],[44.83515,41.75703]]]},"properties":{"area_code":"mtskheta_mtianeti","area_name":"Mtskheta-Mtianeti","boundary_source_name":"Mtskheta-Mtianeti","area_unit_id":"ge-region-geoboundaries-adm1:mtskheta_mtianeti","boundary_set_id":"ge-region-geoboundaries-adm1","boundary_level":"region","land_area_sq_km":6869.671878282998}},
{"type":"Feature","geometry":{"type":"Polygon","coordinates":[[[43.57014,42.44673],[43.56474,42.45185],[43.56462,42.47058],[43.57499,42.4793],[43.6083,42.46848],[43.63642,42.46946],[43.66713,42.48201],[43.69018,42.48264],[43.74292,42.47912],[43.76916,42.48579],[43.79614,42.48548],[43.8114,42.49447],[43.81351,42.50911],[43.82365,42.51778],[43.83493,42.52116],[43.8581,42.52245],[43.86112,42.53094],[43.87765,42.53717],[43.91156,42.54664],[43.92946,42.55538],[43.90487,42.56964],[43.87747,42.58016],[43.85537,42.58547],[43.83224,42.59729],[43.80808,42.59491],[43.78348,42.59979],[43.76595,42.59285],[43.75594,42.59274],[43.74371,42.59968],[43.73914,42.6167],[43.71793,42.62516],[43.71322,42.63101],[43.72205,42.63968],[43.74945,42.64781],[43.75726,42.65214],[43.77317,42.67326],[43.78614,42.68366],[43.80396,42.71051],[43.80646,42.73107],[43.79733,42.74525],[43.77847,42.75714],[43.75726,42.76439],[43.7169,42.77434],[43.69245,42.78623],[43.69318,42.79672],[43.68331,42.80093],[43.65783,42.79531],[43.65031,42.79704],[43.63956,42.80774],[43.6182,42.8139],[43.61142,42.83465],[43.57489,42.86154],[43.5581,42.86435],[43.53777,42.86273],[43.51346,42.86564],[43.47354,42.88497],[43.44703,42.8895],[43.39444,42.89457],[43.37926,42.89252],[43.3579,42.88378],[43.33934,42.88993],[43.32859,42.90903],[43.30929,42.91195],[43.2894,42.91087],[43.25272,42.92532],[43.19999,42.93212],[43.19159,42.9374],[43.1854,42.95207],[43.16454,42.96272],[43.15109,42.94018],[43.11149,42.93072],[43.10339,42.91836],[43.09575,42.89592],[43.08246,42.88729],[43.07482,42.86656],[43.0554,42.86407],[43.0521,42.86994],[43.05691,42.88238],[43.0455,42.88618],[42.99299,42.88618],[42.96404,42.87796],[42.945,42.88487],[42.9202,42.87941],[42.91266,42.89032],[42.90069,42.89758],[42.88108,42.90034],[42.86571,42.90662],[42.84667,42.90821],[42.81989,42.92126],[42.80688,42.92099],[42.77275,42.90041],[42.73117,42.90082],[42.7094,42.8953],[42.69271,42.89689],[42.68139,42.90531],[42.64378,42.91795],[42.62483,42.91919],[42.58947,42.91229],[42.56911,42.91387],[42.55648,42.92402],[42.50377,42.94259],[42.48379,42.94169],[42.47445,42.937],[42.47851,42.92036],[42.47568,42.90683],[42.48652,42.89993],[42.48341,42.89247],[42.45673,42.89585],[42.43636,42.88729],[42.41619,42.88798],[42.39686,42.89592],[42.38517,42.88832],[42.37942,42.87298],[42.36764,42.86158],[42.36811,42.84437],[42.36009,42.83034],[42.37386,42.81388],[42.4144,42.79175],[42.42722,42.79119],[42.47587,42.76926],[42.51075,42.76614],[42.53969,42.74337],[42.55091,42.73707],[42.56336,42.72509],[42.56289,42.70964],[42.54205,42.69655],[42.53828,42.6883],[42.52404,42.67728],[42.54873,42.65669],[42.55978,42.63524],[42.57392,42.62223],[42.57745,42.61171],[42.58997,42.60449],[42.58894,42.58974],[42.60757,42.57267],[42.62077,42.57149],[42.62624,42.56566],[42.61512,42.55218],[42.61125,42.53933],[42.61172,42.51078],[42.61945,42.50153],[42.62728,42.47776],[42.63303,42.47525],[42.68026,42.48297],[42.68988,42.48749],[42.6962,42.49938],[42.72278,42.51509],[42.74352,42.51383],[42.75748,42.50417],[42.76144,42.49715],[42.77369,42.49055],[42.78755,42.48937],[42.80745,42.49458],[42.81838,42.50904],[42.82951,42.50501],[42.90257,42.48687],[42.95688,42.44994],[42.96338,42.43915],[42.95914,42.43366],[42.93519,42.42628],[42.93255,42.41779],[42.9383,42.40672],[42.9483,42.39893],[42.95829,42.39774],[42.9861,42.40185],[43.01495,42.39336],[43.02542,42.38827],[43.0356,42.37734],[43.04965,42.37532],[43.06596,42.37797],[43.0851,42.38785],[43.11866,42.38277],[43.13686,42.3928],[43.16203,42.39858],[43.17447,42.40756],[43.20927,42.43888],[43.21954,42.44444],[43.23311,42.44562],[43.23952,42.453],[43.2581,42.45738],[43.26658,42.46621],[43.2976,42.46677],[43.37887,42.45877],[43.39471,42.45035],[43.42535,42.45286],[43.46636,42.44235],[43.47183,42.44319],[43.48955,42.45898],[43.50709,42.46009],[43.51416,42.44465],[43.525,42.44409],[43.54518,42.43741],[43.56441,42.43658],[43.57014,42.44673]]]},"properties":{"area_code":"racha_lechkhumi_kvemo_svaneti","area_name":"Racha-Lechkhumi and Kvemo Svaneti","boundary_source_name":"Racha-Lechkhumi and Kvemo Svaneti","area_unit_id":"ge-region-geoboundaries-adm1:racha_lechkhumi_kvemo_svaneti","boundary_set_id":"ge-region-geoboundaries-adm1","boundary_level":"region","land_area_sq_km":4996.412034218905}},
{"type":"Feature","geometry":{"type":"Polygon","coordinates":[[[41.54238,42.42115],[41.54572,42.40939],[41.55644,42.39451],[41.59091,42.37166],[41.60211,42.35272],[41.61021,42.33225],[41.62376,42.30491],[41.6354,42.26589],[41.63702,42.25237],[41.6357,42.22533],[41.62745,42.20798],[41.63275,42.18757],[41.64822,42.16541],[41.65927,42.13265],[41.66825,42.12019],[41.69565,42.09254],[41.70523,42.08059],[41.70797,42.08429],[41.69731,42.10674],[41.72173,42.11471],[41.743,42.11579],[41.75169,42.12792],[41.77245,42.12859],[41.77184,42.13637],[41.7503,42.14036],[41.74958,42.14631],[41.77321,42.15457],[41.81318,42.14835],[41.8475,42.15457],[41.87691,42.15547],[41.91359,42.16204],[41.92556,42.17665],[41.943,42.1735],[41.953,42.1668],[41.96337,42.16568],[41.97921,42.17113],[41.99363,42.17218],[42.0106,42.16833],[42.04577,42.1654],[42.06453,42.15701],[42.06623,42.14995],[42.10309,42.151],[42.1244,42.1417],[42.13071,42.12143],[42.17446,42.11961],[42.20312,42.12346],[42.22367,42.13765],[42.23762,42.13297],[42.2479,42.12458],[42.27354,42.12416],[42.28542,42.13248],[42.28524,42.14849],[42.29579,42.15771],[42.2973,42.16554],[42.28439,42.18056],[42.28137,42.19397],[42.28514,42.22051],[42.27807,42.2395],[42.29513,42.26099],[42.32087,42.28366],[42.34048,42.31323],[42.36292,42.34327],[42.38385,42.3609],[42.39394,42.3788],[42.40676,42.38862],[42.42477,42.40721],[42.44249,42.41675],[42.43523,42.43512],[42.45239,42.46593],[42.45701,42.48151],[42.47672,42.49145],[42.4819,42.50042],[42.48294,42.51724],[42.49189,42.52363],[42.5148,42.53364],[42.52112,42.55517],[42.52904,42.55906],[42.57279,42.56177],[42.60757,42.57267],[42.58894,42.58974],[42.58997,42.60449],[42.57745,42.61171],[42.57392,42.62223],[42.55978,42.63524],[42.54873,42.65669],[42.52404,42.67728],[42.53828,42.6883],[42.54205,42.69655],[42.56289,42.70964],[42.56336,42.72509],[42.55091,42.73707],[42.53969,42.74337],[42.51075,42.76614],[42.47587,42.76926],[42.42722,42.79119],[42.4144,42.79175],[42.37386,42.81388],[42.36009,42.83034],[42.36811,42.84437],[42.36764,42.86158],[42.37942,42.87298],[42.38517,42.88832],[42.39686,42.89592],[42.41619,42.88798],[42.43636,42.88729],[42.45673,42.89585],[42.48341,42.89247],[42.48652,42.89993],[42.47568,42.90683],[42.47851,42.92036],[42.47445,42.937],[42.48379,42.94169],[42.50377,42.94259],[42.55648,42.92402],[42.56911,42.91387],[42.58947,42.91229],[42.62483,42.91919],[42.64378,42.91795],[42.68139,42.90531],[42.69271,42.89689],[42.7094,42.8953],[42.73117,42.90082],[42.77275,42.90041],[42.80688,42.92099],[42.81989,42.92126],[42.84667,42.90821],[42.86571,42.90662],[42.88108,42.90034],[42.90069,42.89758],[42.91266,42.89032],[42.9202,42.87941],[42.945,42.88487],[42.96404,42.87796],[42.99299,42.88618],[43.0455,42.88618],[43.05691,42.88238],[43.0521,42.86994],[43.0554,42.86407],[43.07482,42.86656],[43.08246,42.88729],[43.09575,42.89592],[43.10339,42.91836],[43.11149,42.93072],[43.15109,42.94018],[43.16454,42.96272],[43.14003,42.9746],[43.10865,42.9968],[43.08788,42.9996],[43.04295,43.02373],[43.03736,43.04505],[43.02513,43.05969],[43.02955,43.0698],[43.04398,43.07852],[43.04561,43.09035],[42.98536,43.11638],[42.9553,43.12057],[42.93439,43.12885],[42.92952,43.14638],[42.91686,43.15379],[42.88533,43.15207],[42.87944,43.15519],[42.8762,43.16969],[42.86235,43.1756],[42.84305,43.1755],[42.80961,43.16926],[42.79945,43.17216],[42.79267,43.18151],[42.77986,43.18645],[42.75098,43.18731],[42.7143,43.17378],[42.68514,43.17646],[42.676,43.17066],[42.68307,43.15648],[42.68072,43.14326],[42.66495,43.13713],[42.63343,43.15465],[42.61855,43.16045],[42.57598,43.17131],[42.54622,43.17302],[42.53267,43.17947],[42.51381,43.19515],[42.46756,43.20482],[42.44914,43.21373],[42.44576,43.22371],[42.449,43.23809],[42.44458,43.24775],[42.43058,43.25333],[42.41541,43.25129],[42.40554,43.24603],[42.38212,43.24378],[42.36474,43.24518],[42.35339,43.23992],[42.3419,43.22317],[42.31362,43.21931],[42.28077,43.20911],[42.25411,43.20965],[42.23834,43.22586],[42.22332,43.22929],[42.1999,43.22554],[42.17971,43.21609],[42.16248,43.22081],[42.12733,43.21345],[42.14127,43.18628],[42.13882,43.16703],[42.11365,43.15163],[42.10243,43.13182],[42.07669,43.11062],[42.07235,43.09906],[42.04803,43.08074],[42.04398,43.06421],[42.03823,43.05712],[42.0206,43.04982],[41.99863,43.05113],[41.92264,43.02391],[41.90369,43.02639],[41.88512,43.02363],[41.8738,43.0115],[41.85542,43.00054],[41.85504,42.99509],[41.86843,42.97771],[41.887,42.97357],[41.89822,42.9655],[41.89907,42.95619],[41.88333,42.93928],[41.89209,42.92858],[41.89775,42.91236],[41.90426,42.90483],[41.93669,42.89972],[41.93744,42.89247],[41.92481,42.88459],[41.91208,42.88155],[41.88653,42.87015],[41.87069,42.85861],[41.86937,42.849],[41.88078,42.83207],[41.88295,42.81554],[41.89313,42.80233],[41.89219,42.78414],[41.90576,42.77528],[41.92113,42.78434],[41.93763,42.78344],[41.94611,42.77729],[41.94734,42.76068],[41.94046,42.74967],[41.92914,42.74198],[41.90011,42.74164],[41.89916,42.73575],[41.90793,42.71497],[41.91529,42.70583],[41.93122,42.69897],[41.93103,42.68095],[41.92754,42.67298],[41.94168,42.64698],[41.93244,42.64157],[41.90614,42.63658],[41.89445,42.63068],[41.88653,42.62146],[41.87258,42.61584],[41.84976,42.59613],[41.83468,42.57503],[41.81422,42.56684],[41.78216,42.54565],[41.74313,42.52669],[41.72871,42.52127],[41.71551,42.51133],[41.70071,42.50438],[41.68308,42.50105],[41.66667,42.48902],[41.63518,42.48693],[41.63481,42.48109],[41.64499,42.47303],[41.64603,42.45355],[41.65168,42.44256],[41.63858,42.4379],[41.61944,42.44096],[41.59304,42.43985],[41.57287,42.43275],[41.55919,42.42468],[41.54238,42.42115]]]},"properties":{"area_code":"samegrelo_zemo_svaneti","area_name":"Samegrelo-Zemo Svaneti","boundary_source_name":"Samegrelo-Zemo Svaneti","area_unit_id":"ge-region-geoboundaries-adm1:samegrelo_zemo_svaneti","boundary_set_id":"ge-region-geoboundaries-adm1","boundary_level":"region","land_area_sq_km":7453.6515129306}},
{"type":"Feature","geometry":{"type":"Polygon","coordinates":[[[42.6014,41.5807],[42.68023,41.59674],[42.70808,41.59743],[42.74353,41.58865],[42.77575,41.5778],[42.79509,41.58813],[42.82386,41.58469],[42.83168,41.57057],[42.81994,41.55662],[42.8181,41.54181],[42.80936,41.53336],[42.79347,41.51131],[42.80867,41.48855],[42.83283,41.47665],[42.83836,41.47148],[42.85493,41.47372],[42.86414,41.49752],[42.87634,41.50321],[42.89751,41.50045],[42.89912,41.47907],[42.92283,41.47182],[42.93779,41.45682],[42.96841,41.44716],[42.96933,41.43042],[42.98475,41.41454],[42.99027,41.40211],[43.00431,41.39365],[43.01927,41.37604],[43.03999,41.36844],[43.0706,41.36481],[43.09592,41.35254],[43.10743,41.34356],[43.12815,41.31642],[43.15047,41.31348],[43.16773,41.30605],[43.19006,41.30518],[43.20019,41.29481],[43.17602,41.27803],[43.14725,41.26315],[43.12838,41.25692],[43.13298,41.24758],[43.15323,41.24498],[43.17901,41.25381],[43.19605,41.24619],[43.20594,41.22542],[43.23633,41.18473],[43.22896,41.17537],[43.24208,41.17364],[43.26855,41.1823],[43.30239,41.18871],[43.33576,41.19997],[43.34888,41.20153],[43.37581,41.20066],[43.41908,41.18248],[43.44463,41.17589],[43.4711,41.12823],[43.48583,41.12893],[43.53302,41.14643],[43.5466,41.1499],[43.56363,41.15025],[43.57675,41.14678],[43.60069,41.13101],[43.62762,41.12529],[43.64166,41.12702],[43.67043,41.13829],[43.69253,41.13239],[43.70657,41.12164],[43.73235,41.11297],[43.74363,41.11193],[43.75675,41.1161],[43.77631,41.13725],[43.80508,41.14661],[43.8182,41.15493],[43.84421,41.16359],[43.89186,41.1655],[43.95215,41.16403],[43.96453,41.18747],[43.96396,41.20222],[43.95717,41.21896],[43.9485,41.23101],[43.92003,41.2576],[43.9288,41.28509],[43.92851,41.30067],[43.94256,41.31718],[43.95208,41.3382],[43.92691,41.37359],[43.92022,41.38929],[43.90127,41.39389],[43.8892,41.40188],[43.88788,41.41517],[43.89504,41.43058],[43.89712,41.45369],[43.89344,41.46627],[43.8843,41.48273],[43.85884,41.49594],[43.86044,41.50921],[43.8262,41.5359],[43.81324,41.53965],[43.79542,41.53711],[43.76301,41.52785],[43.72309,41.52598],[43.67816,41.5284],[43.6705,41.5305],[43.66057,41.54507],[43.67358,41.55113],[43.68056,41.55875],[43.6898,41.58725],[43.69772,41.60241],[43.70451,41.63758],[43.70583,41.66139],[43.70158,41.69005],[43.69734,41.70265],[43.70262,41.71081],[43.7277,41.7263],[43.74618,41.72848],[43.78012,41.71025],[43.8117,41.70201],[43.815,41.71546],[43.83669,41.73213],[43.84894,41.7346],[43.85187,41.75542],[43.86661,41.76763],[43.86403,41.77497],[43.84772,41.78101],[43.83197,41.78073],[43.78559,41.79521],[43.76588,41.79381],[43.7393,41.79838],[43.71695,41.79423],[43.69687,41.79915],[43.68565,41.80519],[43.64398,41.81826],[43.64012,41.84081],[43.63012,41.84622],[43.60353,41.84461],[43.57629,41.86132],[43.57714,41.88028],[43.57063,41.8854],[43.55423,41.88954],[43.55027,41.89607],[43.55272,41.91277],[43.53575,41.92175],[43.50841,41.92133],[43.48776,41.93023],[43.4707,41.94223],[43.45005,41.94798],[43.42546,41.94428],[43.40979,41.93237],[43.38951,41.92937],[43.38366,41.92398],[43.3614,41.92164],[43.33497,41.90076],[43.30576,41.89389],[43.29671,41.88756],[43.2549,41.87435],[43.22401,41.87035],[43.20146,41.86344],[43.1625,41.84868],[43.13682,41.84725],[43.12421,41.8375],[43.11497,41.83593],[43.09506,41.84096],[43.07026,41.83417],[42.98995,41.83898],[42.96859,41.83332],[42.95761,41.8179],[42.93921,41.81605],[42.92587,41.82176],[42.91194,41.83368],[42.89329,41.83368],[42.87748,41.82594],[42.85679,41.82968],[42.84496,41.82738],[42.83392,41.83588],[42.8119,41.84011],[42.79585,41.84047],[42.79156,41.82855],[42.76845,41.82199],[42.75113,41.8143],[42.73346,41.81156],[42.68887,41.82077],[42.6806,41.8299],[42.65934,41.83556],[42.6401,41.83583],[42.62388,41.83885],[42.60739,41.82051],[42.60795,41.80793],[42.59872,41.80004],[42.58285,41.79802],[42.56523,41.80094],[42.53649,41.80927],[42.4991,41.80842],[42.4968,41.80836],[42.49915,41.8047],[42.50104,41.80182],[42.51452,41.7872],[42.52574,41.76758],[42.52499,41.75486],[42.50547,41.72137],[42.50736,41.70413],[42.51971,41.68526],[42.52357,41.67421],[42.53404,41.6628],[42.56619,41.64709],[42.57571,41.63828],[42.58768,41.61573],[42.6014,41.5807]]]},"properties":{"area_code":"samtskhe_javakheti","area_name":"Samtskhe-Javakheti","boundary_source_name":"Samtskhe–Javakheti","area_unit_id":"ge-region-geoboundaries-adm1:samtskhe_javakheti","boundary_set_id":"ge-region-geoboundaries-adm1","boundary_level":"region","land_area_sq_km":6398.436196456211}},
{"type":"Feature","geometry":{"type":"Polygon","coordinates":[[[44.67339,41.7146],[44.66187,41.7115],[44.63677,41.69673],[44.6209,41.69344],[44.59737,41.69718],[44.58367,41.70736],[44.56394,41.72983],[44.56068,41.73672],[44.54445,41.74321],[44.53359,41.75513],[44.50529,41.76184],[44.49141,41.76297],[44.47639,41.75842],[44.46293,41.75833],[44.46293,41.75832],[44.44483,41.74235],[44.42293,41.73861],[44.38993,41.73857],[44.36639,41.74348],[44.34551,41.75683],[44.32354,41.77651],[44.31091,41.77504],[44.29441,41.76119],[44.26754,41.76034],[44.24784,41.74761],[44.23143,41.75324],[44.20777,41.74388],[44.18938,41.74705],[44.18014,41.74431],[44.1627,41.7576],[44.13857,41.75035],[44.10642,41.74529],[44.08888,41.74086],[44.07399,41.741],[44.01252,41.74684],[43.99526,41.74733],[43.94294,41.74262],[43.92823,41.74712],[43.88335,41.75239],[43.86661,41.76763],[43.85187,41.75542],[43.84894,41.7346],[43.83669,41.73213],[43.815,41.71546],[43.8117,41.70201],[43.78012,41.71025],[43.74618,41.72848],[43.7277,41.7263],[43.70262,41.71081],[43.69734,41.70265],[43.70158,41.69005],[43.70583,41.66139],[43.70451,41.63758],[43.69772,41.60241],[43.6898,41.58725],[43.68056,41.55875],[43.67358,41.55113],[43.66057,41.54507],[43.6705,41.5305],[43.67816,41.5284],[43.72309,41.52598],[43.76301,41.52785],[43.79542,41.53711],[43.81324,41.53965],[43.8262,41.5359],[43.86044,41.50921],[43.85884,41.49594],[43.8843,41.48273],[43.89344,41.46627],[43.89712,41.45369],[43.89504,41.43058],[43.88788,41.41517],[43.8892,41.40188],[43.90127,41.39389],[43.92022,41.38929],[43.92691,41.37359],[43.95208,41.3382],[43.94256,41.31718],[43.92851,41.30067],[43.9288,41.28509],[43.92003,41.2576],[43.9485,41.23101],[43.95717,41.21896],[43.96396,41.20222],[43.96453,41.18747],[43.95215,41.16403],[43.97794,41.15735],[43.98623,41.15978],[44.00326,41.17451],[44.01569,41.17936],[44.03825,41.18126],[44.06242,41.19148],[44.12203,41.18975],[44.1462,41.1901],[44.16208,41.19408],[44.17152,41.20049],[44.17888,41.21919],[44.17152,41.23512],[44.17957,41.24325],[44.20052,41.23512],[44.21686,41.2365],[44.22699,41.24481],[44.2408,41.23598],[44.24333,41.21729],[44.26819,41.21452],[44.29581,41.21573],[44.3163,41.20932],[44.3308,41.21382],[44.33241,41.2275],[44.343,41.23512],[44.3575,41.23235],[44.3789,41.21919],[44.42793,41.19339],[44.44289,41.18733],[44.4712,41.18733],[44.49652,41.19512],[44.53979,41.1927],[44.56465,41.20118],[44.57685,41.20257],[44.57984,41.19096],[44.58698,41.18819],[44.59688,41.19841],[44.60102,41.22369],[44.60816,41.23287],[44.61805,41.23494],[44.67744,41.22802],[44.69056,41.22075],[44.71634,41.21902],[44.72785,41.21036],[44.74073,41.21227],[44.75869,41.22023],[44.78424,41.22162],[44.81324,41.2211],[44.86365,41.20742],[44.89012,41.20776],[44.89909,41.2133],[44.88966,41.22075],[44.86894,41.2211],[44.82176,41.23685],[44.81347,41.24343],[44.80173,41.25935],[44.80841,41.26886],[44.80633,41.28841],[44.81715,41.29775],[44.83902,41.29291],[44.8503,41.27803],[44.91843,41.25987],[44.94812,41.25814],[44.95894,41.268],[44.96216,41.27734],[44.97183,41.28616],[44.9983,41.2993],[45.01533,41.29809],[45.02776,41.30605],[45.04387,41.30674],[45.05032,41.31141],[45.05768,41.32541],[45.07541,41.33336],[45.08093,41.33993],[45.10418,41.342],[45.17392,41.40798],[45.17875,41.41765],[45.19832,41.41558],[45.24642,41.44336],[45.26162,41.46613],[45.28763,41.4632],[45.30443,41.46915],[45.30291,41.48584],[45.2981,41.5001],[45.31705,41.5018],[45.31507,41.51055],[45.2668,41.53455],[45.24681,41.54739],[45.23107,41.54189],[45.22098,41.5445],[45.20137,41.56644],[45.1778,41.5773],[45.1646,41.59966],[45.17478,41.61728],[45.19986,41.63236],[45.20401,41.64209],[45.18233,41.66843],[45.1794,41.69139],[45.19817,41.69505],[45.20769,41.70068],[45.191,41.71398],[45.18091,41.73009],[45.16121,41.73854],[45.15866,41.74346],[45.16922,41.76266],[45.16121,41.77033],[45.14235,41.77342],[45.13604,41.75549],[45.11973,41.75239],[45.08456,41.78966],[45.07607,41.82339],[45.06552,41.84229],[45.03997,41.84575],[45.01226,41.84847],[44.94532,41.85928],[44.90854,41.84566],[44.90034,41.8347],[44.89148,41.83513],[44.86791,41.84243],[44.85716,41.83351],[44.88356,41.82255],[44.88789,41.81658],[44.86527,41.79521],[44.86131,41.77019],[44.83515,41.75703],[44.88126,41.72402],[44.87716,41.70803],[44.94136,41.69488],[44.9661,41.69402],[44.98534,41.70294],[45.00604,41.70511],[45.00242,41.69204],[44.99144,41.68294],[44.98788,41.66473],[44.95397,41.65058],[44.94926,41.64178],[44.92271,41.64526],[44.91668,41.64945],[44.90009,41.64837],[44.88826,41.63213],[44.88066,41.649],[44.85801,41.65448],[44.79081,41.65405],[44.77959,41.67059],[44.76113,41.67532],[44.7452,41.68303],[44.72649,41.68429],[44.71436,41.68808],[44.71213,41.69781],[44.68932,41.70308],[44.67339,41.7146]]]},"properties":{"area_code":"kvemo_kartli","area_name":"Kvemo Kartli","boundary_source_name":"Kvemo Kartli","area_unit_id":"ge-region-geoboundaries-adm1:kvemo_kartli","boundary_set_id":"ge-region-geoboundaries-adm1","boundary_level":"region","land_area_sq_km":6531.719171381516}},
{"type":"Feature","geometry":{"type":"Polygon","coordinates":[[[43.42546,41.94428],[43.45005,41.94798],[43.4707,41.94223],[43.48776,41.93023],[43.50841,41.92133],[43.53575,41.92175],[43.55272,41.91277],[43.55027,41.89607],[43.55423,41.88954],[43.57063,41.8854],[43.57714,41.88028],[43.57629,41.86132],[43.60353,41.84461],[43.63012,41.84622],[43.64012,41.84081],[43.64398,41.81826],[43.68565,41.80519],[43.69687,41.79915],[43.71695,41.79423],[43.7393,41.79838],[43.76588,41.79381],[43.78559,41.79521],[43.83197,41.78073],[43.84772,41.78101],[43.86403,41.77497],[43.86661,41.76763],[43.88335,41.75239],[43.92823,41.74712],[43.94294,41.74262],[43.99526,41.74733],[44.01252,41.74684],[44.07399,41.741],[44.08888,41.74086],[44.10642,41.74529],[44.13857,41.75035],[44.1627,41.7576],[44.18014,41.74431],[44.18938,41.74705],[44.20777,41.74388],[44.23143,41.75324],[44.24784,41.74761],[44.26754,41.76034],[44.29441,41.76119],[44.31091,41.77504],[44.32354,41.77651],[44.34551,41.75683],[44.36639,41.74348],[44.38993,41.73857],[44.42293,41.73861],[44.44483,41.74235],[44.46293,41.75832],[44.46197,41.75968],[44.45461,41.76697],[44.45057,41.77939],[44.46601,41.80706],[44.47898,41.8165],[44.47941,41.83035],[44.48719,41.83754],[44.48152,41.85166],[44.46541,41.8602],[44.48623,41.86703],[44.49232,41.8775],[44.50053,41.87804],[44.53552,41.86734],[44.54687,41.8783],[44.54687,41.90615],[44.53968,41.9137],[44.53365,41.92905],[44.50191,41.95629],[44.49546,41.97267],[44.48411,41.9829],[44.48122,41.99092],[44.47863,42.02772],[44.45864,42.05181],[44.43828,42.05622],[44.41169,42.05265],[44.39812,42.06035],[44.36201,42.06455],[44.35173,42.06224],[44.3357,42.06483],[44.33042,42.0544],[44.30478,42.0502],[44.29639,42.04607],[44.29224,42.03351],[44.2757,42.03293],[44.27438,42.04355],[44.28035,42.05655],[44.28144,42.07258],[44.26641,42.07594],[44.25778,42.06846],[44.25223,42.05296],[44.24294,42.05121],[44.229,42.06654],[44.24433,42.09694],[44.25253,42.10567],[44.24753,42.12886],[44.23685,42.14094],[44.23633,42.15387],[44.24208,42.16023],[44.25724,42.16125],[44.25971,42.17632],[44.23878,42.19049],[44.24439,42.19992],[44.25881,42.20341],[44.28228,42.21423],[44.29441,42.22397],[44.31257,42.24608],[44.31486,42.25515],[44.3241,42.2568],[44.34461,42.27435],[44.34606,42.28127],[44.34021,42.29229],[44.33797,42.30997],[44.31571,42.33517],[44.31112,42.3519],[44.31704,42.36224],[44.33791,42.38368],[44.33767,42.40213],[44.32772,42.40708],[44.30286,42.41269],[44.29248,42.4322],[44.29347,42.45961],[44.28432,42.47317],[44.27244,42.48033],[44.28498,42.5023],[44.30299,42.50695],[44.3226,42.52572],[44.32741,42.53572],[44.32373,42.5501],[44.30091,42.55843],[44.29158,42.56635],[44.29064,42.5767],[44.27046,42.59821],[44.25312,42.60363],[44.23944,42.59669],[44.22719,42.60439],[44.2122,42.60841],[44.2105,42.61487],[44.22304,42.62583],[44.21291,42.63486],[44.20803,42.6322],[44.18122,42.63296],[44.16944,42.62808],[44.16605,42.61789],[44.15765,42.6102],[44.13276,42.61074],[44.11095,42.61594],[44.09269,42.61627],[44.05512,42.60347],[44.03126,42.60174],[44.00533,42.59599],[43.98648,42.58797],[43.97926,42.57593],[43.96821,42.56508],[43.94479,42.55325],[43.92946,42.55538],[43.91156,42.54664],[43.87765,42.53717],[43.86112,42.53094],[43.8581,42.52245],[43.83493,42.52116],[43.82365,42.51778],[43.81351,42.50911],[43.8114,42.49447],[43.79614,42.48548],[43.76916,42.48579],[43.74292,42.47912],[43.69018,42.48264],[43.66713,42.48201],[43.63642,42.46946],[43.6083,42.46848],[43.57499,42.4793],[43.56462,42.47058],[43.56474,42.45185],[43.57014,42.44673],[43.57554,42.44996],[43.60088,42.44671],[43.61524,42.45206],[43.62833,42.45255],[43.64348,42.44507],[43.65887,42.43166],[43.70255,42.4411],[43.71094,42.43255],[43.70177,42.42195],[43.71275,42.41389],[43.71872,42.42267],[43.73157,42.42717],[43.74714,42.42614],[43.75969,42.4208],[43.75088,42.40645],[43.74992,42.38841],[43.73652,42.38038],[43.73967,42.36606],[43.73013,42.35356],[43.7167,42.34417],[43.71411,42.33618],[43.70243,42.33073],[43.68612,42.3317],[43.67481,42.3232],[43.65397,42.33477],[43.6486,42.33421],[43.64831,42.31394],[43.63738,42.30582],[43.61633,42.30158],[43.60884,42.29046],[43.58549,42.27323],[43.58429,42.25859],[43.59545,42.24041],[43.58664,42.2279],[43.58519,42.21869],[43.5969,42.20985],[43.58845,42.19702],[43.55285,42.15463],[43.54802,42.13396],[43.53294,42.117],[43.51737,42.10925],[43.49993,42.09363],[43.48032,42.09327],[43.47224,42.07612],[43.47176,42.05856],[43.45999,42.04965],[43.47206,42.03333],[43.47097,42.02182],[43.46307,42.01092],[43.44424,42.00545],[43.43079,41.99294],[43.41347,41.98864],[43.39935,41.97406],[43.40575,41.95899],[43.42546,41.94428]]]},"properties":{"area_code":"shida_kartli","area_name":"Shida Kartli","boundary_source_name":"Shida Kartli","area_unit_id":"ge-region-geoboundaries-adm1:shida_kartli","boundary_set_id":"ge-region-geoboundaries-adm1","boundary_level":"region","land_area_sq_km":5708.852398090105}}
]}