{
"type": "FeatureCollection",
"name": "br_uf_2022",
"crs": { "type": "name", "properties": { "name": "urn:ogc:def:crs:OGC:1.3:CRS84" } },
"features": [
{ "type": "Feature", "properties": { "area_code": "11", "area_name": "Rondônia - RO" }, "geometry": { "type": "Polygon", "coordinates": [ [ [ -62.4177, -13.1189 ], [ -62.1152, -13.1637 ], [ -62.1157, -13.2585 ], [ -61.8171, -13.5274 ], [ -61.009, -13.5064 ], [ -60.7093, -13.693 ], [ -60.6322, -13.5717 ], [ -60.3879, -13.4547 ], [ -60.2676, -13.0773 ], [ -60.1172, -12.9596 ], [ -60.0289, -12.6186 ], [ -59.9477, -12.5993 ], [ -59.7794, -12.3415 ], [ -59.8868, -12.2451 ], [ -59.9842, -11.9148 ], [ -60.0989, -11.8456 ], [ -60.1109, -11.5825 ], [ -59.9172, -11.3384 ], [ -59.9768, -11.1224 ], [ -60.3916, -11.0938 ], [ -60.4601, -10.9899 ], [ -61.5503, -10.9861 ], [ -61.4618, -10.4199 ], [ -61.5533, -10.307 ], [ -61.5849, -10.0616 ], [ -61.5079, -9.8611 ], [ -61.5746, -9.7178 ], [ -61.477, -9.6299 ], [ -61.6283, -9.2571 ], [ -61.5293, -9.2487 ], [ -61.5558, -9.0924 ], [ -61.4692, -8.9201 ], [ -61.7133, -8.6879 ], [ -61.9902, -8.8727 ], [ -62.0311, -8.7997 ], [ -62.125, -8.8017 ], [ -62.1884, -8.5906 ], [ -62.2689, -8.5758 ], [ -62.2895, -8.6391 ], [ -62.3608, -8.3985 ], [ -62.4655, -8.3397 ], [ -62.5185, -8.3847 ], [ -62.6923, -8.0929 ], [ -62.8666, -7.9759 ], [ -63.6212, -7.9765 ], [ -63.7912, -8.3332 ], [ -63.9441, -8.3312 ], [ -63.9232, -8.5593 ], [ -64.1431, -8.743 ], [ -64.1418, -8.9451 ], [ -64.8078, -8.9856 ], [ -64.9399, -9.1246 ], [ -64.9197, -9.2203 ], [ -65.1429, -9.4468 ], [ -65.2704, -9.2636 ], [ -65.4402, -9.3117 ], [ -65.4321, -9.4586 ], [ -65.5881, -9.4138 ], [ -65.73, -9.5631 ], [ -65.9703, -9.4132 ], [ -66.4089, -9.4069 ], [ -66.3924, -9.5005 ], [ -66.5006, -9.6336 ], [ -66.8103, -9.818 ], [ -66.6269, -9.898 ], [ -65.8859, -9.7525 ], [ -65.5541, -9.832 ], [ -65.4434, -9.6693 ], [ -65.3569, -9.7202 ], [ -65.2887, -9.8657 ], [ -65.2888, -10.2199 ], [ -65.4297, -10.4809 ], [ -65.2509, -10.9845 ], [ -65.3635, -11.1473 ], [ -65.3049, -11.5016 ], [ -65.2119, -11.5305 ], [ -65.2048, -11.7495 ], [ -65.0905, -11.7078 ], [ -65.0289, -11.9976 ], [ -64.8396, -12.0107 ], [ -64.6984, -12.1036 ], [ -64.7129, -12.1736 ], [ -64.5128, -12.2229 ], [ -64.5131, -12.3438 ], [ -64.4062, -12.447 ], [ -63.9634, -12.5297 ], [ -63.8873, -12.4473 ], [ -63.6848, -12.4531 ], [ -63.2994, -12.6818 ], [ -63.0906, -12.636 ], [ -63.0071, -12.8396 ], [ -62.8922, -12.8588 ], [ -62.7944, -12.9952 ], [ -62.6607, -12.9695 ], [ -62.4177, -13.1189 ] ] ] } },
{ "type": "Feature", "properties": { "area_code": "12", "area_name": "Acre - AC" }, "geometry": { "type": "Polygon", "coordinates": [ [ [ -66.6269, -9.898 ], [ -68.6472, -9.0494 ], [ -70.055, -7.8451 ], [ -72.5848, -7.552 ], [ -73.8016, -7.1118 ], [ -73.6989, -7.2957 ], [ -73.8765, -7.3823 ], [ -73.9671, -7.3598 ], [ -73.9193, -7.4653 ], [ -73.9833, -7.5662 ], [ -73.6935, -7.7709 ], [ -73.704, -7.8726 ], [ -73.7672, -7.8609 ], [ -73.537, -8.3455 ], [ -73.3321, -8.4754 ], [ -73.344, -8.6021 ], [ -72.9948, -8.9198 ], [ -72.9402, -9.069 ], [ -73.2119, -9.4117 ], [ -72.7197, -9.4117 ], [ -72.3404, -9.5087 ], [ -72.2529, -9.6228 ], [ -72.2709, -9.7448 ], [ -72.1529, -9.7968 ], [ -72.1805, -10.0 ], [ -71.2108, -9.9664 ], [ -70.5056, -9.4222 ], [ -70.598, -9.6065 ], [ -70.5247, -9.7153 ], [ -70.6206, -9.8323 ], [ -70.621, -10.9996 ], [ -70.5301, -10.9348 ], [ -70.3022, -11.0688 ], [ -69.9339, -10.9212 ], [ -69.7357, -10.9745 ], [ -69.4235, -10.9266 ], [ -68.7486, -11.0187 ], [ -68.7161, -11.1456 ], [ -68.543, -11.1114 ], [ -68.2394, -10.9578 ], [ -68.0022, -10.6484 ], [ -67.7046, -10.7004 ], [ -67.5673, -10.5095 ], [ -67.3108, -10.3774 ], [ -67.316, -10.3187 ], [ -67.1778, -10.3394 ], [ -66.6269, -9.898 ] ] ] } },
{ "type": "Feature", "properties": { "area_code": "13", "area_name": "Amazonas - AM" }, "geometry": { "type": "Polygon", "coordinates": [ [ [ -58.2022, -7.6209 ], [ -58.181, -7.1817 ], [ -58.4346, -6.9088 ], [ -58.4818, -6.7814 ], [ -58.4273, -6.6162 ], [ -58.2667, -6.4756 ], [ -56.4021, -2.4565 ], [ -56.4645, -2.4316 ], [ -56.3892, -2.2785 ], [ -56.2038, -2.1831 ], [ -56.0987, -2.0269 ], [ -56.4139, -2.1759 ], [ -56.5271, -2.1392 ], [ -56.6791, -2.2126 ], [ -56.761, -2.1741 ], [ -56.7479, -2.0115 ], [ -57.0284, -1.918 ], [ -57.0825, -1.7824 ], [ -57.2586, -1.6969 ], [ -57.3534, -1.7368 ], [ -57.9597, -1.3969 ], [ -57.9658, -1.171 ], [ -58.0333, -1.098 ], [ -58.1561, -1.2328 ], [ -58.3167, -1.147699999999879 ], [ -58.4289, -1.0286 ], [ -58.4342, -0.8922 ], [ -58.7351, -0.612799999999783 ], [ -58.7245, -0.441899999999621 ], [ -58.8695, -0.347500000000241 ], [ -58.8955, 0.263499999999491 ], [ -60.038, 0.263500000000651 ], [ -60.3943, -0.550800000000141 ], [ -60.3115, -0.71849999999983 ], [ -60.4978, -0.780699999999857 ], [ -60.5362, -0.869499999999822 ], [ -60.762, -0.848600000000208 ], [ -60.9336, -0.547899999999702 ], [ -61.2231, -0.4999 ], [ -61.234, -0.56190000000024 ], [ -61.4581, -0.6547 ], [ -61.5356, -0.75439999999979 ], [ -61.6288, -1.3015 ], [ -61.4747, -1.579 ], [ -61.605, -1.4481 ], [ -61.8966, -1.3954 ], [ -62.0175, -1.141699999999857 ], [ -62.5102, -0.758999999999808 ], [ -62.4866, -0.6815 ], [ -62.357, -0.702399999999796 ], [ -62.2867, -0.6324 ], [ -62.3184, -0.544600000000199 ], [ -62.1886, -0.322299999999729 ], [ -62.4093, 0.075100000001094 ], [ -62.4464, 0.379099999999545 ], [ -62.5187, 0.44370000000029 ], [ -62.4716, 1.0863 ], [ -62.5211, 1.0838 ], [ -62.64, 1.4382 ], [ -62.8053, 1.5913 ], [ -62.7033, 1.9338 ], [ -62.8386, 2.0164 ], [ -63.0238, 2.0147 ], [ -63.1376, 2.1611 ], [ -63.3721, 2.2119 ], [ -63.3977, 2.1469 ], [ -63.5619, 2.1324 ], [ -63.8297, 1.9682 ], [ -63.9755, 1.9913 ], [ -64.0619, 1.9307 ], [ -64.0652, 1.676 ], [ -64.3261, 1.436 ], [ -64.4, 1.3949 ], [ -64.3975, 1.5268 ], [ -64.7639, 1.2308 ], [ -64.823, 1.2785 ], [ -64.9516, 1.2315 ], [ -65.0222, 1.114899999999871 ], [ -65.1551, 1.125 ], [ -65.165, 0.950499999999845 ], [ -65.3291, 0.9316 ], [ -65.443, 0.689899999999751 ], [ -65.5405, 0.648800000000129 ], [ -65.5914, 0.72159999999979 ], [ -65.5003, 0.842399999999847 ], [ -65.5856, 1.0089 ], [ -65.7394, 0.999600000000165 ], [ -65.9644, 0.8095 ], [ -66.3165, 0.7361 ], [ -66.8569, 1.23020000000011 ], [ -67.0882, 1.1669 ], [ -67.0974, 1.7326 ], [ -67.1571, 1.8488 ], [ -67.2781, 1.8757 ], [ -67.3893, 2.244 ], [ -67.6198, 2.0237 ], [ -67.7794, 2.0311 ], [ -67.9413, 1.8307 ], [ -68.1407, 1.9848 ], [ -68.2433, 1.9267 ], [ -68.2669, 1.8273 ], [ -68.1568, 1.7316 ], [ -69.5344, 1.777 ], [ -69.8458, 1.7077 ], [ -69.8466, 1.0779 ], [ -69.7026, 1.1183 ], [ -69.2457, 1.0465 ], [ -69.1401, 0.883800000000176 ], [ -69.1876, 0.7469 ], [ -69.1157, 0.643999999999753 ], [ -69.3498, 0.614100000000222 ], [ -69.481, 0.735 ], [ -69.6281, 0.627500000000196 ], [ -69.687, 0.663199999999772 ], [ -70.0465, 0.5621 ], [ -70.0574, -0.186800000000346 ], [ -69.6111, -0.513500000000143 ], [ -69.5643, -0.639799999999725 ], [ -69.6264, -0.749700000000174 ], [ -69.4217, -1.0004 ], [ -69.3984, -1.1444 ], [ -69.9507, -4.2693 ], [ -70.0454, -4.3738 ], [ -70.1328, -4.282 ], [ -70.2004, -4.356 ], [ -70.3079, -4.2468 ], [ -70.2932, -4.1599 ], [ -70.759, -4.1587 ], [ -70.938, -4.3832 ], [ -71.2665, -4.3845 ], [ -71.6169, -4.5289 ], [ -71.7788, -4.4847 ], [ -71.9151, -4.5307 ], [ -71.9476, -4.609 ], [ -72.3722, -4.8077 ], [ -72.4146, -4.9009 ], [ -72.8871, -5.1616 ], [ -72.9618, -5.6546 ], [ -73.151, -5.8634 ], [ -73.2502, -6.1449 ], [ -73.1089, -6.41 ], [ -73.213, -6.5778 ], [ -73.6428, -6.7621 ], [ -73.8016, -7.1118 ], [ -72.5848, -7.552 ], [ -70.055, -7.8451 ], [ -68.6472, -9.0494 ], [ -66.8103, -9.818 ], [ -66.5006, -9.6336 ], [ -66.3924, -9.5005 ], [ -66.4089, -9.4069 ], [ -65.9703, -9.4132 ], [ -65.73, -9.5631 ], [ -65.5881, -9.4138 ], [ -65.4321, -9.4586 ], [ -65.4402, -9.3117 ], [ -65.2704, -9.2636 ], [ -65.1429, -9.4468 ], [ -64.9197, -9.2203 ], [ -64.9399, -9.1246 ], [ -64.8078, -8.9856 ], [ -64.1418, -8.9451 ], [ -64.1431, -8.743 ], [ -63.9232, -8.5593 ], [ -63.9441, -8.3312 ], [ -63.7912, -8.3332 ], [ -63.6212, -7.9765 ], [ -62.8666, -7.9759 ], [ -62.6923, -8.0929 ], [ -62.5185, -8.3847 ], [ -62.4655, -8.3397 ], [ -62.3608, -8.3985 ], [ -62.2895, -8.6391 ], [ -62.2689, -8.5758 ], [ -62.1884, -8.5906 ], [ -62.125, -8.8017 ], [ -62.0311, -8.7997 ], [ -61.9902, -8.8727 ], [ -61.7133, -8.6879 ], [ -61.5831, -8.7987 ], [ -58.4419, -8.7987 ], [ -58.3284, -8.7122 ], [ -58.4373, -8.7034 ], [ -58.2864, -8.0885 ], [ -58.3782, -7.8274 ], [ -58.2022, -7.6209 ] ] ] } },
{ "type": "Feature", "properties": { "area_code": "14", "area_name": "Roraima - RR" }, "geometry": { "type": "Polygon", "coordinates": [ [ [ -64.2891, 3.6996 ], [ -64.1179, 3.3374 ], [ -64.2187, 3.0906 ], [ -64.0147, 2.8122 ], [ -63.9862, 2.6487 ], [ -64.0617, 2.5044 ], [ -63.4657, 2.4017 ], [ -63.4147, 2.4542 ], [ -63.3554, 2.3823 ], [ -63.3721, 2.2119 ], [ -63.1376, 2.1611 ], [ -63.0238, 2.0147 ], [ -62.8386, 2.0164 ], [ -62.7033, 1.9338 ], [ -62.8053, 1.5913 ], [ -62.64, 1.4382 ], [ -62.5211, 1.0838 ], [ -62.4716, 1.0863 ], [ -62.5187, 0.44370000000029 ], [ -62.4464, 0.379099999999545 ], [ -62.4093, 0.075100000001094 ], [ -62.1886, -0.322299999999729 ], [ -62.3184, -0.544600000000199 ], [ -62.2867, -0.6324 ], [ -62.357, -0.702399999999796 ], [ -62.4866, -0.6815 ], [ -62.5102, -0.758999999999808 ], [ -62.0175, -1.141699999999857 ], [ -61.8966, -1.3954 ], [ -61.605, -1.4481 ], [ -61.4747, -1.579 ], [ -61.6288, -1.3015 ], [ -61.5356, -0.75439999999979 ], [ -61.2231, -0.4999 ], [ -60.9336, -0.547899999999702 ], [ -60.762, -0.848600000000208 ], [ -60.6691, -0.887900000000165 ], [ -60.3115, -0.71849999999983 ], [ -60.3943, -0.550800000000141 ], [ -60.038, 0.263500000000651 ], [ -58.8955, 0.263499999999491 ], [ -58.9236, 1.318 ], [ -59.2533, 1.3882 ], [ -59.5336, 1.7163 ], [ -59.6902, 1.7563 ], [ -59.6624, 1.8619 ], [ -59.7461, 1.8519 ], [ -59.7404, 2.2929 ], [ -59.8444, 2.321 ], [ -59.9884, 2.6798 ], [ -59.9083, 3.2119 ], [ -59.8064, 3.3539 ], [ -59.8052, 3.5098 ], [ -59.8727, 3.5638 ], [ -59.6626, 3.715 ], [ -59.5265, 3.9246 ], [ -59.709, 4.1619 ], [ -59.6762, 4.3469 ], [ -59.7359, 4.4237 ], [ -60.1615, 4.5178 ], [ -60.0259, 4.7057 ], [ -59.972, 5.0749 ], [ -60.0958, 5.1407 ], [ -60.1352, 5.2482 ], [ -60.6972, 5.2288 ], [ -60.5841, 4.9557 ], [ -60.7509, 4.7537 ], [ -60.9476, 4.6555 ], [ -60.9979, 4.5156 ], [ -61.1493, 4.4832 ], [ -61.2698, 4.5397 ], [ -61.3516, 4.4188 ], [ -61.4483, 4.4391 ], [ -61.5619, 4.251 ], [ -61.7377, 4.2568 ], [ -61.8189, 4.1677 ], [ -61.9933, 4.1749 ], [ -62.1436, 4.0752 ], [ -62.3897, 4.178 ], [ -62.5527, 4.1088 ], [ -62.533, 4.0474 ], [ -62.7361, 4.0399 ], [ -62.7889, 3.8932 ], [ -62.7486, 3.6727 ], [ -62.8102, 3.7327 ], [ -62.9861, 3.6099 ], [ -63.0814, 3.6932 ], [ -63.0608, 3.7518 ], [ -63.2044, 3.8116 ], [ -63.205, 3.9513 ], [ -63.4522, 3.9555 ], [ -63.4119, 3.9118 ], [ -63.5111, 3.8471 ], [ -63.6769, 4.0191 ], [ -63.7141, 3.9038 ], [ -63.9261, 3.926 ], [ -63.9658, 3.8682 ], [ -64.1719, 4.1288 ], [ -64.5605, 4.1016 ], [ -64.7805, 4.2866 ], [ -64.8105, 4.1746 ], [ -64.4786, 3.7832 ], [ -64.2891, 3.6996 ] ] ] } },
{ "type": "Feature", "properties": { "area_code": "15", "area_name": "Pará - PA" }, "geometry": { "type": "Polygon", "coordinates": [ [ [ -48.7552, -5.3492 ], [ -47.8162, -4.6147 ], [ -47.6152, -4.56 ], [ -47.3718, -4.2456 ], [ -47.3472, -4.1087 ], [ -47.0887, -3.8616 ], [ -46.9443, -3.3772 ], [ -46.6765, -3.0941 ], [ -46.6811, -2.8936 ], [ -46.5896, -2.8458 ], [ -46.6696, -2.7346 ], [ -46.5068, -2.6169 ], [ -46.2234, -1.9149 ], [ -46.211, -1.8311 ], [ -46.31, -1.806299999999897 ], [ -46.3152, -1.7416 ], [ -46.2112, -1.7272 ], [ -46.1613, -1.6228 ], [ -46.1037, -1.3373 ], [ -46.1616, -1.2819 ], [ -46.0634, -1.1062 ], [ -46.0946, -1.0206 ], [ -46.1935, -1.0796 ], [ -46.2076, -0.885600000000134 ], [ -46.3374, -1.021499999999857 ], [ -46.4691, -1.025300000000168 ], [ -46.4958, -0.8722 ], [ -46.5313, -0.953 ], [ -46.6364, -0.9691 ], [ -46.6293, -0.800799999999822 ], [ -46.796, -0.8705 ], [ -46.836, -0.74670000000016 ], [ -46.9426, -0.8593 ], [ -46.9907, -0.711899999999771 ], [ -47.0637, -0.7946 ], [ -47.092, -0.674099999999835 ], [ -47.1605, -0.7623 ], [ -47.1747, -0.672899999999887 ], [ -47.3863, -0.604700000000167 ], [ -47.426, -0.657300000000219 ], [ -47.4744, -0.5923 ], [ -47.4816, -0.7391 ], [ -47.5898, -0.576099999999859 ], [ -47.6315, -0.706299999999763 ], [ -47.6327, -0.6021 ], [ -47.9171, -0.566399999999743 ], [ -47.977, -0.6862 ], [ -48.0514, -0.659500000000111 ], [ -48.2938, -0.9197 ], [ -48.4096, -0.905800000000109 ], [ -48.5061, -0.750900000000212 ], [ -48.3746, -0.303100000000419 ], [ -48.4288, -0.2271999999992 ], [ -48.9179, -0.22959999999949 ], [ -49.1646, -0.130300000000651 ], [ -49.3826, -0.191500000000621 ], [ -49.4386, -0.126500000000622 ], [ -49.3589, -0.025899999998218 ], [ -49.397, 0.062200000000512 ], [ -49.6322, 0.074899999998476 ], [ -49.6996, 0.150500000000938 ], [ -49.4886, 0.334199999999784 ], [ -49.5732, 0.416599999999621 ], [ -49.8892, 0.322499999999854 ], [ -50.1678, 0.340299999999862 ], [ -50.0364, 0.5342 ], [ -50.0726, 0.635799999999885 ], [ -50.2261, 0.6962 ], [ -50.4099, 0.623299999999866 ], [ -50.6448, 0.208699999999337 ], [ -51.2081, -0.117000000000262 ], [ -51.6835, -0.795500000000125 ], [ -51.7004, -1.0632 ], [ -51.7784, -1.1404 ], [ -51.9656, -1.125800000000122 ], [ -52.111, -1.215 ], [ -52.1203, -1.1462 ], [ -52.4201, -1.052699999999897 ], [ -52.5352, -0.57410000000026 ], [ -52.64, -0.5849 ], [ -52.6842, -0.314299999999838 ], [ -52.9327, -0.142300000000158 ], [ -53.1753, 0.381699999999801 ], [ -53.1057, 0.679499999999831 ], [ -53.4115, 0.929299999999869 ], [ -53.4337, 1.2345 ], [ -53.5252, 1.211700000000123 ], [ -53.5334, 1.322400000000103 ], [ -54.0887, 1.492 ], [ -54.1231, 1.6074 ], [ -54.3777, 1.7637 ], [ -54.7448, 1.7758 ], [ -54.8113, 2.0394 ], [ -54.7631, 2.2023 ], [ -54.9543, 2.5837 ], [ -55.3203, 2.5155 ], [ -55.3854, 2.4185 ], [ -55.718, 2.4021 ], [ -55.9347, 2.5335 ], [ -56.139, 2.2658 ], [ -55.9669, 2.0885 ], [ -55.9039, 1.8881 ], [ -55.999, 1.8314 ], [ -56.4371, 1.9518 ], [ -56.721, 1.9259 ], [ -56.7881, 1.8544 ], [ -57.0008, 1.9074 ], [ -57.0868, 2.0265 ], [ -57.253, 1.9485 ], [ -57.3044, 1.9975 ], [ -57.5772, 1.6904 ], [ -57.7924, 1.7267 ], [ -57.9902, 1.6585 ], [ -58.0043, 1.5031 ], [ -58.3172, 1.5685 ], [ -58.3719, 1.4816 ], [ -58.5088, 1.463 ], [ -58.4963, 1.268 ], [ -58.7105, 1.2899 ], [ -58.8252, 1.171300000000124 ], [ -58.8955, 1.2277 ], [ -58.8695, -0.347500000000241 ], [ -58.7245, -0.441899999999621 ], [ -58.7351, -0.612799999999783 ], [ -58.4342, -0.8922 ], [ -58.4289, -1.0286 ], [ -58.1561, -1.2328 ], [ -58.0333, -1.098 ], [ -57.9658, -1.171 ], [ -57.9597, -1.3969 ], [ -57.3534, -1.7368 ], [ -57.2586, -1.6969 ], [ -57.0825, -1.7824 ], [ -57.0284, -1.918 ], [ -56.7479, -2.0115 ], [ -56.761, -2.1741 ], [ -56.6791, -2.2126 ], [ -56.5271, -2.1392 ], [ -56.4139, -2.1759 ], [ -56.0987, -2.0269 ], [ -56.2038, -2.1831 ], [ -56.3892, -2.2785 ], [ -56.4645, -2.4316 ], [ -56.4021, -2.4565 ], [ -58.2667, -6.4756 ], [ -58.4273, -6.6162 ], [ -58.4818, -6.7814 ], [ -58.181, -7.1817 ], [ -58.1474, -7.3432 ], [ -57.8967, -7.6779 ], [ -57.8319, -7.9615 ], [ -57.6417, -8.2199 ], [ -57.6866, -8.407 ], [ -57.5929, -8.7565 ], [ -57.2038, -8.9208 ], [ -57.0392, -9.0983 ], [ -57.0598, -9.1824 ], [ -56.8201, -9.2463 ], [ -56.7543, -9.4064 ], [ -50.2248, -9.8412 ], [ -50.0378, -9.2894 ], [ -49.6844, -8.8565 ], [ -49.5924, -8.8395 ], [ -49.221, -8.2038 ], [ -49.1607, -7.7914 ], [ -49.3423, -7.6558 ], [ -49.378, -7.4964 ], [ -49.1864, -7.1967 ], [ -49.2095, -6.9254 ], [ -48.6663, -6.6642 ], [ -48.6261, -6.4785 ], [ -48.5002, -6.3509 ], [ -48.3757, -6.345 ], [ -48.4361, -6.2014 ], [ -48.288, -6.0976 ], [ -48.3347, -6.0043 ], [ -48.2329, -5.9476 ], [ -48.2757, -5.7265 ], [ -48.1723, -5.7086 ], [ -48.1382, -5.6027 ], [ -48.3735, -5.4027 ], [ -48.5967, -5.4225 ], [ -48.7552, -5.3492 ] ] ] } },
{ "type": "Feature", "properties": { "area_code": "16", "area_name": "Amapá - AP" }, "geometry": { "type": "MultiPolygon", "coordinates": [ [ [ [ -50.684, 2.1437 ], [ -51.1093, 3.4506 ], [ -51.0807, 3.8848 ], [ -51.1508, 3.9138 ], [ -51.2834, 4.2503 ], [ -51.6376, 4.5088 ], [ -51.6561, 4.0539 ], [ -51.7823, 3.9641 ], [ -52.3529, 3.1265 ], [ -52.5521, 2.52 ], [ -52.9043, 2.1885 ], [ -53.2792, 2.186 ], [ -53.2295, 2.2624 ], [ -53.3233, 2.3471 ], [ -53.4731, 2.2567 ], [ -53.7488, 2.3128 ], [ -53.7672, 2.3789 ], [ -53.9424, 2.2424 ], [ -54.1891, 2.1788 ], [ -54.4366, 2.2099 ], [ -54.6921, 2.3614 ], [ -54.744, 2.4715 ], [ -54.8723, 2.4337 ], [ -54.7631, 2.2023 ], [ -54.8113, 2.0394 ], [ -54.7448, 1.7758 ], [ -54.3777, 1.7637 ], [ -54.1231, 1.6074 ], [ -54.0887, 1.492 ], [ -53.5334, 1.322400000000103 ], [ -53.5252, 1.211700000000123 ], [ -53.4337, 1.2345 ], [ -53.4115, 0.929299999999869 ], [ -53.1057, 0.679499999999831 ], [ -53.1753, 0.381699999999801 ], [ -52.9327, -0.142300000000158 ], [ -52.6842, -0.314299999999838 ], [ -52.64, -0.5849 ], [ -52.5352, -0.57410000000026 ], [ -52.4201, -1.052699999999897 ], [ -52.1203, -1.1462 ], [ -52.111, -1.215 ], [ -51.9656, -1.125800000000122 ], [ -51.7784, -1.1404 ], [ -51.7004, -1.0632 ], [ -51.6835, -0.795500000000125 ], [ -51.2081, -0.117000000000262 ], [ -50.6448, 0.208699999999337 ], [ -50.4099, 0.623299999999866 ], [ -50.2261, 0.6962 ], [ -49.8898, 1.0136 ], [ -49.9206, 1.6879 ], [ -50.1587, 1.8112 ], [ -50.4237, 1.8045 ], [ -50.684, 2.1437 ] ] ], [ [ [ -50.5088, 2.1852 ], [ -50.5077, 2.0999 ], [ -50.4226, 2.1185 ], [ -50.5088, 2.1852 ] ] ], [ [ [ -50.4501, 2.1092 ], [ -50.5212, 2.0054 ], [ -50.4549, 1.8885 ], [ -50.3174, 1.9475 ], [ -50.4501, 2.1092 ] ] ] ] } },
{ "type": "Feature", "properties": { "area_code": "17", "area_name": "Tocantins - TO" }, "geometry": { "type": "Polygon", "coordinates": [ [ [ -47.5471, -7.0167 ], [ -47.3807, -6.25 ], [ -47.5603, -5.4632 ], [ -47.8275, -5.3866 ], [ -47.9373, -5.2396 ], [ -48.1849, -5.257 ], [ -48.3639, -5.1684 ], [ -48.5611, -5.2302 ], [ -48.6061, -5.3365 ], [ -48.7552, -5.3492 ], [ -48.5967, -5.4225 ], [ -48.3735, -5.4027 ], [ -48.1382, -5.6027 ], [ -48.1723, -5.7086 ], [ -48.2757, -5.7265 ], [ -48.2329, -5.9476 ], [ -48.3347, -6.0043 ], [ -48.288, -6.0976 ], [ -48.4361, -6.2014 ], [ -48.3757, -6.345 ], [ -48.5002, -6.3509 ], [ -48.6261, -6.4785 ], [ -48.6663, -6.6642 ], [ -49.2095, -6.9254 ], [ -49.1864, -7.1967 ], [ -49.378, -7.4964 ], [ -49.3423, -7.6558 ], [ -49.1607, -7.7914 ], [ -49.2833, -8.3796 ], [ -49.5924, -8.8395 ], [ -49.6844, -8.8565 ], [ -50.0378, -9.2894 ], [ -50.3983, -10.1555 ], [ -50.4181, -10.3546 ], [ -50.6033, -10.6598 ], [ -50.6095, -11.0674 ], [ -50.7389, -11.5445 ], [ -50.6701, -11.5816 ], [ -50.7173, -11.7274 ], [ -50.6393, -11.8846 ], [ -50.6814, -12.2169 ], [ -50.6236, -12.4553 ], [ -50.6839, -12.6481 ], [ -50.6227, -12.8197 ], [ -50.511, -12.8609 ], [ -50.4342, -12.6494 ], [ -50.1418, -12.3954 ], [ -50.3108, -12.7916 ], [ -49.3683, -13.2723 ], [ -49.2377, -12.8838 ], [ -49.1177, -12.7901 ], [ -48.9762, -12.9579 ], [ -48.8703, -12.8033 ], [ -48.5759, -13.1242 ], [ -48.5801, -13.3133 ], [ -48.5161, -13.1391 ], [ -48.4589, -13.2804 ], [ -48.1437, -13.1525 ], [ -48.1699, -13.3003 ], [ -48.0745, -13.239 ], [ -47.7982, -13.329 ], [ -47.6797, -13.4682 ], [ -47.6223, -13.3687 ], [ -47.6651, -13.2184 ], [ -47.5687, -13.1169 ], [ -47.3929, -13.2624 ], [ -46.8548, -13.0676 ], [ -46.7506, -12.9692 ], [ -46.4546, -12.9712 ], [ -46.418, -12.8224 ], [ -46.3644, -12.9907 ], [ -46.113, -12.918 ], [ -46.328, -12.9547 ], [ -46.2967, -12.5757 ], [ -46.1982, -12.504 ], [ -46.2666, -12.5067 ], [ -46.29, -12.377 ], [ -46.3716, -12.3498 ], [ -46.3889, -12.0488 ], [ -46.3128, -11.9411 ], [ -46.381, -11.8631 ], [ -46.3078, -11.6866 ], [ -46.3617, -11.631 ], [ -46.0809, -11.624 ], [ -46.4393, -11.521 ], [ -46.5599, -11.3716 ], [ -46.553, -11.2654 ], [ -46.3416, -10.939 ], [ -46.2673, -10.9348 ], [ -46.1276, -10.6206 ], [ -45.8202, -10.4561 ], [ -45.7982, -10.3232 ], [ -45.6993, -10.2586 ], [ -45.7235, -10.1554 ], [ -45.744, -10.24 ], [ -45.8967, -10.2643 ], [ -45.9109, -10.3711 ], [ -46.0232, -10.1834 ], [ -46.3248, -10.1832 ], [ -46.4452, -10.0774 ], [ -46.5129, -9.7975 ], [ -46.6444, -9.7403 ], [ -46.5392, -9.5601 ], [ -46.6328, -9.4116 ], [ -46.7543, -9.4138 ], [ -46.9403, -9.0637 ], [ -47.0687, -9.0639 ], [ -46.9181, -8.857 ], [ -46.9032, -8.5932 ], [ -46.7824, -8.3681 ], [ -46.544, -8.3174 ], [ -46.4657, -8.0727 ], [ -46.6086, -7.893 ], [ -47.0148, -8.0588 ], [ -47.5028, -7.4391 ], [ -47.5916, -7.4401 ], [ -47.4782, -7.3368 ], [ -47.5429, -7.2654 ], [ -47.6507, -7.3023 ], [ -47.7451, -7.1625 ], [ -47.5471, -7.0167 ] ] ] } },
{ "type": "Feature", "properties": { "area_code": "21", "area_name": "Maranhão - MA" }, "geometry": { "type": "MultiPolygon", "coordinates": [ [ [ [ -47.8162, -4.6147 ], [ -48.7552, -5.3492 ], [ -48.6061, -5.3365 ], [ -48.5611, -5.2302 ], [ -48.3639, -5.1684 ], [ -48.1849, -5.257 ], [ -47.9373, -5.2396 ], [ -47.8275, -5.3866 ], [ -47.5603, -5.4632 ], [ -47.3807, -6.25 ], [ -47.5471, -7.0167 ], [ -47.7451, -7.1625 ], [ -47.6507, -7.3023 ], [ -47.5429, -7.2654 ], [ -47.4782, -7.3368 ], [ -47.5916, -7.4401 ], [ -47.5028, -7.4391 ], [ -47.0148, -8.0588 ], [ -46.6086, -7.893 ], [ -46.5012, -7.9732 ], [ -46.4657, -8.0727 ], [ -46.544, -8.3174 ], [ -46.7824, -8.3681 ], [ -46.9032, -8.5932 ], [ -46.9181, -8.857 ], [ -47.0687, -9.0639 ], [ -46.9403, -9.0637 ], [ -46.7543, -9.4138 ], [ -46.6328, -9.4116 ], [ -46.5392, -9.5601 ], [ -46.6444, -9.7403 ], [ -46.5129, -9.7975 ], [ -46.4452, -10.0774 ], [ -46.3248, -10.1832 ], [ -46.0232, -10.1834 ], [ -45.9463, -10.2585 ], [ -45.7911, -9.4828 ], [ -45.8937, -9.3426 ], [ -45.9951, -8.927 ], [ -45.5837, -8.1569 ], [ -45.4558, -7.67 ], [ -44.8173, -7.3615 ], [ -44.6904, -7.3958 ], [ -44.5653, -7.2287 ], [ -44.3129, -7.1186 ], [ -44.1163, -6.8058 ], [ -43.7538, -6.7035 ], [ -43.4546, -6.846 ], [ -42.9928, -6.7487 ], [ -42.9151, -6.648 ], [ -42.8473, -6.2782 ], [ -43.0491, -6.1016 ], [ -43.0949, -5.6149 ], [ -42.8158, -5.318 ], [ -42.799, -5.1897 ], [ -42.9531, -4.6874 ], [ -42.8501, -4.498 ], [ -42.9864, -4.2205 ], [ -42.4964, -3.4459 ], [ -42.2017, -3.4313 ], [ -42.1236, -3.2668 ], [ -41.9798, -3.216 ], [ -41.7967, -2.9606 ], [ -41.8072, -2.73 ], [ -42.2226, -2.6922 ], [ -42.2636, -2.7579 ], [ -42.4876, -2.7033 ], [ -43.3116, -2.3387 ], [ -43.4833, -2.3853 ], [ -43.4617, -2.4864 ], [ -43.5374, -2.4219 ], [ -43.5786, -2.5061 ], [ -43.6968, -2.5149 ], [ -43.7412, -2.4351 ], [ -43.6446, -2.4013 ], [ -43.5943, -2.2827 ], [ -43.7204, -2.2914 ], [ -43.7619, -2.4187 ], [ -43.8381, -2.4167 ], [ -43.8502, -2.51 ], [ -44.1484, -2.7681 ], [ -44.2658, -2.7604 ], [ -44.0362, -2.5567 ], [ -44.0318, -2.4063 ], [ -44.3046, -2.4875 ], [ -44.4248, -2.9439 ], [ -44.5481, -3.0451 ], [ -44.6625, -3.0129 ], [ -44.6501, -2.805 ], [ -44.358, -2.3405 ], [ -44.4626, -2.145 ], [ -44.6777, -2.2805 ], [ -44.4973, -2.0253 ], [ -44.5777, -2.0292 ], [ -44.4821, -1.9883 ], [ -44.5341, -1.8222 ], [ -44.7594, -1.783 ], [ -44.7016, -1.725 ], [ -44.7998, -1.7043 ], [ -44.6363, -1.6166 ], [ -44.7234, -1.5567 ], [ -44.8899, -1.6036 ], [ -44.8604, -1.4113 ], [ -44.9531, -1.56 ], [ -45.0082, -1.4856 ], [ -45.196, -1.4881 ], [ -45.3238, -1.597 ], [ -45.3086, -1.332899999999871 ], [ -45.4755, -1.4798 ], [ -45.5144, -1.3081 ], [ -45.8467, -1.213 ], [ -45.8539, -1.05279999999987 ], [ -45.954, -1.202200000000107 ], [ -45.9946, -1.053 ], [ -46.1616, -1.2819 ], [ -46.1037, -1.3373 ], [ -46.1613, -1.6228 ], [ -46.2112, -1.7272 ], [ -46.3152, -1.7416 ], [ -46.31, -1.806299999999897 ], [ -46.211, -1.8311 ], [ -46.2833, -2.1544 ], [ -46.4163, -2.2738 ], [ -46.5068, -2.6169 ], [ -46.6696, -2.7346 ], [ -46.5896, -2.8458 ], [ -46.6811, -2.8936 ], [ -46.6765, -3.0941 ], [ -46.9443, -3.3772 ], [ -47.0887, -3.8616 ], [ -47.3472, -4.1087 ], [ -47.3718, -4.2456 ], [ -47.6152, -4.56 ], [ -47.8162, -4.6147 ] ] ], [ [ [ -44.4815, -2.7266 ], [ -44.6381, -2.981 ], [ -44.5609, -3.0225 ], [ -44.479, -2.9579 ], [ -44.4815, -2.7266 ] ] ], [ [ [ -44.9662, -1.2711 ], [ -45.0288, -1.318000000000124 ], [ -44.9891, -1.4016 ], [ -44.8669, -1.3287 ], [ -44.9662, -1.2711 ] ] ] ] } },
{ "type": "Feature", "properties": { "area_code": "22", "area_name": "Piauí - PI" }, "geometry": { "type": "Polygon", "coordinates": [ [ [ -40.9269, -8.4463 ], [ -40.5439, -7.9616 ], [ -40.5549, -7.8184 ], [ -40.6736, -7.7617 ], [ -40.6218, -7.6583 ], [ -40.7149, -7.4806 ], [ -40.5485, -7.3927 ], [ -40.3705, -6.8032 ], [ -40.7102, -6.6761 ], [ -40.9063, -6.0465 ], [ -40.929, -5.1717 ], [ -41.0801, -5.0911 ], [ -41.2496, -4.8697 ], [ -41.175, -4.6653 ], [ -41.2398, -4.5736 ], [ -41.0981, -4.1805 ], [ -41.2289, -3.9681 ], [ -41.2393, -3.7128 ], [ -41.3342, -3.684 ], [ -41.324, -3.3859 ], [ -41.4144, -3.3499 ], [ -41.2715, -2.9707 ], [ -41.826, -2.7573 ], [ -41.7967, -2.9606 ], [ -41.9798, -3.216 ], [ -42.1236, -3.2668 ], [ -42.2017, -3.4313 ], [ -42.4964, -3.4459 ], [ -42.9864, -4.2205 ], [ -42.8501, -4.498 ], [ -42.9531, -4.6874 ], [ -42.799, -5.1897 ], [ -42.8158, -5.318 ], [ -43.0949, -5.6149 ], [ -43.0491, -6.1016 ], [ -42.8473, -6.2782 ], [ -42.9151, -6.648 ], [ -42.9928, -6.7487 ], [ -43.4546, -6.846 ], [ -43.7538, -6.7035 ], [ -44.1163, -6.8058 ], [ -44.3129, -7.1186 ], [ -44.5653, -7.2287 ], [ -44.6904, -7.3958 ], [ -44.8173, -7.3615 ], [ -45.4558, -7.67 ], [ -45.5837, -8.1569 ], [ -45.9951, -8.927 ], [ -45.8937, -9.3426 ], [ -45.7911, -9.4828 ], [ -45.8425, -9.9395 ], [ -45.9463, -10.2585 ], [ -46.0124, -10.2507 ], [ -45.9109, -10.3711 ], [ -45.8967, -10.2643 ], [ -45.744, -10.24 ], [ -45.7235, -10.1554 ], [ -45.6032, -10.108 ], [ -45.396, -10.445 ], [ -45.4145, -10.6451 ], [ -45.246, -10.8225 ], [ -44.9447, -10.919 ], [ -44.6668, -10.7589 ], [ -44.5778, -10.6268 ], [ -44.5005, -10.6497 ], [ -44.3444, -10.5497 ], [ -44.1655, -10.6429 ], [ -43.6927, -10.0594 ], [ -43.6525, -9.8436 ], [ -43.7849, -9.7624 ], [ -43.8497, -9.5481 ], [ -43.7822, -9.4527 ], [ -43.4381, -9.2661 ], [ -43.2851, -9.42 ], [ -42.9587, -9.4284 ], [ -42.9514, -9.5104 ], [ -42.77, -9.6192 ], [ -42.4931, -9.4949 ], [ -42.3161, -9.3166 ], [ -41.9139, -9.2771 ], [ -41.7236, -9.0135 ], [ -41.5456, -8.9417 ], [ -41.3813, -8.7073 ], [ -41.2065, -8.6333 ], [ -40.9785, -8.3987 ], [ -40.9269, -8.4463 ] ] ] } },
{ "type": "Feature", "properties": { "area_code": "23", "area_name": "Ceará - CE" }, "geometry": { "type": "Polygon", "coordinates": [ [ [ -40.3719, -2.8124 ], [ -41.3227, -2.9213 ], [ -41.2609, -3.0538 ], [ -41.4144, -3.3499 ], [ -41.324, -3.3859 ], [ -41.3342, -3.684 ], [ -41.2393, -3.7128 ], [ -41.2289, -3.9681 ], [ -41.0981, -4.1805 ], [ -41.2398, -4.5736 ], [ -41.175, -4.6653 ], [ -41.2496, -4.8697 ], [ -41.0801, -5.0911 ], [ -40.929, -5.1717 ], [ -40.9063, -6.0465 ], [ -40.7102, -6.6761 ], [ -40.3705, -6.8032 ], [ -40.5237, -7.3185 ], [ -40.1571, -7.3715 ], [ -39.7413, -7.3268 ], [ -39.1466, -7.7182 ], [ -39.093, -7.8576 ], [ -38.966, -7.8456 ], [ -38.7176, -7.6269 ], [ -38.5494, -7.335 ], [ -38.6698, -7.0477 ], [ -38.765, -6.9939 ], [ -38.7652, -6.9109 ], [ -38.6139, -6.7824 ], [ -38.6725, -6.7062 ], [ -38.5384, -6.4213 ], [ -38.5704, -6.293 ], [ -38.4048, -6.0573 ], [ -38.2749, -6.0658 ], [ -38.1635, -5.9389 ], [ -38.0586, -5.7549 ], [ -38.0828, -5.6724 ], [ -37.9022, -5.5007 ], [ -37.6403, -4.9264 ], [ -37.2527, -4.8314 ], [ -37.3259, -4.7003 ], [ -37.6031, -4.6173 ], [ -38.4638, -3.7072 ], [ -38.6524, -3.6822 ], [ -39.257, -3.2195 ], [ -39.9424, -2.8664 ], [ -40.3719, -2.8124 ] ] ] } },
{ "type": "Feature", "properties": { "area_code": "24", "area_name": "Rio Grande do Norte - RN" }, "geometry": { "type": "Polygon", "coordinates": [ [ [ -36.5044, -6.3865 ], [ -36.295, -6.2921 ], [ -36.2265, -6.434 ], [ -35.9652, -6.4844 ], [ -35.6636, -6.4468 ], [ -35.1458, -6.5528 ], [ -34.9685, -6.4872 ], [ -35.2558, -5.5169 ], [ -35.4895, -5.157 ], [ -35.9083, -5.0595 ], [ -36.7156, -5.0809 ], [ -36.96, -4.9186 ], [ -37.1386, -4.9479 ], [ -37.2527, -4.8314 ], [ -37.6403, -4.9264 ], [ -37.9022, -5.5007 ], [ -38.0828, -5.6724 ], [ -38.0586, -5.7549 ], [ -38.1635, -5.9389 ], [ -38.2749, -6.0658 ], [ -38.4048, -6.0573 ], [ -38.5704, -6.293 ], [ -38.5625, -6.3557 ], [ -38.4584, -6.3302 ], [ -38.2887, -6.5056 ], [ -38.1202, -6.5224 ], [ -37.9194, -6.4116 ], [ -37.709, -6.177 ], [ -37.1739, -6.048 ], [ -37.1569, -6.1525 ], [ -37.3888, -6.391 ], [ -37.4847, -6.71 ], [ -37.3143, -6.689 ], [ -37.2346, -6.8246 ], [ -37.0036, -6.7096 ], [ -36.9591, -6.7833 ], [ -36.835, -6.7311 ], [ -36.7302, -6.8364 ], [ -36.76, -6.9145 ], [ -36.6549, -6.9282 ], [ -36.5437, -6.8421 ], [ -36.5207, -6.6106 ], [ -36.4382, -6.6293 ], [ -36.5282, -6.4793 ], [ -36.5044, -6.3865 ] ] ] } },
{ "type": "Feature", "properties": { "area_code": "25", "area_name": "Paraíba - PB" }, "geometry": { "type": "Polygon", "coordinates": [ [ [ -38.1201, -7.819 ], [ -37.2607, -7.2742 ], [ -37.0137, -7.4038 ], [ -36.9854, -7.4756 ], [ -37.1979, -7.6353 ], [ -37.152, -7.7798 ], [ -37.3502, -7.9486 ], [ -37.1496, -8.0237 ], [ -37.1602, -8.1704 ], [ -36.9545, -8.2992 ], [ -36.6286, -8.1111 ], [ -36.5726, -7.936 ], [ -36.4463, -7.9164 ], [ -36.3994, -7.8104 ], [ -36.2635, -7.8317 ], [ -36.2166, -7.7641 ], [ -36.0033, -7.8128 ], [ -35.6799, -7.7036 ], [ -35.527, -7.6451 ], [ -35.4949, -7.4839 ], [ -35.2802, -7.3877 ], [ -34.8339, -7.5486 ], [ -34.8058, -7.2445 ], [ -34.9685, -6.4872 ], [ -35.1458, -6.5528 ], [ -35.6636, -6.4468 ], [ -35.9652, -6.4844 ], [ -36.2265, -6.434 ], [ -36.344, -6.3025 ], [ -36.5044, -6.3865 ], [ -36.5282, -6.4793 ], [ -36.4382, -6.6293 ], [ -36.5207, -6.6106 ], [ -36.5437, -6.8421 ], [ -36.6549, -6.9282 ], [ -36.76, -6.9145 ], [ -36.7302, -6.8364 ], [ -36.835, -6.7311 ], [ -36.9591, -6.7833 ], [ -37.0036, -6.7096 ], [ -37.2346, -6.8246 ], [ -37.3143, -6.689 ], [ -37.4847, -6.71 ], [ -37.3888, -6.391 ], [ -37.1569, -6.1525 ], [ -37.1739, -6.048 ], [ -37.709, -6.177 ], [ -37.9194, -6.4116 ], [ -38.1202, -6.5224 ], [ -38.2887, -6.5056 ], [ -38.4584, -6.3302 ], [ -38.5625, -6.3557 ], [ -38.6725, -6.7062 ], [ -38.6139, -6.7824 ], [ -38.7652, -6.9109 ], [ -38.5544, -7.2519 ], [ -38.7151, -7.6219 ], [ -38.5936, -7.7543 ], [ -38.355, -7.6784 ], [ -38.2219, -7.8204 ], [ -38.1201, -7.819 ] ] ] } },
{ "type": "Feature", "properties": { "area_code": "26", "area_name": "Pernambuco - PE" }, "geometry": { "type": "Polygon", "coordinates": [ [ [ -41.3583, -8.7076 ], [ -41.1137, -8.7038 ], [ -41.1034, -8.7804 ], [ -40.851, -8.9542 ], [ -40.821, -9.0799 ], [ -40.6699, -9.1861 ], [ -40.7672, -9.4454 ], [ -40.6232, -9.4829 ], [ -40.4181, -9.3521 ], [ -40.3564, -9.377 ], [ -40.2732, -9.0824 ], [ -39.9784, -9.0549 ], [ -39.8744, -8.9367 ], [ -39.893, -8.8288 ], [ -39.6733, -8.7849 ], [ -39.646, -8.6597 ], [ -39.3568, -8.5475 ], [ -39.2285, -8.7103 ], [ -38.8549, -8.7845 ], [ -38.6103, -8.9573 ], [ -38.5704, -8.8304 ], [ -38.4698, -8.8657 ], [ -38.514, -8.96 ], [ -38.4035, -9.0372 ], [ -38.3235, -8.99 ], [ -38.2376, -9.3298 ], [ -37.7554, -8.8464 ], [ -37.6384, -9.0038 ], [ -37.5253, -8.9634 ], [ -37.3956, -9.0281 ], [ -37.2292, -9.2269 ], [ -36.9796, -9.3593 ], [ -36.8798, -9.2764 ], [ -36.6249, -9.3318 ], [ -36.2915, -9.1741 ], [ -36.0333, -8.9084 ], [ -35.7233, -8.9095 ], [ -35.5398, -8.8211 ], [ -35.1527, -8.9139 ], [ -34.828, -7.9591 ], [ -34.8339, -7.5486 ], [ -35.2802, -7.3877 ], [ -35.4949, -7.4839 ], [ -35.527, -7.6451 ], [ -35.6799, -7.7036 ], [ -36.0033, -7.8128 ], [ -36.2166, -7.7641 ], [ -36.2635, -7.8317 ], [ -36.3994, -7.8104 ], [ -36.4463, -7.9164 ], [ -36.5726, -7.936 ], [ -36.6286, -8.1111 ], [ -36.9545, -8.2992 ], [ -37.1602, -8.1704 ], [ -37.1496, -8.0237 ], [ -37.3502, -7.9486 ], [ -37.152, -7.7798 ], [ -37.1979, -7.6353 ], [ -36.9854, -7.4756 ], [ -37.2607, -7.2742 ], [ -37.7672, -7.6572 ], [ -38.1201, -7.819 ], [ -38.2219, -7.8204 ], [ -38.355, -7.6784 ], [ -38.5936, -7.7543 ], [ -38.7151, -7.6219 ], [ -38.9621, -7.8442 ], [ -39.093, -7.8576 ], [ -39.1466, -7.7182 ], [ -39.7413, -7.3268 ], [ -40.1571, -7.3715 ], [ -40.5237, -7.3185 ], [ -40.7149, -7.4806 ], [ -40.6218, -7.6583 ], [ -40.6736, -7.7617 ], [ -40.5549, -7.8184 ], [ -40.6039, -8.1037 ], [ -40.9269, -8.4463 ], [ -40.9785, -8.3987 ], [ -41.3583, -8.7076 ] ] ] } },
{ "type": "Feature", "properties": { "area_code": "27", "area_name": "Alagoas - AL" }, "geometry": { "type": "Polygon", "coordinates": [ [ [ -37.7554, -8.8464 ], [ -38.2376, -9.3298 ], [ -38.205, -9.4167 ], [ -37.1338, -9.9138 ], [ -36.9535, -10.0228 ], [ -36.8449, -10.1888 ], [ -36.6319, -10.2522 ], [ -36.562, -10.4157 ], [ -36.3959, -10.4969 ], [ -35.3391, -9.2307 ], [ -35.1527, -8.9139 ], [ -35.5398, -8.8211 ], [ -35.7233, -8.9095 ], [ -36.0333, -8.9084 ], [ -36.3559, -9.2184 ], [ -36.6249, -9.3318 ], [ -36.8798, -9.2764 ], [ -36.9368, -9.3774 ], [ -37.2292, -9.2269 ], [ -37.3956, -9.0281 ], [ -37.5253, -8.9634 ], [ -37.6384, -9.0038 ], [ -37.7554, -8.8464 ] ] ] } },
{ "type": "Feature", "properties": { "area_code": "28", "area_name": "Sergipe - SE" }, "geometry": { "type": "Polygon", "coordinates": [ [ [ -36.918, -10.1247 ], [ -36.9535, -10.0228 ], [ -37.1338, -9.9138 ], [ -37.8941, -9.5395 ], [ -38.0033, -9.515 ], [ -38.061, -9.5876 ], [ -38.0035, -9.9047 ], [ -37.7908, -10.0329 ], [ -37.7433, -10.3384 ], [ -37.8477, -10.4435 ], [ -37.8099, -10.6888 ], [ -37.9725, -10.7571 ], [ -38.2049, -10.7106 ], [ -38.2383, -10.7999 ], [ -38.2103, -10.931 ], [ -37.9813, -11.1992 ], [ -37.9942, -11.3434 ], [ -37.8, -11.5214 ], [ -37.673, -11.5686 ], [ -37.3411, -11.4423 ], [ -36.8527, -10.7442 ], [ -36.3959, -10.4969 ], [ -36.562, -10.4157 ], [ -36.6319, -10.2522 ], [ -36.7204, -10.2649 ], [ -36.918, -10.1247 ] ] ] } },
{ "type": "Feature", "properties": { "area_code": "29", "area_name": "Bahia - BA" }, "geometry": { "type": "Polygon", "coordinates": [ [ [ -39.3568, -8.5475 ], [ -39.646, -8.6597 ], [ -39.6733, -8.7849 ], [ -39.893, -8.8288 ], [ -39.8744, -8.9367 ], [ -39.9784, -9.0549 ], [ -40.2732, -9.0824 ], [ -40.3564, -9.377 ], [ -40.4181, -9.3521 ], [ -40.6232, -9.4829 ], [ -40.7672, -9.4454 ], [ -40.6699, -9.1861 ], [ -41.1137, -8.7038 ], [ -41.3813, -8.7073 ], [ -41.5456, -8.9417 ], [ -41.7236, -9.0135 ], [ -41.8547, -9.2407 ], [ -42.3161, -9.3166 ], [ -42.4931, -9.4949 ], [ -42.77, -9.6192 ], [ -42.9514, -9.5104 ], [ -42.9587, -9.4284 ], [ -43.2851, -9.42 ], [ -43.4381, -9.2661 ], [ -43.8497, -9.5481 ], [ -43.7849, -9.7624 ], [ -43.6525, -9.8436 ], [ -43.6927, -10.0594 ], [ -44.0834, -10.5891 ], [ -44.1655, -10.6429 ], [ -44.3444, -10.5497 ], [ -44.5005, -10.6497 ], [ -44.5778, -10.6268 ], [ -44.6668, -10.7589 ], [ -44.9447, -10.919 ], [ -45.246, -10.8225 ], [ -45.4145, -10.6451 ], [ -45.396, -10.445 ], [ -45.6032, -10.108 ], [ -45.7235, -10.1554 ], [ -45.6993, -10.2586 ], [ -45.7982, -10.3232 ], [ -45.8202, -10.4561 ], [ -46.1276, -10.6206 ], [ -46.2673, -10.9348 ], [ -46.3416, -10.939 ], [ -46.553, -11.2654 ], [ -46.5599, -11.3716 ], [ -46.4393, -11.521 ], [ -46.0809, -11.624 ], [ -46.3617, -11.631 ], [ -46.3078, -11.6866 ], [ -46.381, -11.8631 ], [ -46.3128, -11.9411 ], [ -46.3889, -12.0488 ], [ -46.3716, -12.3498 ], [ -46.29, -12.377 ], [ -46.2666, -12.5067 ], [ -46.1982, -12.504 ], [ -46.2967, -12.5757 ], [ -46.328, -12.9547 ], [ -46.113, -12.918 ], [ -46.2987, -13.0638 ], [ -46.3277, -13.2529 ], [ -46.2925, -13.3169 ], [ -46.0683, -13.2954 ], [ -46.2485, -13.436 ], [ -46.2475, -13.5787 ], [ -46.1627, -13.6036 ], [ -46.2642, -13.9474 ], [ -46.1841, -14.1569 ], [ -45.9072, -14.3552 ], [ -46.0001, -14.4466 ], [ -46.0394, -14.8753 ], [ -45.9661, -14.9656 ], [ -46.0771, -15.2647 ], [ -45.9717, -15.1539 ], [ -45.7398, -15.1204 ], [ -45.2056, -14.7447 ], [ -45.0958, -14.753 ], [ -44.5572, -14.337 ], [ -44.296, -14.2532 ], [ -43.9696, -14.274 ], [ -43.7832, -14.3392 ], [ -43.8835, -14.6525 ], [ -43.5308, -14.8155 ], [ -43.175, -14.6511 ], [ -42.9389, -14.708 ], [ -42.2656, -15.125 ], [ -42.1733, -15.086 ], [ -41.9534, -15.1757 ], [ -41.8023, -15.1003 ], [ -41.3619, -15.495 ], [ -41.3302, -15.7433 ], [ -41.1425, -15.772 ], [ -40.8168, -15.6476 ], [ -40.5198, -15.7976 ], [ -40.2357, -15.8035 ], [ -40.0044, -16.0018 ], [ -39.9148, -16.0 ], [ -39.8568, -16.1138 ], [ -40.1579, -16.5795 ], [ -40.2755, -16.5734 ], [ -40.2816, -16.9012 ], [ -40.4923, -16.8874 ], [ -40.6047, -17.3562 ], [ -40.4145, -17.6101 ], [ -40.2237, -17.7343 ], [ -40.2224, -17.9804 ], [ -39.6678, -18.3372 ], [ -39.4912, -17.9979 ], [ -39.1373, -17.685 ], [ -39.2121, -17.1613 ], [ -39.0111, -16.2458 ], [ -38.8528, -15.8494 ], [ -39.0622, -14.747 ], [ -38.9288, -13.9068 ], [ -38.9884, -13.7168 ], [ -38.8911, -13.6405 ], [ -38.9188, -13.2136 ], [ -38.6433, -13.0153 ], [ -38.4687, -13.0149 ], [ -38.3043, -12.9109 ], [ -37.7699, -12.2387 ], [ -37.3411, -11.4423 ], [ -37.673, -11.5686 ], [ -37.8, -11.5214 ], [ -37.9942, -11.3434 ], [ -37.9813, -11.1992 ], [ -38.2103, -10.931 ], [ -38.2049, -10.7106 ], [ -37.9725, -10.7571 ], [ -37.8099, -10.6888 ], [ -37.8477, -10.4435 ], [ -37.7433, -10.3384 ], [ -37.7908, -10.0329 ], [ -38.0035, -9.9047 ], [ -38.061, -9.5876 ], [ -38.0033, -9.515 ], [ -38.205, -9.4167 ], [ -38.3235, -8.99 ], [ -38.4035, -9.0372 ], [ -38.514, -8.96 ], [ -38.4698, -8.8657 ], [ -38.5704, -8.8304 ], [ -38.6103, -8.9573 ], [ -38.8549, -8.7845 ], [ -39.2285, -8.7103 ], [ -39.3568, -8.5475 ] ] ] } },
{ "type": "Feature", "properties": { "area_code": "31", "area_name": "Minas Gerais - MG" }, "geometry": { "type": "Polygon", "coordinates": [ [ [ -47.2834, -18.0408 ], [ -47.9546, -18.5 ], [ -48.2718, -18.3294 ], [ -48.9177, -18.3059 ], [ -49.2058, -18.4141 ], [ -49.3734, -18.6348 ], [ -49.4862, -18.5323 ], [ -49.7946, -18.6438 ], [ -50.0288, -18.6015 ], [ -50.0798, -18.6719 ], [ -50.27, -18.6842 ], [ -50.5352, -19.0989 ], [ -50.828, -19.3108 ], [ -50.8754, -19.4228 ], [ -50.8256, -19.4733 ], [ -50.935, -19.4675 ], [ -50.9306, -19.5903 ], [ -51.0382, -19.6918 ], [ -51.0005, -20.0854 ], [ -50.4541, -19.7862 ], [ -50.0441, -19.9164 ], [ -49.2501, -19.9693 ], [ -49.3059, -20.1169 ], [ -49.2597, -20.2588 ], [ -49.1836, -20.3147 ], [ -49.0659, -20.1535 ], [ -48.986, -20.1708 ], [ -48.963, -20.4031 ], [ -48.8865, -20.4369 ], [ -48.8221, -20.1615 ], [ -48.2186, -20.1279 ], [ -48.2034, -20.0455 ], [ -48.0768, -20.1484 ], [ -47.9812, -20.0364 ], [ -47.8994, -20.1257 ], [ -47.8509, -19.9898 ], [ -47.6397, -20.0472 ], [ -47.4896, -19.9693 ], [ -47.2311, -20.2192 ], [ -47.2935, -20.4187 ], [ -47.1442, -20.5408 ], [ -47.101, -20.682 ], [ -47.2274, -20.8565 ], [ -47.0115, -21.4223 ], [ -46.7647, -21.3601 ], [ -46.5089, -21.4891 ], [ -46.6907, -21.8376 ], [ -46.6179, -21.995 ], [ -46.7195, -22.0833 ], [ -46.5985, -22.1364 ], [ -46.7233, -22.3066 ], [ -46.4565, -22.5217 ], [ -46.3931, -22.663 ], [ -46.4731, -22.705 ], [ -46.3326, -22.7661 ], [ -46.3449, -22.9052 ], [ -45.768, -22.836 ], [ -45.7122, -22.7698 ], [ -45.8051, -22.7373 ], [ -45.6787, -22.5733 ], [ -45.6662, -22.6512 ], [ -45.4804, -22.5905 ], [ -45.4, -22.6537 ], [ -45.1244, -22.4972 ], [ -43.7644, -22.0632 ], [ -43.3467, -22.0038 ], [ -43.1312, -22.0292 ], [ -43.1423, -22.1044 ], [ -42.2666, -21.7145 ], [ -42.3527, -21.5917 ], [ -42.0801, -21.0302 ], [ -42.1509, -20.974 ], [ -41.9759, -20.9355 ], [ -41.8747, -20.7659 ], [ -41.7995, -20.477 ], [ -41.8595, -20.3729 ], [ -41.7568, -20.2069 ], [ -41.4119, -20.2061 ], [ -41.2979, -19.9376 ], [ -41.187, -19.8915 ], [ -41.1685, -19.6722 ], [ -40.9722, -19.5053 ], [ -40.9643, -19.1221 ], [ -41.0608, -19.0565 ], [ -41.065, -18.9448 ], [ -41.2432, -18.8538 ], [ -41.2324, -18.7973 ], [ -40.9168, -18.8155 ], [ -40.9415, -18.6907 ], [ -41.0509, -18.6342 ], [ -41.023, -18.4573 ], [ -41.1818, -18.4396 ], [ -41.1589, -18.3082 ], [ -41.0519, -18.1651 ], [ -40.7733, -18.1076 ], [ -40.9024, -17.9862 ], [ -40.662, -18.0127 ], [ -40.527, -17.8919 ], [ -40.2224, -17.9804 ], [ -40.2237, -17.7343 ], [ -40.4145, -17.6101 ], [ -40.6047, -17.3562 ], [ -40.5478, -17.2837 ], [ -40.5787, -17.1496 ], [ -40.4923, -16.8874 ], [ -40.2816, -16.9012 ], [ -40.2755, -16.5734 ], [ -40.1579, -16.5795 ], [ -39.8568, -16.1138 ], [ -39.9148, -16.0 ], [ -40.0044, -16.0018 ], [ -40.2357, -15.8035 ], [ -40.5198, -15.7976 ], [ -40.7006, -15.6673 ], [ -40.7677, -15.7141 ], [ -40.8168, -15.6476 ], [ -41.1425, -15.772 ], [ -41.3302, -15.7433 ], [ -41.3619, -15.495 ], [ -41.8023, -15.1003 ], [ -41.9534, -15.1757 ], [ -42.1733, -15.086 ], [ -42.2656, -15.125 ], [ -42.9389, -14.708 ], [ -43.175, -14.6511 ], [ -43.5308, -14.8155 ], [ -43.8835, -14.6525 ], [ -43.7832, -14.3392 ], [ -43.9696, -14.274 ], [ -44.296, -14.2532 ], [ -44.5572, -14.337 ], [ -45.0958, -14.753 ], [ -45.2056, -14.7447 ], [ -45.7398, -15.1204 ], [ -45.9717, -15.1539 ], [ -46.0771, -15.2647 ], [ -45.9661, -14.9656 ], [ -46.0376, -14.8747 ], [ -46.1768, -14.9494 ], [ -46.3193, -14.9004 ], [ -46.3222, -14.8146 ], [ -46.5034, -14.7041 ], [ -46.5605, -14.815 ], [ -46.5027, -15.0509 ], [ -46.6254, -15.0895 ], [ -46.8569, -15.0103 ], [ -46.9251, -15.0575 ], [ -46.8495, -15.3732 ], [ -46.9461, -15.5633 ], [ -46.8062, -15.8706 ], [ -47.1366, -15.9274 ], [ -47.31, -16.0363 ], [ -47.4544, -16.4646 ], [ -47.2257, -16.7205 ], [ -47.1274, -16.9787 ], [ -47.5108, -17.3261 ], [ -47.5366, -17.4571 ], [ -47.2648, -17.6114 ], [ -47.3712, -17.8313 ], [ -47.2834, -18.0408 ] ] ] } },
{ "type": "Feature", "properties": { "area_code": "32", "area_name": "Espírito Santo - ES" }, "geometry": { "type": "Polygon", "coordinates": [ [ [ -41.187, -19.8915 ], [ -41.4119, -20.2061 ], [ -41.7568, -20.2069 ], [ -41.8595, -20.3729 ], [ -41.7995, -20.477 ], [ -41.8747, -20.7659 ], [ -41.7752, -20.7999 ], [ -41.7169, -21.1051 ], [ -40.961, -21.3011 ], [ -40.7589, -20.8657 ], [ -40.5709, -20.7652 ], [ -40.3772, -20.5355 ], [ -40.0548, -19.8148 ], [ -39.8108, -19.6496 ], [ -39.6891, -19.3049 ], [ -39.7465, -18.7062 ], [ -39.6678, -18.3372 ], [ -40.2224, -17.9804 ], [ -40.527, -17.8919 ], [ -40.662, -18.0127 ], [ -40.9024, -17.9862 ], [ -40.7733, -18.1076 ], [ -41.0519, -18.1651 ], [ -41.1589, -18.3082 ], [ -41.1818, -18.4396 ], [ -41.023, -18.4573 ], [ -41.0509, -18.6342 ], [ -40.9415, -18.6907 ], [ -40.9168, -18.8155 ], [ -41.2324, -18.7973 ], [ -41.2432, -18.8538 ], [ -41.065, -18.9448 ], [ -40.9323, -19.2512 ], [ -40.9722, -19.5053 ], [ -41.1685, -19.6722 ], [ -41.187, -19.8915 ] ] ] } },
{ "type": "Feature", "properties": { "area_code": "33", "area_name": "Rio de Janeiro - RJ" }, "geometry": { "type": "MultiPolygon", "coordinates": [ [ [ [ -44.3181, -22.8451 ], [ -44.7919, -22.9819 ], [ -44.8826, -23.2027 ], [ -44.7242, -23.3676 ], [ -44.5358, -23.2921 ], [ -44.7212, -23.2018 ], [ -44.6686, -23.0542 ], [ -44.3449, -22.922 ], [ -44.347, -23.0302 ], [ -44.1657, -23.0339 ], [ -43.8806, -22.9158 ], [ -43.5624, -23.0532 ], [ -43.2855, -23.015 ], [ -43.1615, -22.9053 ], [ -43.2728, -22.8098 ], [ -43.2146, -22.7277 ], [ -43.0389, -22.6926 ], [ -43.1104, -22.9536 ], [ -42.0373, -22.9331 ], [ -41.9694, -22.8228 ], [ -41.9792, -22.5625 ], [ -41.6891, -22.3 ], [ -41.004, -22.0211 ], [ -41.0689, -21.4976 ], [ -40.961, -21.3011 ], [ -41.7169, -21.1051 ], [ -41.7752, -20.7999 ], [ -41.8747, -20.7659 ], [ -41.9759, -20.9355 ], [ -42.1509, -20.974 ], [ -42.0801, -21.0302 ], [ -42.3527, -21.5917 ], [ -42.2666, -21.7145 ], [ -43.1423, -22.1044 ], [ -43.1312, -22.0292 ], [ -43.3467, -22.0038 ], [ -43.7644, -22.0632 ], [ -44.8035, -22.3937 ], [ -44.6459, -22.6039 ], [ -44.2264, -22.6046 ], [ -44.1656, -22.6734 ], [ -44.3181, -22.8451 ] ] ], [ [ [ -44.3498, -23.2155 ], [ -44.14, -23.167 ], [ -44.2334, -23.0907 ], [ -44.373, -23.1682 ], [ -44.3498, -23.2155 ] ] ], [ [ [ -43.7931, -23.0615 ], [ -43.9733, -23.0453 ], [ -43.6666, -23.0426 ], [ -43.7931, -23.0615 ] ] ] ] } },
{ "type": "Feature", "properties": { "area_code": "35", "area_name": "São Paulo - SP" }, "geometry": { "type": "MultiPolygon", "coordinates": [ [ [ [ -46.6907, -21.8376 ], [ -46.5089, -21.4891 ], [ -46.7647, -21.3601 ], [ -47.0115, -21.4223 ], [ -47.2274, -20.8565 ], [ -47.101, -20.682 ], [ -47.1442, -20.5408 ], [ -47.2935, -20.4187 ], [ -47.2311, -20.2192 ], [ -47.4896, -19.9693 ], [ -47.6397, -20.0472 ], [ -47.8509, -19.9898 ], [ -47.8994, -20.1257 ], [ -47.9812, -20.0364 ], [ -48.0768, -20.1484 ], [ -48.2034, -20.0455 ], [ -48.2186, -20.1279 ], [ -48.8221, -20.1615 ], [ -48.8865, -20.4369 ], [ -48.963, -20.4031 ], [ -48.986, -20.1708 ], [ -49.0659, -20.1535 ], [ -49.1836, -20.3147 ], [ -49.2597, -20.2588 ], [ -49.3059, -20.1169 ], [ -49.2501, -19.9693 ], [ -50.0441, -19.9164 ], [ -50.4541, -19.7862 ], [ -50.886, -19.9904 ], [ -51.1094, -20.2801 ], [ -51.3435, -20.3556 ], [ -51.5752, -20.6234 ], [ -51.6236, -20.9444 ], [ -51.8797, -21.1979 ], [ -51.8611, -21.3367 ], [ -52.1022, -21.5698 ], [ -52.0558, -21.6772 ], [ -52.3919, -22.1147 ], [ -53.1052, -22.6219 ], [ -52.5893, -22.5661 ], [ -52.1828, -22.6554 ], [ -52.1356, -22.5269 ], [ -51.7182, -22.669 ], [ -51.2982, -22.6735 ], [ -50.9277, -22.7977 ], [ -50.7959, -22.9512 ], [ -50.0528, -22.9055 ], [ -49.6271, -23.2818 ], [ -49.5597, -23.7936 ], [ -49.608, -23.8394 ], [ -49.2542, -24.3179 ], [ -49.312, -24.6635 ], [ -48.6012, -24.6691 ], [ -48.5381, -24.7262 ], [ -48.5563, -25.0843 ], [ -48.4119, -24.9804 ], [ -48.3241, -25.0367 ], [ -48.2397, -24.9914 ], [ -48.0961, -25.3089 ], [ -47.7315, -24.8806 ], [ -46.7094, -24.1441 ], [ -46.3551, -23.9711 ], [ -46.1848, -23.9922 ], [ -46.1332, -23.8565 ], [ -45.8424, -23.7582 ], [ -45.5146, -23.8421 ], [ -45.3963, -23.8081 ], [ -45.4066, -23.6239 ], [ -45.0669, -23.4926 ], [ -44.9082, -23.3342 ], [ -44.7242, -23.3676 ], [ -44.8826, -23.2027 ], [ -44.7919, -22.9819 ], [ -44.4946, -22.8468 ], [ -44.3181, -22.8451 ], [ -44.1656, -22.6734 ], [ -44.2264, -22.6046 ], [ -44.6459, -22.6039 ], [ -44.8094, -22.4056 ], [ -45.4, -22.6537 ], [ -45.4804, -22.5905 ], [ -45.6662, -22.6512 ], [ -45.6787, -22.5733 ], [ -45.8051, -22.7373 ], [ -45.7122, -22.7698 ], [ -45.871, -22.8715 ], [ -46.3449, -22.9052 ], [ -46.3326, -22.7661 ], [ -46.4731, -22.705 ], [ -46.3931, -22.663 ], [ -46.4565, -22.5217 ], [ -46.7233, -22.3066 ], [ -46.5985, -22.1364 ], [ -46.7195, -22.0833 ], [ -46.6179, -21.995 ], [ -46.6907, -21.8376 ] ] ], [ [ [ -45.2485, -23.9032 ], [ -45.2303, -23.778 ], [ -45.3415, -23.7278 ], [ -45.4443, -23.9341 ], [ -45.2485, -23.9032 ] ] ] ] } },
{ "type": "Feature", "properties": { "area_code": "41", "area_name": "Paraná - PR" }, "geometry": { "type": "MultiPolygon", "coordinates": [ [ [ [ -48.6012, -24.6691 ], [ -49.312, -24.6635 ], [ -49.2542, -24.3179 ], [ -49.608, -23.8394 ], [ -49.5597, -23.7936 ], [ -49.6271, -23.2818 ], [ -50.0528, -22.9055 ], [ -50.7959, -22.9512 ], [ -50.9277, -22.7977 ], [ -51.2982, -22.6735 ], [ -51.7182, -22.669 ], [ -52.0284, -22.5395 ], [ -52.1356, -22.5269 ], [ -52.1828, -22.6554 ], [ -52.9247, -22.5656 ], [ -53.5468, -22.8901 ], [ -53.7622, -23.3593 ], [ -53.9602, -23.4434 ], [ -54.084, -23.865 ], [ -54.3456, -24.157 ], [ -54.2616, -24.375 ], [ -54.4572, -25.0393 ], [ -54.4249, -25.1533 ], [ -54.6191, -25.4507 ], [ -54.5935, -25.5922 ], [ -54.4453, -25.6657 ], [ -54.144, -25.521 ], [ -53.8498, -25.6908 ], [ -53.8368, -25.9699 ], [ -53.639, -26.2508 ], [ -53.3423, -26.2491 ], [ -53.1602, -26.3506 ], [ -52.7006, -26.358 ], [ -52.0291, -26.5469 ], [ -51.5121, -26.5817 ], [ -51.4115, -26.7171 ], [ -51.2389, -26.6279 ], [ -51.3004, -26.4177 ], [ -51.2029, -26.2982 ], [ -51.0789, -26.2274 ], [ -50.8997, -26.2893 ], [ -50.7033, -26.188 ], [ -50.5702, -26.002 ], [ -50.3657, -26.1121 ], [ -50.2685, -26.0428 ], [ -49.9341, -26.0189 ], [ -49.6031, -26.2267 ], [ -49.2345, -26.0307 ], [ -48.5953, -25.9768 ], [ -48.4771, -25.7137 ], [ -48.0961, -25.3089 ], [ -48.2397, -24.9914 ], [ -48.3241, -25.0367 ], [ -48.4119, -24.9804 ], [ -48.5563, -25.0843 ], [ -48.5381, -24.7262 ], [ -48.6012, -24.6691 ] ] ], [ [ [ -53.6542, -25.3509 ], [ -53.6251, -25.3464 ], [ -53.6265, -25.3466 ], [ -53.6542, -25.3509 ] ] ], [ [ [ -53.3778, -23.2407 ], [ -53.3781, -23.2409 ], [ -53.3763, -23.2398 ], [ -53.3778, -23.2407 ] ] ] ] } },
{ "type": "Feature", "properties": { "area_code": "42", "area_name": "Santa Catarina - SC" }, "geometry": { "type": "Polygon", "coordinates": [ [ [ -51.824, -26.5819 ], [ -52.7006, -26.358 ], [ -53.1602, -26.3506 ], [ -53.3423, -26.2491 ], [ -53.639, -26.2508 ], [ -53.7307, -26.6007 ], [ -53.6717, -26.9428 ], [ -53.8371, -27.1684 ], [ -53.4882, -27.1938 ], [ -53.3554, -27.1113 ], [ -53.3225, -27.2099 ], [ -53.0178, -27.0931 ], [ -52.9712, -27.2178 ], [ -52.8513, -27.1703 ], [ -52.6915, -27.2844 ], [ -52.4325, -27.2178 ], [ -52.2998, -27.3191 ], [ -52.2613, -27.2569 ], [ -52.2248, -27.3306 ], [ -51.9834, -27.3751 ], [ -51.8371, -27.5222 ], [ -51.6326, -27.4886 ], [ -51.0534, -27.8689 ], [ -50.6139, -28.3936 ], [ -49.8163, -28.469 ], [ -49.7031, -28.6289 ], [ -49.7826, -28.6098 ], [ -49.9347, -28.7257 ], [ -49.9576, -29.0682 ], [ -50.0163, -29.1828 ], [ -50.1378, -29.1937 ], [ -50.1446, -29.2702 ], [ -50.041, -29.3551 ], [ -50.1143, -29.2576 ], [ -49.9576, -29.1995 ], [ -49.7129, -29.3256 ], [ -49.3764, -28.9561 ], [ -48.7465, -28.5051 ], [ -48.6209, -27.9449 ], [ -48.3706, -27.4498 ], [ -48.5948, -27.3161 ], [ -48.508, -27.1105 ], [ -48.5856, -27.1449 ], [ -48.6819, -26.7184 ], [ -48.4931, -26.2186 ], [ -48.5694, -26.1677 ], [ -48.5953, -25.9768 ], [ -49.2345, -26.0307 ], [ -49.6031, -26.2267 ], [ -49.9341, -26.0189 ], [ -50.2685, -26.0428 ], [ -50.3657, -26.1121 ], [ -50.5702, -26.002 ], [ -50.7033, -26.188 ], [ -50.8997, -26.2893 ], [ -51.0789, -26.2274 ], [ -51.2029, -26.2982 ], [ -51.3004, -26.4177 ], [ -51.2389, -26.6279 ], [ -51.4115, -26.7171 ], [ -51.5121, -26.5817 ], [ -51.824, -26.5819 ] ] ] } },
{ "type": "Feature", "properties": { "area_code": "43", "area_name": "Rio Grande do Sul - RS" }, "geometry": { "type": "Polygon", "coordinates": [ [ [ -54.088, -31.9312 ], [ -53.7256, -32.0984 ], [ -53.644, -32.3849 ], [ -53.1764, -32.6585 ], [ -52.8024, -32.447 ], [ -52.7242, -32.37 ], [ -52.8211, -32.3341 ], [ -52.7189, -32.1542 ], [ -52.6229, -32.1456 ], [ -52.6884, -32.3195 ], [ -52.6023, -32.4606 ], [ -52.6209, -32.6379 ], [ -52.7234, -32.8339 ], [ -52.8322, -32.915 ], [ -53.1239, -32.7938 ], [ -53.1744, -33.0035 ], [ -53.2602, -33.1074 ], [ -53.3253, -33.0652 ], [ -53.4692, -33.2554 ], [ -53.4248, -33.4376 ], [ -53.5228, -33.6893 ], [ -53.37, -33.7439 ], [ -52.6239, -33.1042 ], [ -52.293, -32.3383 ], [ -52.0972, -32.1617 ], [ -52.1148, -31.942 ], [ -52.2566, -31.8498 ], [ -52.1524, -31.6993 ], [ -52.036, -31.6958 ], [ -51.9195, -31.3108 ], [ -51.6191, -31.269 ], [ -51.6287, -31.153 ], [ -51.442, -31.0874 ], [ -51.4993, -30.9758 ], [ -51.4488, -30.8722 ], [ -51.3727, -30.8725 ], [ -51.3809, -30.6435 ], [ -51.3188, -30.6461 ], [ -51.2654, -30.4798 ], [ -51.1358, -30.4368 ], [ -51.3283, -30.2265 ], [ -51.3012, -30.0542 ], [ -51.2327, -30.1827 ], [ -51.0629, -30.2596 ], [ -51.0556, -30.392 ], [ -50.93, -30.4358 ], [ -50.9148, -30.3264 ], [ -50.6561, -30.286 ], [ -50.6208, -30.1984 ], [ -50.5426, -30.2523 ], [ -50.5827, -30.4901 ], [ -50.7295, -30.3681 ], [ -50.6901, -30.7069 ], [ -50.7538, -30.8189 ], [ -50.9668, -30.8961 ], [ -50.9546, -31.0032 ], [ -51.179, -31.1342 ], [ -51.2375, -31.4574 ], [ -51.3611, -31.532 ], [ -51.4282, -31.492 ], [ -51.6587, -31.7669 ], [ -51.9028, -31.8705 ], [ -52.0981, -31.8359 ], [ -52.0152, -31.9224 ], [ -52.0772, -32.1432 ], [ -50.8421, -31.19 ], [ -50.3343, -30.5008 ], [ -50.0176, -29.7725 ], [ -49.7129, -29.3256 ], [ -49.9576, -29.1995 ], [ -50.1143, -29.2576 ], [ -50.041, -29.3551 ], [ -50.1446, -29.2702 ], [ -49.9576, -29.0682 ], [ -49.9347, -28.7257 ], [ -49.7826, -28.6098 ], [ -49.7041, -28.63 ], [ -49.7269, -28.5189 ], [ -50.6139, -28.3936 ], [ -51.0534, -27.8689 ], [ -51.6326, -27.4886 ], [ -51.8371, -27.5222 ], [ -51.9834, -27.3751 ], [ -52.2248, -27.3306 ], [ -52.2613, -27.2569 ], [ -52.2998, -27.3191 ], [ -52.3978, -27.2925 ], [ -52.4325, -27.2178 ], [ -52.6915, -27.2844 ], [ -52.8513, -27.1703 ], [ -52.9712, -27.2178 ], [ -53.0178, -27.0931 ], [ -53.3225, -27.2099 ], [ -53.3554, -27.1113 ], [ -53.4882, -27.1938 ], [ -53.9466, -27.1513 ], [ -54.1115, -27.3025 ], [ -54.1866, -27.2649 ], [ -54.2839, -27.4478 ], [ -54.4114, -27.4053 ], [ -54.4746, -27.4812 ], [ -54.5894, -27.4582 ], [ -54.632, -27.5457 ], [ -54.8171, -27.5356 ], [ -55.0517, -27.8524 ], [ -55.2027, -27.8579 ], [ -55.4384, -28.0863 ], [ -55.7712, -28.2415 ], [ -55.6692, -28.3408 ], [ -55.6922, -28.4164 ], [ -55.8506, -28.3554 ], [ -55.884, -28.4792 ], [ -56.0232, -28.5228 ], [ -56.0024, -28.5783 ], [ -56.2997, -28.8081 ], [ -56.4304, -29.0795 ], [ -56.5888, -29.1198 ], [ -56.9711, -29.6434 ], [ -57.2354, -29.7808 ], [ -57.3281, -29.9719 ], [ -57.5941, -30.179 ], [ -57.568, -30.2522 ], [ -57.2042, -30.2851 ], [ -57.1152, -30.1137 ], [ -56.8504, -30.0889 ], [ -56.0236, -30.7857 ], [ -56.0111, -31.0816 ], [ -55.6662, -30.954 ], [ -55.5786, -30.8329 ], [ -55.3514, -31.0376 ], [ -55.2468, -31.2522 ], [ -55.0745, -31.3321 ], [ -55.0358, -31.2839 ], [ -54.8365, -31.4419 ], [ -54.5869, -31.4565 ], [ -54.4546, -31.6528 ], [ -54.088, -31.9312 ] ] ] } },
{ "type": "Feature", "properties": { "area_code": "50", "area_name": "Mato Grosso do Sul - MS" }, "geometry": { "type": "Polygon", "coordinates": [ [ [ -53.4039, -17.9926 ], [ -53.4861, -18.0404 ], [ -53.7742, -18.0008 ], [ -53.9517, -17.9158 ], [ -53.8559, -17.7027 ], [ -53.7039, -17.6613 ], [ -53.6801, -17.2541 ], [ -54.0233, -17.4771 ], [ -54.0764, -17.6157 ], [ -54.3024, -17.6617 ], [ -54.5023, -17.4807 ], [ -54.7469, -17.5199 ], [ -54.8609, -17.6239 ], [ -55.1371, -17.6502 ], [ -55.5057, -17.486 ], [ -55.6039, -17.3667 ], [ -55.9857, -17.2584 ], [ -56.0441, -17.1714 ], [ -56.4406, -17.3304 ], [ -56.7233, -17.3085 ], [ -57.119, -17.781 ], [ -57.4473, -17.8757 ], [ -57.6024, -17.8049 ], [ -57.7523, -17.5645 ], [ -57.783, -17.6368 ], [ -57.5741, -18.1316 ], [ -57.4548, -18.2334 ], [ -57.5583, -18.2407 ], [ -57.7667, -18.8995 ], [ -57.7104, -19.0347 ], [ -57.7833, -19.0351 ], [ -58.1314, -19.7594 ], [ -57.8591, -19.9717 ], [ -58.1686, -20.1658 ], [ -57.9965, -20.4434 ], [ -58.0131, -20.6083 ], [ -57.8647, -20.7464 ], [ -57.9595, -20.7979 ], [ -57.8594, -20.8249 ], [ -57.9289, -20.8952 ], [ -57.8337, -20.9363 ], [ -57.8547, -21.3169 ], [ -57.9616, -21.5624 ], [ -57.8852, -21.6836 ], [ -57.9951, -22.0887 ], [ -57.7477, -22.139 ], [ -57.6101, -22.0954 ], [ -57.3202, -22.2456 ], [ -56.844, -22.3011 ], [ -56.3929, -22.075 ], [ -56.2091, -22.2782 ], [ -55.8431, -22.2871 ], [ -55.6136, -22.6928 ], [ -55.6659, -22.8525 ], [ -55.4029, -23.9742 ], [ -55.0623, -23.9933 ], [ -54.6838, -23.8305 ], [ -54.2862, -24.0682 ], [ -54.169, -23.999 ], [ -53.9602, -23.4434 ], [ -53.7622, -23.3593 ], [ -53.5468, -22.8901 ], [ -52.4562, -22.1853 ], [ -52.0558, -21.6772 ], [ -52.1022, -21.5698 ], [ -51.8611, -21.3367 ], [ -51.8797, -21.1979 ], [ -51.6236, -20.9444 ], [ -51.5752, -20.6234 ], [ -51.3435, -20.3556 ], [ -51.1094, -20.2801 ], [ -51.0012, -20.0963 ], [ -51.0382, -19.6918 ], [ -50.9306, -19.5903 ], [ -50.935, -19.4675 ], [ -51.092, -19.3076 ], [ -52.0794, -18.9511 ], [ -52.5019, -18.6759 ], [ -52.8734, -18.6459 ], [ -52.9649, -18.55 ], [ -52.7589, -18.3631 ], [ -53.0997, -18.3136 ], [ -53.1432, -18.0841 ], [ -53.0723, -18.034 ], [ -53.4039, -17.9926 ] ] ] } },
{ "type": "Feature", "properties": { "area_code": "51", "area_name": "Mato Grosso - MT" }, "geometry": { "type": "Polygon", "coordinates": [ [ [ -50.2248, -9.8412 ], [ -56.7543, -9.4064 ], [ -56.8201, -9.2463 ], [ -57.0598, -9.1824 ], [ -57.0392, -9.0983 ], [ -57.2038, -8.9208 ], [ -57.5929, -8.7565 ], [ -57.6866, -8.407 ], [ -57.6417, -8.2199 ], [ -57.8319, -7.9615 ], [ -57.8967, -7.6779 ], [ -58.1371, -7.3561 ], [ -58.2131, -7.4585 ], [ -58.2022, -7.6209 ], [ -58.3782, -7.8274 ], [ -58.2864, -8.0885 ], [ -58.4373, -8.7034 ], [ -58.3284, -8.7122 ], [ -58.4419, -8.7987 ], [ -61.5831, -8.7987 ], [ -61.4692, -8.9201 ], [ -61.5558, -9.0924 ], [ -61.5293, -9.2487 ], [ -61.6283, -9.2571 ], [ -61.477, -9.6299 ], [ -61.5746, -9.7178 ], [ -61.5079, -9.8611 ], [ -61.5849, -10.0616 ], [ -61.5533, -10.307 ], [ -61.4618, -10.4199 ], [ -61.5503, -10.9861 ], [ -60.4601, -10.9899 ], [ -60.3916, -11.0938 ], [ -59.9768, -11.1224 ], [ -59.9172, -11.3384 ], [ -60.1109, -11.5825 ], [ -60.0989, -11.8456 ], [ -59.9842, -11.9148 ], [ -59.8868, -12.2451 ], [ -59.7794, -12.3415 ], [ -59.9477, -12.5993 ], [ -60.0289, -12.6186 ], [ -60.1172, -12.9596 ], [ -60.2676, -13.0773 ], [ -60.3879, -13.4547 ], [ -60.6322, -13.5717 ], [ -60.7093, -13.693 ], [ -60.4727, -13.7937 ], [ -60.3831, -13.9929 ], [ -60.4806, -14.0958 ], [ -60.4536, -14.3141 ], [ -60.2736, -14.621 ], [ -60.245, -15.0975 ], [ -60.5757, -15.0975 ], [ -60.2395, -15.4746 ], [ -60.1741, -16.2669 ], [ -58.4306, -16.3227 ], [ -58.3222, -16.2664 ], [ -58.4768, -16.9367 ], [ -58.392, -17.0401 ], [ -58.3989, -17.184 ], [ -57.9964, -17.5156 ], [ -57.8834, -17.4495 ], [ -57.6024, -17.8049 ], [ -57.4473, -17.8757 ], [ -57.119, -17.781 ], [ -56.7233, -17.3085 ], [ -56.4406, -17.3304 ], [ -56.0441, -17.1714 ], [ -55.9857, -17.2584 ], [ -55.6039, -17.3667 ], [ -55.5057, -17.486 ], [ -55.1371, -17.6502 ], [ -54.8609, -17.6239 ], [ -54.7469, -17.5199 ], [ -54.5023, -17.4807 ], [ -54.3024, -17.6617 ], [ -54.0764, -17.6157 ], [ -54.0233, -17.4771 ], [ -53.6801, -17.2541 ], [ -53.7039, -17.6613 ], [ -53.8559, -17.7027 ], [ -53.9517, -17.9158 ], [ -53.4861, -18.0404 ], [ -53.4039, -17.9926 ], [ -53.0723, -18.034 ], [ -53.2352, -17.7128 ], [ -53.2173, -17.2968 ], [ -53.0592, -17.0768 ], [ -53.0141, -16.8643 ], [ -52.8324, -16.7722 ], [ -52.6294, -16.5178 ], [ -52.6812, -16.3017 ], [ -52.361, -16.0816 ], [ -52.2543, -15.8937 ], [ -51.8803, -15.8243 ], [ -51.699, -15.4849 ], [ -51.6474, -15.1735 ], [ -51.5341, -15.0652 ], [ -51.3331, -14.9701 ], [ -51.2759, -15.0438 ], [ -51.0871, -14.9213 ], [ -50.9642, -14.5283 ], [ -50.9979, -14.4138 ], [ -50.8415, -14.1043 ], [ -50.8739, -13.7345 ], [ -50.6111, -13.3202 ], [ -50.511, -12.8609 ], [ -50.6227, -12.8197 ], [ -50.6839, -12.6481 ], [ -50.6236, -12.4553 ], [ -50.6814, -12.2169 ], [ -50.6393, -11.8846 ], [ -50.7173, -11.7274 ], [ -50.6701, -11.5816 ], [ -50.7389, -11.5445 ], [ -50.6095, -11.0674 ], [ -50.6035, -10.6609 ], [ -50.2248, -9.8412 ] ] ] } },
{ "type": "Feature", "properties": { "area_code": "52", "area_name": "Goiás - GO" }, "geometry": { "type": "Polygon", "coordinates": [ [ [ -48.2778, -16.0496 ], [ -48.2, -15.5023 ], [ -47.4927, -15.5019 ], [ -47.3209, -15.5866 ], [ -47.3787, -15.8842 ], [ -47.31, -16.0363 ], [ -47.1366, -15.9274 ], [ -46.8062, -15.8706 ], [ -46.9461, -15.5633 ], [ -46.8495, -15.3732 ], [ -46.9251, -15.0575 ], [ -46.8569, -15.0103 ], [ -46.6254, -15.0895 ], [ -46.5027, -15.0509 ], [ -46.5605, -14.815 ], [ -46.5034, -14.7041 ], [ -46.3222, -14.8146 ], [ -46.3193, -14.9004 ], [ -46.1768, -14.9494 ], [ -46.0394, -14.8753 ], [ -46.0001, -14.4466 ], [ -45.9072, -14.3552 ], [ -46.1841, -14.1569 ], [ -46.2642, -13.9474 ], [ -46.1627, -13.6036 ], [ -46.2475, -13.5787 ], [ -46.2485, -13.436 ], [ -46.0683, -13.2954 ], [ -46.2925, -13.3169 ], [ -46.3277, -13.2529 ], [ -46.2987, -13.0638 ], [ -46.113, -12.918 ], [ -46.3644, -12.9907 ], [ -46.418, -12.8224 ], [ -46.4546, -12.9712 ], [ -46.7506, -12.9692 ], [ -46.8548, -13.0676 ], [ -47.3929, -13.2624 ], [ -47.5687, -13.1169 ], [ -47.6651, -13.2184 ], [ -47.6223, -13.3687 ], [ -47.6797, -13.4682 ], [ -47.7982, -13.329 ], [ -48.0745, -13.239 ], [ -48.1699, -13.3003 ], [ -48.1437, -13.1525 ], [ -48.4589, -13.2804 ], [ -48.5161, -13.1391 ], [ -48.5801, -13.3133 ], [ -48.6447, -13.011 ], [ -48.8703, -12.8033 ], [ -48.9762, -12.9579 ], [ -49.1177, -12.7901 ], [ -49.2377, -12.8838 ], [ -49.3683, -13.2723 ], [ -50.3108, -12.7916 ], [ -50.1418, -12.3954 ], [ -50.4342, -12.6494 ], [ -50.6111, -13.3202 ], [ -50.8739, -13.7345 ], [ -50.8415, -14.1043 ], [ -50.9979, -14.4138 ], [ -50.9642, -14.5283 ], [ -51.0871, -14.9213 ], [ -51.2759, -15.0438 ], [ -51.3387, -14.9751 ], [ -51.6474, -15.1735 ], [ -51.699, -15.4849 ], [ -51.8803, -15.8243 ], [ -52.2543, -15.8937 ], [ -52.361, -16.0816 ], [ -52.6812, -16.3017 ], [ -52.6294, -16.5178 ], [ -52.7153, -16.637 ], [ -53.0141, -16.8643 ], [ -53.0592, -17.0768 ], [ -53.2173, -17.2968 ], [ -53.2404, -17.6 ], [ -53.0723, -18.034 ], [ -53.1432, -18.0841 ], [ -53.0997, -18.3136 ], [ -52.7589, -18.3631 ], [ -52.9649, -18.55 ], [ -52.7481, -18.6921 ], [ -52.5019, -18.6759 ], [ -52.3338, -18.8291 ], [ -51.092, -19.3076 ], [ -50.935, -19.4675 ], [ -50.8256, -19.4733 ], [ -50.8754, -19.4228 ], [ -50.828, -19.3108 ], [ -50.5352, -19.0989 ], [ -50.3523, -18.7603 ], [ -50.0288, -18.6015 ], [ -49.7946, -18.6438 ], [ -49.4862, -18.5323 ], [ -49.3734, -18.6348 ], [ -49.2058, -18.4141 ], [ -48.9177, -18.3059 ], [ -48.2718, -18.3294 ], [ -47.9546, -18.5 ], [ -47.7695, -18.4183 ], [ -47.2834, -18.0408 ], [ -47.3712, -17.8313 ], [ -47.2648, -17.6114 ], [ -47.5366, -17.4571 ], [ -47.5108, -17.3261 ], [ -47.1274, -16.9787 ], [ -47.2257, -16.7205 ], [ -47.4544, -16.4646 ], [ -47.3085, -16.05 ], [ -48.2778, -16.0496 ] ] ] } },
{ "type": "Feature", "properties": { "area_code": "53", "area_name": "Distrito Federal - DF" }, "geometry": { "type": "Polygon", "coordinates": [ [ [ -48.2778, -16.0496 ], [ -47.3085, -16.05 ], [ -47.3787, -15.8842 ], [ -47.3209, -15.5866 ], [ -47.4927, -15.5019 ], [ -48.2, -15.5023 ], [ -48.2778, -16.0496 ] ] ] } }
]
}
