{"type":"FeatureCollection","attribution":"© OpenStreetMap contributors, ODbL 1.0","features":[{"type":"Feature","geometry":{"type":"Point","coordinates":[-65.49307,48.04545]},"properties":{"osm_type":"way","osm_id":142959538,"name":"Église de Saint-Bonaventure","religion":"christian","denomination":"roman_catholic","start_date":"1760","end_date":null,"start_year":1760,"end_year":null}},{"type":"Feature","geometry":{"type":"Point","coordinates":[-74.64264,45.00275]},"properties":{"osm_type":"way","osm_id":1264645745,"name":"St. Regis Mission Catholic Church","religion":"christian","denomination":"catholic","start_date":"1795","end_date":null,"start_year":1795,"end_year":null}},{"type":"Feature","geometry":{"type":"Point","coordinates":[-79.50527,43.82566]},"properties":{"osm_type":"way","osm_id":238469053,"name":"Zion Lutheran Church","religion":"christian","denomination":"lutheran","start_date":"1806","end_date":null,"start_year":1806,"end_year":null}},{"type":"Feature","geometry":{"type":"Point","coordinates":[-80.69651,43.40017]},"properties":{"osm_type":"way","osm_id":492129699,"name":"Steinmann Mennonite Church","religion":"christian","denomination":"mennonite","start_date":"1824","end_date":null,"start_year":1824,"end_year":null}},{"type":"Feature","geometry":{"type":"Point","coordinates":[-81.44041,42.60707]},"properties":{"osm_type":"way","osm_id":851926625,"name":"Saint Peter's Tyrconnell Church","religion":"christian","denomination":"anglican","start_date":"1827","end_date":null,"start_year":1827,"end_year":null}},{"type":"Feature","geometry":{"type":"Point","coordinates":[-79.26399,44.00373]},"properties":{"osm_type":"way","osm_id":1001916465,"name":"Bloomington Gospel Church","religion":"christian","denomination":null,"start_date":"1833","end_date":null,"start_year":1833,"end_year":null}},{"type":"Feature","geometry":{"type":"Point","coordinates":[-71.92761,46.64796]},"properties":{"osm_type":"way","osm_id":231768870,"name":"Église Saint-Joseph","religion":"christian","denomination":"roman_catholic","start_date":"1838","end_date":null,"start_year":1838,"end_year":null}},{"type":"Feature","geometry":{"type":"Point","coordinates":[-80.00875,43.50597]},"properties":{"osm_type":"way","osm_id":1200687027,"name":"Saint John's Nassagaweya","religion":"christian","denomination":"anglican","start_date":"1844","end_date":null,"start_year":1844,"end_year":null}},{"type":"Feature","geometry":{"type":"Point","coordinates":[-75.69637,45.4298]},"properties":{"osm_type":"way","osm_id":68588635,"name":"Notre-Dame Cathedral Basilica","religion":"christian","denomination":"catholic","start_date":"1846","end_date":null,"start_year":1846,"end_year":null}},{"type":"Feature","geometry":{"type":"Point","coordinates":[-80.20413,42.7858]},"properties":{"osm_type":"way","osm_id":662202131,"name":"Saint Paul's Anglican Church","religion":"christian","denomination":"anglican","start_date":"1852","end_date":null,"start_year":1852,"end_year":null}},{"type":"Feature","geometry":{"type":"Point","coordinates":[-79.31029,43.99009]},"properties":{"osm_type":"way","osm_id":1101514395,"name":"Lemonville United Church","religion":"christian","denomination":null,"start_date":"1854","end_date":null,"start_year":1854,"end_year":null}},{"type":"Feature","geometry":{"type":"Point","coordinates":[-80.66963,43.40184]},"properties":{"osm_type":"way","osm_id":891395104,"name":"Saint James Lutheran Church","religion":"christian","denomination":"lutheran","start_date":"1856","end_date":null,"start_year":1856,"end_year":null}},{"type":"Feature","geometry":{"type":"Point","coordinates":[-66.66145,45.98153]},"properties":{"osm_type":"way","osm_id":197976897,"name":"St. John The Evangalist Church","religion":"christian","denomination":null,"start_date":"1856","end_date":null,"start_year":1856,"end_year":null}},{"type":"Feature","geometry":{"type":"Point","coordinates":[-78.02035,44.05684]},"properties":{"osm_type":"way","osm_id":291654724,"name":"Eddystone Baptist Church","religion":"christian","denomination":"baptist","start_date":"1857","end_date":null,"start_year":1857,"end_year":null}},{"type":"Feature","geometry":{"type":"Point","coordinates":[-80.46948,42.65519]},"properties":{"osm_type":"way","osm_id":662340328,"name":"Teeterville Baptist Church","religion":"christian","denomination":"baptist","start_date":"1859","end_date":null,"start_year":1859,"end_year":null}},{"type":"Feature","geometry":{"type":"Point","coordinates":[-121.44428,49.3811]},"properties":{"osm_type":"way","osm_id":493941813,"name":"Christ Church (Hope)","religion":"christian","denomination":"anglican","start_date":"1861","end_date":null,"start_year":1861,"end_year":null}},{"type":"Feature","geometry":{"type":"Point","coordinates":[-121.44569,49.3808]},"properties":{"osm_type":"way","osm_id":1108988156,"name":"Christ Church (Hope)","religion":"christian","denomination":"anglican","start_date":"1861","end_date":null,"start_year":1861,"end_year":null}},{"type":"Feature","geometry":{"type":"Point","coordinates":[-64.31894,45.13208]},"properties":{"osm_type":"way","osm_id":860800363,"name":"North Grand Pré Community Church","religion":"christian","denomination":null,"start_date":"1861","end_date":null,"start_year":1861,"end_year":null}},{"type":"Feature","geometry":{"type":"Point","coordinates":[-96.89505,50.12518]},"properties":{"osm_type":"way","osm_id":639820339,"name":"St Clements Anglican Church","religion":"christian","denomination":"anglican","start_date":"1861-12-01","end_date":null,"start_year":1861,"end_year":null}},{"type":"Feature","geometry":{"type":"Point","coordinates":[-79.512,43.85075]},"properties":{"osm_type":"way","osm_id":662782961,"name":"St. Andrew's Presbyterian Church","religion":"christian","denomination":"presbyterian","start_date":"1862","end_date":null,"start_year":1862,"end_year":null}},{"type":"Feature","geometry":{"type":"Point","coordinates":[-123.36136,48.42741]},"properties":{"osm_type":"way","osm_id":128036654,"name":"Congregation Emanu-El","religion":"jewish","denomination":"conservative","start_date":"1863","end_date":null,"start_year":1863,"end_year":null}},{"type":"Feature","geometry":{"type":"Point","coordinates":[-81.14085,43.25867]},"properties":{"osm_type":"way","osm_id":1204909730,"name":"First Baptist Church","religion":"christian","denomination":"baptist","start_date":"1863","end_date":null,"start_year":1863,"end_year":null}},{"type":"Feature","geometry":{"type":"Point","coordinates":[-76.1922,45.22763]},"properties":{"osm_type":"way","osm_id":654605361,"name":"St Paul's Anglican Church","religion":"christian","denomination":"anglican","start_date":"1865","end_date":null,"start_year":1865,"end_year":null}},{"type":"Feature","geometry":{"type":"Point","coordinates":[-72.14335,45.00735]},"properties":{"osm_type":"way","osm_id":156339777,"name":null,"religion":"christian","denomination":null,"start_date":"1866","end_date":null,"start_year":1866,"end_year":null}},{"type":"Feature","geometry":{"type":"Point","coordinates":[-82.0874,42.48826]},"properties":{"osm_type":"way","osm_id":1209489739,"name":"Bethel Church","religion":"christian","denomination":null,"start_date":"1867","end_date":null,"start_year":1867,"end_year":null}},{"type":"Feature","geometry":{"type":"Point","coordinates":[-81.75321,42.49963]},"properties":{"osm_type":"node","osm_id":1866656424,"name":"Duart Presbyterian Church","religion":null,"denomination":"presbyterian","start_date":"1870","end_date":null,"start_year":1870,"end_year":null}},{"type":"Feature","geometry":{"type":"Point","coordinates":[-80.25041,43.54594]},"properties":{"osm_type":"way","osm_id":123871688,"name":"Royal City Mission (RCM)","religion":"christian","denomination":"evangelical","start_date":"1873","end_date":null,"start_year":1873,"end_year":null}},{"type":"Feature","geometry":{"type":"Point","coordinates":[-96.93984,50.10275]},"properties":{"osm_type":"way","osm_id":639809075,"name":"Little Britain United Church","religion":"christian","denomination":"united","start_date":"1874","end_date":null,"start_year":1874,"end_year":null}},{"type":"Feature","geometry":{"type":"Point","coordinates":[-65.20279,44.45014]},"properties":{"osm_type":"way","osm_id":1175033394,"name":"Saint Paul‘s","religion":"christian","denomination":"united","start_date":"1874","end_date":null,"start_year":1874,"end_year":null}},{"type":"Feature","geometry":{"type":"Point","coordinates":[-80.52551,43.17044]},"properties":{"osm_type":"way","osm_id":827876520,"name":"Princeton United Church","religion":"christian","denomination":"united","start_date":"1880","end_date":null,"start_year":1880,"end_year":null}},{"type":"Feature","geometry":{"type":"Point","coordinates":[-79.37159,43.90198]},"properties":{"osm_type":"way","osm_id":162608838,"name":"Victoria Square United Church","religion":"christian","denomination":null,"start_date":"1880","end_date":null,"start_year":1880,"end_year":null}},{"type":"Feature","geometry":{"type":"Point","coordinates":[-76.40212,44.67877]},"properties":{"osm_type":"way","osm_id":288976721,"name":"St. Edward Catholic Church","religion":"christian","denomination":"catholic","start_date":"1882","end_date":null,"start_year":1882,"end_year":null}},{"type":"Feature","geometry":{"type":"Point","coordinates":[-106.11805,52.75228]},"properties":{"osm_type":"way","osm_id":493471372,"name":"Presbytère","religion":null,"denomination":null,"start_date":"1883","end_date":null,"start_year":1883,"end_year":null}},{"type":"Feature","geometry":{"type":"Point","coordinates":[-81.20346,43.00386]},"properties":{"osm_type":"way","osm_id":142739355,"name":"Chapel of Hope","religion":"christian","denomination":null,"start_date":"1884","end_date":null,"start_year":1884,"end_year":null}},{"type":"Feature","geometry":{"type":"Point","coordinates":[-106.11754,52.75237]},"properties":{"osm_type":"way","osm_id":493471371,"name":"Église Saint-Antoine-de-Padoue","religion":"christian","denomination":"roman_catholic","start_date":"1884","end_date":null,"start_year":1884,"end_year":null}},{"type":"Feature","geometry":{"type":"Point","coordinates":[-76.39689,44.67729]},"properties":{"osm_type":"way","osm_id":570788777,"name":"Olivet Baptist Church","religion":"christian","denomination":"baptist","start_date":"1885","end_date":null,"start_year":1885,"end_year":null}},{"type":"Feature","geometry":{"type":"Point","coordinates":[-103.41939,50.74744]},"properties":{"osm_type":"way","osm_id":868148769,"name":"Christ Anglican Church","religion":"christian","denomination":"anglican","start_date":"1886","end_date":null,"start_year":1886,"end_year":null}},{"type":"Feature","geometry":{"type":"Point","coordinates":[-79.39347,43.65184]},"properties":{"osm_type":"way","osm_id":691478335,"name":"Toronto Chinese Baptist Church","religion":"christian","denomination":"baptist","start_date":"~1886","end_date":null,"start_year":1886,"end_year":null}},{"type":"Feature","geometry":{"type":"Point","coordinates":[-120.33729,50.67479]},"properties":{"osm_type":"way","osm_id":124947850,"name":"St Andrews On The Square","religion":"christian","denomination":null,"start_date":"1887","end_date":null,"start_year":1887,"end_year":null}},{"type":"Feature","geometry":{"type":"Point","coordinates":[-81.71505,43.87618]},"properties":{"osm_type":"way","osm_id":405845427,"name":"Christ Church","religion":"christian","denomination":"anglican","start_date":"1889","end_date":null,"start_year":1889,"end_year":null}},{"type":"Feature","geometry":{"type":"Point","coordinates":[-115.5691,51.17467]},"properties":{"osm_type":"way","osm_id":1125840731,"name":"Saint George in the Pines","religion":"christian","denomination":"anglican","start_date":"1889","end_date":null,"start_year":1889,"end_year":null}},{"type":"Feature","geometry":{"type":"Point","coordinates":[-76.39622,44.67794]},"properties":{"osm_type":"way","osm_id":570788787,"name":"Westport United Church","religion":"christian","denomination":"united","start_date":"1889","end_date":null,"start_year":1889,"end_year":null}},{"type":"Feature","geometry":{"type":"Point","coordinates":[-80.66993,43.40276]},"properties":{"osm_type":"way","osm_id":891395102,"name":"Livingston Presbyterian Church","religion":"christian","denomination":"presbyterian","start_date":"1890","end_date":null,"start_year":1890,"end_year":null}},{"type":"Feature","geometry":{"type":"Point","coordinates":[-94.17351,58.77234]},"properties":{"osm_type":"way","osm_id":167631944,"name":"Saint Paul's Anglican Church","religion":"christian","denomination":"anglican","start_date":"1890","end_date":null,"start_year":1890,"end_year":null}},{"type":"Feature","geometry":{"type":"Point","coordinates":[-76.39862,44.6782]},"properties":{"osm_type":"way","osm_id":570788755,"name":"St. Paul's Anglican Church","religion":"christian","denomination":"anglican","start_date":"1890","end_date":null,"start_year":1890,"end_year":null}},{"type":"Feature","geometry":{"type":"Point","coordinates":[-122.89332,49.22814]},"properties":{"osm_type":"way","osm_id":83228694,"name":"Coastal Church","religion":"christian","denomination":null,"start_date":"1891","end_date":null,"start_year":1891,"end_year":null}},{"type":"Feature","geometry":{"type":"Point","coordinates":[-122.9545,49.09174]},"properties":{"osm_type":"way","osm_id":663311212,"name":"St. Stephen's United Church","religion":"christian","denomination":"united","start_date":"1891","end_date":null,"start_year":1891,"end_year":null}},{"type":"Feature","geometry":{"type":"Point","coordinates":[-64.49938,48.39887]},"properties":{"osm_type":"way","osm_id":114911864,"name":"Église de l'Assomption-de-Notre-Dame de Grande-Rivière","religion":"christian","denomination":"roman_catholic","start_date":"1893","end_date":null,"start_year":1893,"end_year":null}},{"type":"Feature","geometry":{"type":"Point","coordinates":[-112.72879,53.86232]},"properties":{"osm_type":"way","osm_id":595667239,"name":"Holy Transfiguration Orthodox Church","religion":"christian","denomination":"orthodox","start_date":"1893","end_date":null,"start_year":1893,"end_year":null}},{"type":"Feature","geometry":{"type":"Point","coordinates":[-65.60638,44.71378]},"properties":{"osm_type":"way","osm_id":742177054,"name":"Port Royal Union Church","religion":"christian","denomination":null,"start_date":"1894","end_date":null,"start_year":1894,"end_year":null}},{"type":"Feature","geometry":{"type":"Point","coordinates":[-124.34454,49.32831]},"properties":{"osm_type":"way","osm_id":970531020,"name":"Saint Anne's Anglican Church","religion":"christian","denomination":null,"start_date":"1894","end_date":null,"start_year":1894,"end_year":null}},{"type":"Feature","geometry":{"type":"Point","coordinates":[-76.39892,44.67586]},"properties":{"osm_type":"way","osm_id":570788695,"name":"Knox Presbyterian Church","religion":"christian","denomination":"presbyterian","start_date":"1896","end_date":null,"start_year":1896,"end_year":null}},{"type":"Feature","geometry":{"type":"Point","coordinates":[-101.44889,49.17566]},"properties":{"osm_type":"way","osm_id":432763810,"name":"Anglican Christ Church","religion":"christian","denomination":"anglican","start_date":"1897","end_date":null,"start_year":1897,"end_year":null}},{"type":"Feature","geometry":{"type":"Point","coordinates":[-122.56932,49.17307]},"properties":{"osm_type":"way","osm_id":879492930,"name":"Church of the Holy Redeemer","religion":"christian","denomination":null,"start_date":"1897","end_date":null,"start_year":1897,"end_year":null}},{"type":"Feature","geometry":{"type":"Point","coordinates":[-112.5779,53.85004]},"properties":{"osm_type":"way","osm_id":595667462,"name":"Greek Orthodox Church of Holy Trinity","religion":"christian","denomination":"orthodox","start_date":"1897","end_date":null,"start_year":1897,"end_year":null}},{"type":"Feature","geometry":{"type":"Point","coordinates":[-112.15693,53.95116]},"properties":{"osm_type":"way","osm_id":595665035,"name":"Holy Assumption Orthodox Church","religion":"christian","denomination":"orthodox","start_date":"1899","end_date":null,"start_year":1899,"end_year":null}},{"type":"Feature","geometry":{"type":"Point","coordinates":[-112.47792,54.12327]},"properties":{"osm_type":"way","osm_id":595665062,"name":"Holy Trinity Orthodox Church","religion":"christian","denomination":"orthodox","start_date":"1900","end_date":null,"start_year":1900,"end_year":null}},{"type":"Feature","geometry":{"type":"Point","coordinates":[-112.45384,53.84329]},"properties":{"osm_type":"way","osm_id":1233059005,"name":"Saint Nicholas Orthodox Church","religion":"christian","denomination":"russian_orthodox","start_date":"1900","end_date":null,"start_year":1900,"end_year":null}},{"type":"Feature","geometry":{"type":"Point","coordinates":[-112.33087,53.83091]},"properties":{"osm_type":"way","osm_id":1233230977,"name":"St. Michael the Archangel Russo Orthodox Church","religion":"christian","denomination":"russian_orthodox","start_date":"1900","end_date":null,"start_year":1900,"end_year":null}},{"type":"Feature","geometry":{"type":"Point","coordinates":[-129.958,54.99401]},"properties":{"osm_type":"way","osm_id":782176099,"name":null,"religion":"christian","denomination":null,"start_date":"1900","end_date":null,"start_year":1900,"end_year":null}},{"type":"Feature","geometry":{"type":"Point","coordinates":[-97.14895,49.89489]},"properties":{"osm_type":"way","osm_id":243990301,"name":"Manitoba Dawah Centre","religion":"muslim","denomination":null,"start_date":"1901","end_date":null,"start_year":1901,"end_year":null}},{"type":"Feature","geometry":{"type":"Point","coordinates":[-112.31042,53.71527]},"properties":{"osm_type":"way","osm_id":595663152,"name":"St. Demetrius of Thessalonika Orthodox Church","religion":"christian","denomination":"orthodox","start_date":"1901","end_date":null,"start_year":1901,"end_year":null}},{"type":"Feature","geometry":{"type":"Point","coordinates":[-122.71303,49.03142]},"properties":{"osm_type":"way","osm_id":391656975,"name":"Hazelmere United Church","religion":"christian","denomination":"united","start_date":"1903","end_date":null,"start_year":1903,"end_year":null}},{"type":"Feature","geometry":{"type":"Point","coordinates":[-81.63239,43.81186]},"properties":{"osm_type":"node","osm_id":1317242702,"name":"Nile United Church","religion":"christian","denomination":"united","start_date":"1903","end_date":null,"start_year":1903,"end_year":null}},{"type":"Feature","geometry":{"type":"Point","coordinates":[-105.96276,52.63899]},"properties":{"osm_type":"way","osm_id":1195055510,"name":"Ukrainian Orthodox Church of Saint Mary the Protectress","religion":"christian","denomination":"orthodox","start_date":"1903","end_date":null,"start_year":1903,"end_year":null}},{"type":"Feature","geometry":{"type":"Point","coordinates":[-73.61714,45.4906]},"properties":{"osm_type":"way","osm_id":235295467,"name":"Chapelle de Saint Frère André","religion":"christian","denomination":"roman_catholic","start_date":"1904","end_date":null,"start_year":1904,"end_year":null}},{"type":"Feature","geometry":{"type":"Point","coordinates":[-81.71064,43.74497]},"properties":{"osm_type":"way","osm_id":116901526,"name":"Lakeshore United Church","religion":"christian","denomination":null,"start_date":"1905","end_date":null,"start_year":1905,"end_year":null}},{"type":"Feature","geometry":{"type":"Point","coordinates":[-112.35817,53.91453]},"properties":{"osm_type":"way","osm_id":595662381,"name":"Nativity of the Holy Virgin Orthodox Church","religion":"christian","denomination":"orthodox","start_date":"1905","end_date":null,"start_year":1905,"end_year":null}},{"type":"Feature","geometry":{"type":"Point","coordinates":[-123.09302,49.28282]},"properties":{"osm_type":"node","osm_id":12063928362,"name":"Vancouver Buddhist Temple","religion":"buddhist","denomination":"jodo_shinshu","start_date":"1905","end_date":null,"start_year":1905,"end_year":null}},{"type":"Feature","geometry":{"type":"Point","coordinates":[-103.41939,50.74671]},"properties":{"osm_type":"way","osm_id":868143298,"name":"Knox United Church","religion":"christian","denomination":"united","start_date":"1906","end_date":null,"start_year":1906,"end_year":null}},{"type":"Feature","geometry":{"type":"Point","coordinates":[-79.38015,43.67592]},"properties":{"osm_type":"way","osm_id":43805329,"name":"Rosedale Presbyterian Church","religion":"christian","denomination":"presbyterian","start_date":"1908-01-19","end_date":null,"start_year":1908,"end_year":null}},{"type":"Feature","geometry":{"type":"Point","coordinates":[-73.60504,45.53454]},"properties":{"osm_type":"way","osm_id":46866053,"name":"Saint-Édouard","religion":"christian","denomination":"catholic","start_date":"1909","end_date":null,"start_year":1909,"end_year":null}},{"type":"Feature","geometry":{"type":"Point","coordinates":[-112.13409,54.04289]},"properties":{"osm_type":"way","osm_id":595661301,"name":"SS. Peter and Paul Orthodox Church","religion":"christian","denomination":"orthodox","start_date":"1909","end_date":null,"start_year":1909,"end_year":null}},{"type":"Feature","geometry":{"type":"Point","coordinates":[-97.14726,49.87619]},"properties":{"osm_type":"way","osm_id":694046381,"name":"Crescent Fort Rouge United Church","religion":"christian","denomination":"united","start_date":"1910","end_date":null,"start_year":1910,"end_year":null}},{"type":"Feature","geometry":{"type":"Point","coordinates":[-112.25686,53.99108]},"properties":{"osm_type":"way","osm_id":595667858,"name":"Holy Trinity Orthodox Church","religion":"christian","denomination":"orthodox","start_date":"1910","end_date":null,"start_year":1910,"end_year":null}},{"type":"Feature","geometry":{"type":"Point","coordinates":[-104.98913,52.1976]},"properties":{"osm_type":"way","osm_id":1091165796,"name":"Saint Peter’s Cathedral","religion":"christian","denomination":"roman_catholic","start_date":"1910","end_date":null,"start_year":1910,"end_year":null}},{"type":"Feature","geometry":{"type":"Point","coordinates":[-122.30722,49.05105]},"properties":{"osm_type":"way","osm_id":274888717,"name":"Gur Sikh Temple","religion":"sikh","denomination":null,"start_date":"1911","end_date":null,"start_year":1911,"end_year":null}},{"type":"Feature","geometry":{"type":"Point","coordinates":[-96.98033,50.05349]},"properties":{"osm_type":"way","osm_id":623180005,"name":"St. Nicholas Orthodox Church","religion":"christian","denomination":"orthodox","start_date":"1911","end_date":null,"start_year":1911,"end_year":null}},{"type":"Feature","geometry":{"type":"Point","coordinates":[-113.52719,53.58561]},"properties":{"osm_type":"way","osm_id":325249921,"name":"St. Vladimir Ukrainian Catholic Parish","religion":"christian","denomination":"catholic","start_date":"1911","end_date":null,"start_year":1911,"end_year":null}},{"type":"Feature","geometry":{"type":"Point","coordinates":[-123.01886,49.28407]},"properties":{"osm_type":"way","osm_id":357702012,"name":"Burnaby Pacific Grace Church","religion":"christian","denomination":"mennonite","start_date":"1912","end_date":null,"start_year":1912,"end_year":null}},{"type":"Feature","geometry":{"type":"Point","coordinates":[-81.217,42.66455]},"properties":{"osm_type":"way","osm_id":759915877,"name":"Saint Joseph's Catholic Church","religion":"christian","denomination":"roman_catholic","start_date":"1912","end_date":null,"start_year":1912,"end_year":null}},{"type":"Feature","geometry":{"type":"Point","coordinates":[-76.42197,44.86218]},"properties":{"osm_type":"way","osm_id":627296992,"name":"St Stephen Anglican Church","religion":"christian","denomination":"anglican","start_date":"1912","end_date":null,"start_year":1912,"end_year":null}},{"type":"Feature","geometry":{"type":"Point","coordinates":[-73.62443,45.54759]},"properties":{"osm_type":"way","osm_id":221929256,"name":"Église orthodoxe roumaine de l'Annonciation","religion":"christian","denomination":"romanian_orthodox","start_date":"1913","end_date":null,"start_year":1913,"end_year":null}},{"type":"Feature","geometry":{"type":"Point","coordinates":[-97.16075,49.89002]},"properties":{"osm_type":"way","osm_id":970411748,"name":"Saint Matthew's Anglican Church","religion":"christian","denomination":"anglican","start_date":"1913-11-09","end_date":null,"start_year":1913,"end_year":null}},{"type":"Feature","geometry":{"type":"Point","coordinates":[-71.08519,48.53374]},"properties":{"osm_type":"way","osm_id":594729565,"name":"Église de Saint-Honoré","religion":"christian","denomination":null,"start_date":"1916","end_date":null,"start_year":1916,"end_year":null}},{"type":"Feature","geometry":{"type":"Point","coordinates":[-106.91445,49.92373]},"properties":{"osm_type":"way","osm_id":1227271456,"name":"Trinity Lutheran Church St. Boswells","religion":"christian","denomination":"lutheran","start_date":"1916","end_date":null,"start_year":1916,"end_year":null}},{"type":"Feature","geometry":{"type":"Point","coordinates":[-105.88462,49.30785]},"properties":{"osm_type":"way","osm_id":1266563578,"name":"Grand Valley Lutheran Church","religion":"christian","denomination":null,"start_date":"1917","end_date":null,"start_year":1917,"end_year":null}},{"type":"Feature","geometry":{"type":"Point","coordinates":[-112.03537,53.90274]},"properties":{"osm_type":"way","osm_id":595661203,"name":"St. Nicholas Orthodox Church","religion":"christian","denomination":"orthodox","start_date":"1917","end_date":null,"start_year":1917,"end_year":null}},{"type":"Feature","geometry":{"type":"Point","coordinates":[-71.36141,46.85585]},"properties":{"osm_type":"way","osm_id":212877363,"name":"Église Saints Pierre et Paul","religion":"christian","denomination":"orthodox","start_date":"1919","end_date":null,"start_year":1919,"end_year":null}},{"type":"Feature","geometry":{"type":"Point","coordinates":[-122.87317,49.30242]},"properties":{"osm_type":"way","osm_id":220192983,"name":"Inlet United Church","religion":"christian","denomination":"united","start_date":"1924","end_date":null,"start_year":1924,"end_year":null}},{"type":"Feature","geometry":{"type":"Point","coordinates":[-105.96256,52.6389]},"properties":{"osm_type":"way","osm_id":1190394044,"name":"Ukrainian Catholic Church of the Patronage of the Blessed Virgin Mary","religion":"christian","denomination":"ukrainian_greek_catholic","start_date":"1924-10-14","end_date":null,"start_year":1924,"end_year":null}},{"type":"Feature","geometry":{"type":"Point","coordinates":[-106.20919,49.40794]},"properties":{"osm_type":"way","osm_id":1261366391,"name":"Elm Springs Roumanian Orthodox Church","religion":"christian","denomination":"romanian_orthodox","start_date":"1926","end_date":null,"start_year":1926,"end_year":null}},{"type":"Feature","geometry":{"type":"Point","coordinates":[-105.73092,49.19513]},"properties":{"osm_type":"way","osm_id":1110633500,"name":"Fife Lake United Church","religion":"christian","denomination":null,"start_date":"1928","end_date":null,"start_year":1928,"end_year":null}},{"type":"Feature","geometry":{"type":"Point","coordinates":[-79.24697,42.98511]},"properties":{"osm_type":"way","osm_id":659222234,"name":"Our Lady of Hungary","religion":"christian","denomination":"catholic","start_date":"1928","end_date":null,"start_year":1928,"end_year":null}},{"type":"Feature","geometry":{"type":"Point","coordinates":[-112.33253,53.83015]},"properties":{"osm_type":"way","osm_id":1233230967,"name":"Saint John the Baptist Ukrainian Orthodox Church","religion":"christian","denomination":"ukrainian_orthodox;orthodox","start_date":"1929","end_date":null,"start_year":1929,"end_year":null}},{"type":"Feature","geometry":{"type":"Point","coordinates":[-64.48651,48.83014]},"properties":{"osm_type":"way","osm_id":31489200,"name":"Cathédrale du Christ-Roy","religion":"christian","denomination":"roman_catholic","start_date":"1930","end_date":null,"start_year":1930,"end_year":null}},{"type":"Feature","geometry":{"type":"Point","coordinates":[-103.75907,53.06652]},"properties":{"osm_type":"way","osm_id":867654829,"name":"Paroisse Notre Dame de la Nativitie","religion":"christian","denomination":"roman_catholic","start_date":"1930","end_date":null,"start_year":1930,"end_year":null}},{"type":"Feature","geometry":{"type":"Point","coordinates":[-115.5702,51.1782]},"properties":{"osm_type":"way","osm_id":203138955,"name":"St. Paul's Presbyterian","religion":"christian","denomination":"presbyterian","start_date":"1930","end_date":null,"start_year":1930,"end_year":null}},{"type":"Feature","geometry":{"type":"Point","coordinates":[-123.09378,49.26646]},"properties":{"osm_type":"way","osm_id":295418390,"name":"Saint Francis Xavier Chinese Catholic Centre","religion":"christian","denomination":"roman_catholic","start_date":"1933","end_date":null,"start_year":1933,"end_year":null}},{"type":"Feature","geometry":{"type":"Point","coordinates":[-97.22764,49.52424]},"properties":{"osm_type":"node","osm_id":2529461156,"name":"Union Point United Church","religion":"christian","denomination":"united","start_date":"1940","end_date":null,"start_year":1940,"end_year":null}},{"type":"Feature","geometry":{"type":"Point","coordinates":[-79.29979,48.55202]},"properties":{"osm_type":"node","osm_id":4303077662,"name":"Église de Rapide-Danseur","religion":"christian","denomination":"roman_catholic","start_date":"1942","end_date":null,"start_year":1942,"end_year":null}},{"type":"Feature","geometry":{"type":"Point","coordinates":[-124.42303,49.30517]},"properties":{"osm_type":"way","osm_id":915939904,"name":"Grace United Church","religion":"christian","denomination":"united","start_date":"1945","end_date":null,"start_year":1945,"end_year":null}},{"type":"Feature","geometry":{"type":"Point","coordinates":[-122.88185,49.05259]},"properties":{"osm_type":"way","osm_id":405364619,"name":"All Saints Community Church","religion":"christian","denomination":"catholic","start_date":"1946","end_date":null,"start_year":1946,"end_year":null}},{"type":"Feature","geometry":{"type":"Point","coordinates":[-73.71346,46.18575]},"properties":{"osm_type":"node","osm_id":1337438181,"name":"Chapelle du Lac Vert","religion":"christian","denomination":"catholic","start_date":"1946","end_date":null,"start_year":1946,"end_year":null}},{"type":"Feature","geometry":{"type":"Point","coordinates":[-122.29057,49.05039]},"properties":{"osm_type":"way","osm_id":323486715,"name":"Trinity Memorial United Church","religion":"christian","denomination":"united","start_date":"1947","end_date":null,"start_year":1947,"end_year":null}},{"type":"Feature","geometry":{"type":"Point","coordinates":[-123.17636,49.23571]},"properties":{"osm_type":"way","osm_id":476411517,"name":"Knox United Church","religion":"christian","denomination":"united","start_date":"1948","end_date":null,"start_year":1948,"end_year":null}},{"type":"Feature","geometry":{"type":"Point","coordinates":[-97.1687,49.88395]},"properties":{"osm_type":"way","osm_id":1075582201,"name":"Korean Full Gospel Church","religion":"christian","denomination":"protestant","start_date":"1950s","end_date":null,"start_year":1950,"end_year":null}},{"type":"Feature","geometry":{"type":"Point","coordinates":[-70.545,47.33625]},"properties":{"osm_type":"way","osm_id":705935883,"name":"Chapelle de Maillard","religion":"christian","denomination":null,"start_date":"1951","end_date":null,"start_year":1951,"end_year":null}},{"type":"Feature","geometry":{"type":"Point","coordinates":[-64.33995,48.83621]},"properties":{"osm_type":"way","osm_id":1100957786,"name":"Église Saint-Jean-Baptiste","religion":"christian","denomination":"roman_catholic","start_date":"1952","end_date":null,"start_year":1952,"end_year":null}},{"type":"Feature","geometry":{"type":"Point","coordinates":[-93.83478,51.01558]},"properties":{"osm_type":"way","osm_id":496358964,"name":"Holy Protection of the Blessed Virgin Mary Ukrainian Catholic Church","religion":"christian","denomination":"ukrainian_greek_catholic","start_date":"1952","end_date":null,"start_year":1952,"end_year":null}},{"type":"Feature","geometry":{"type":"Point","coordinates":[-115.57429,51.17952]},"properties":{"osm_type":"way","osm_id":203138959,"name":"Saint Mary's Catholic Church","religion":"christian","denomination":"roman_catholic","start_date":"1952","end_date":null,"start_year":1952,"end_year":null}},{"type":"Feature","geometry":{"type":"Point","coordinates":[-79.57278,43.72261]},"properties":{"osm_type":"way","osm_id":58854909,"name":"Saint Benedict Parish","religion":"christian","denomination":"roman_catholic","start_date":"1956","end_date":null,"start_year":1956,"end_year":null}},{"type":"Feature","geometry":{"type":"Point","coordinates":[-64.37667,48.7637]},"properties":{"osm_type":"way","osm_id":1014489815,"name":"Église St-Patrick's de Douglastown","religion":"christian","denomination":"roman_catholic","start_date":"1957","end_date":null,"start_year":1957,"end_year":null}},{"type":"Feature","geometry":{"type":"Point","coordinates":[-113.53448,53.59194]},"properties":{"osm_type":"way","osm_id":325249911,"name":"Chalmers Castle Downs United Church","religion":"christian","denomination":"united","start_date":"1961","end_date":null,"start_year":1961,"end_year":null}},{"type":"Feature","geometry":{"type":"Point","coordinates":[-75.81697,45.26428]},"properties":{"osm_type":"way","osm_id":471487982,"name":"The Fallowfield United Church","religion":"christian","denomination":"united","start_date":"before 1965","end_date":null,"start_year":1964,"end_year":null}},{"type":"Feature","geometry":{"type":"Point","coordinates":[-113.51871,53.59061]},"properties":{"osm_type":"way","osm_id":325252461,"name":"Berean Church Of God International Edmonton","religion":"christian","denomination":null,"start_date":"1966","end_date":null,"start_year":1966,"end_year":null}},{"type":"Feature","geometry":{"type":"Point","coordinates":[-122.33594,49.03009]},"properties":{"osm_type":"way","osm_id":440651625,"name":"King Road Mennonite Brethren Church","religion":"christian","denomination":"mennonite_brethren","start_date":"1966","end_date":null,"start_year":1966,"end_year":null}},{"type":"Feature","geometry":{"type":"Point","coordinates":[-113.53087,53.58796]},"properties":{"osm_type":"way","osm_id":325249900,"name":"St Michael's Ukrainian Orthodox Church","religion":"christian","denomination":null,"start_date":"1967","end_date":null,"start_year":1967,"end_year":null}},{"type":"Feature","geometry":{"type":"Point","coordinates":[-79.35371,43.67087]},"properties":{"osm_type":"way","osm_id":43810906,"name":null,"religion":"christian","denomination":"roman_catholic","start_date":"1967","end_date":null,"start_year":1967,"end_year":null}},{"type":"Feature","geometry":{"type":"Point","coordinates":[-76.51699,44.23835]},"properties":{"osm_type":"way","osm_id":158621876,"name":"Calvin Park Seventh-Day Adventist Church","religion":"christian","denomination":"seventh_day_adventist","start_date":"16 March 1968","end_date":null,"start_year":1968,"end_year":null}},{"type":"Feature","geometry":{"type":"Point","coordinates":[-114.08262,50.99207]},"properties":{"osm_type":"way","osm_id":262965664,"name":"Glenmore Temple","religion":"christian","denomination":"salvation_army","start_date":"1970","end_date":null,"start_year":1970,"end_year":null}},{"type":"Feature","geometry":{"type":"Point","coordinates":[-123.08267,49.21162]},"properties":{"osm_type":"way","osm_id":357401650,"name":"Khalsa Diwan Society Gurdwara","religion":"sikh","denomination":"khalsa","start_date":"1970-04-25","end_date":null,"start_year":1970,"end_year":null}},{"type":"Feature","geometry":{"type":"Point","coordinates":[-122.96713,49.24]},"properties":{"osm_type":"way","osm_id":88496704,"name":"Church","religion":"christian","denomination":null,"start_date":"1974","end_date":null,"start_year":1974,"end_year":null}},{"type":"Feature","geometry":{"type":"Point","coordinates":[-122.94141,49.19193]},"properties":{"osm_type":"way","osm_id":132189297,"name":"Gurdwara Sahib Sukh Sagar","religion":"sikh","denomination":null,"start_date":"1975","end_date":null,"start_year":1975,"end_year":null}},{"type":"Feature","geometry":{"type":"Point","coordinates":[-75.9203,45.27827]},"properties":{"osm_type":"way","osm_id":471811666,"name":"Ottawa-Hull Cambodian Buddhist Association","religion":"buddhist","denomination":null,"start_date":"before 1976","end_date":null,"start_year":1975,"end_year":null}},{"type":"Feature","geometry":{"type":"Point","coordinates":[-75.92705,45.35484]},"properties":{"osm_type":"way","osm_id":248138623,"name":"St. John's Anglican","religion":"christian","denomination":"anglican","start_date":"before 1976","end_date":null,"start_year":1975,"end_year":null}},{"type":"Feature","geometry":{"type":"Point","coordinates":[-75.91393,45.24738]},"properties":{"osm_type":"way","osm_id":471132435,"name":"Stittsville United Church","religion":"christian","denomination":"united","start_date":"before 1976","end_date":null,"start_year":1975,"end_year":null}},{"type":"Feature","geometry":{"type":"Point","coordinates":[-75.86975,45.2934]},"properties":{"osm_type":"way","osm_id":68661914,"name":"Bridlewood Bible Chapel","religion":"christian","denomination":null,"start_date":"1976..1991","end_date":null,"start_year":1976,"end_year":null}},{"type":"Feature","geometry":{"type":"Point","coordinates":[-75.86749,45.28844]},"properties":{"osm_type":"way","osm_id":68661994,"name":"Bridlewood Community Church Of The Nazarene","religion":"christian","denomination":"nazarene","start_date":"1976..1991","end_date":null,"start_year":1976,"end_year":null}},{"type":"Feature","geometry":{"type":"Point","coordinates":[-75.89827,45.32632]},"properties":{"osm_type":"way","osm_id":473030474,"name":"Christ Risen Lutheran Church","religion":"christian","denomination":"lutheran","start_date":"1976..1991","end_date":null,"start_year":1976,"end_year":null}},{"type":"Feature","geometry":{"type":"Point","coordinates":[-75.91749,45.25504]},"properties":{"osm_type":"way","osm_id":471171495,"name":"Community Bible Church","religion":"christian","denomination":"gospel","start_date":"1976..1991","end_date":null,"start_year":1976,"end_year":null}},{"type":"Feature","geometry":{"type":"Point","coordinates":[-75.8793,45.29689]},"properties":{"osm_type":"way","osm_id":68609702,"name":"Glen Cairn United Church","religion":"christian","denomination":"united","start_date":"1976..1991","end_date":null,"start_year":1976,"end_year":null}},{"type":"Feature","geometry":{"type":"Point","coordinates":[-75.87123,45.29236]},"properties":{"osm_type":"way","osm_id":68661925,"name":"Holy Redeemer Roman Catholic Parish","religion":"christian","denomination":"catholic","start_date":"1976..1991","end_date":null,"start_year":1976,"end_year":null}},{"type":"Feature","geometry":{"type":"Point","coordinates":[-75.88859,45.29903]},"properties":{"osm_type":"way","osm_id":387519683,"name":"Kanata Baptist Church","religion":"christian","denomination":"baptist","start_date":"1976..1991","end_date":null,"start_year":1976,"end_year":null}},{"type":"Feature","geometry":{"type":"Point","coordinates":[-75.92837,45.35609]},"properties":{"osm_type":"way","osm_id":369580571,"name":"Kanata Muslim Association","religion":"muslim","denomination":null,"start_date":"1976..1991","end_date":null,"start_year":1976,"end_year":null}},{"type":"Feature","geometry":{"type":"Point","coordinates":[-75.90181,45.32397]},"properties":{"osm_type":"way","osm_id":95899043,"name":"Kanata United Church","religion":"christian","denomination":"united","start_date":"1976..1991","end_date":null,"start_year":1976,"end_year":null}},{"type":"Feature","geometry":{"type":"Point","coordinates":[-75.89626,45.32599]},"properties":{"osm_type":"way","osm_id":68609534,"name":"Lifecentre Kanata","religion":"christian","denomination":null,"start_date":"1976..1991","end_date":null,"start_year":1976,"end_year":null}},{"type":"Feature","geometry":{"type":"Point","coordinates":[-75.91572,45.25501]},"properties":{"osm_type":"way","osm_id":471171506,"name":"St Thomas Anglican Church","religion":"christian","denomination":null,"start_date":"1976..1991","end_date":null,"start_year":1976,"end_year":null}},{"type":"Feature","geometry":{"type":"Point","coordinates":[-75.92417,45.26074]},"properties":{"osm_type":"way","osm_id":471616803,"name":"St. Andrews Presbyterian Church","religion":"christian","denomination":"presbyterian","start_date":"1976..1991","end_date":null,"start_year":1976,"end_year":null}},{"type":"Feature","geometry":{"type":"Point","coordinates":[-75.95105,45.36798]},"properties":{"osm_type":"way","osm_id":68899274,"name":"St. Isidore Roman Catholic Parish","religion":"christian","denomination":"catholic","start_date":"1976..1991","end_date":null,"start_year":1976,"end_year":null}},{"type":"Feature","geometry":{"type":"Point","coordinates":[-113.45966,53.47162]},"properties":{"osm_type":"way","osm_id":136455407,"name":"Richfield Christian Fellowship","religion":"christian","denomination":"seventh_day_adventist","start_date":"1978","end_date":null,"start_year":1978,"end_year":null}},{"type":"Feature","geometry":{"type":"Point","coordinates":[-122.9765,49.248]},"properties":{"osm_type":"way","osm_id":906363238,"name":"The Danish Lutheran Church of Vancouver","religion":"christian","denomination":"evangelical_lutheran","start_date":"1984","end_date":null,"start_year":1984,"end_year":null}},{"type":"Feature","geometry":{"type":"Point","coordinates":[-113.45478,53.46827]},"properties":{"osm_type":"way","osm_id":322096347,"name":"Markaz-Ul-Islam","religion":"muslim","denomination":null,"start_date":"1986","end_date":null,"start_year":1986,"end_year":null}},{"type":"Feature","geometry":{"type":"Point","coordinates":[-79.71891,44.43983]},"properties":{"osm_type":"way","osm_id":1278532191,"name":"St Paul’s Anglican Church","religion":"christian","denomination":"anglican","start_date":"1988-01-24","end_date":null,"start_year":1988,"end_year":null}},{"type":"Feature","geometry":{"type":"Point","coordinates":[-114.0842,51.04967]},"properties":{"osm_type":"way","osm_id":292899925,"name":"Avatamsaka Monastery","religion":"buddhist","denomination":null,"start_date":"1989","end_date":null,"start_year":1989,"end_year":null}},{"type":"Feature","geometry":{"type":"Point","coordinates":[-75.93036,45.35581]},"properties":{"osm_type":"way","osm_id":244462014,"name":"Brookside Baptist Church","religion":"christian","denomination":"baptist","start_date":"1991..1999","end_date":null,"start_year":1991,"end_year":null}},{"type":"Feature","geometry":{"type":"Point","coordinates":[-122.81844,49.06476]},"properties":{"osm_type":"way","osm_id":282432280,"name":"Grace Point Church","religion":"christian","denomination":null,"start_date":"1991-11-20","end_date":null,"start_year":1991,"end_year":null}},{"type":"Feature","geometry":{"type":"Point","coordinates":[-75.88722,45.29583]},"properties":{"osm_type":"way","osm_id":68609548,"name":"Kanata Community Christian Reformed Church","religion":"christian","denomination":"reform","start_date":"1991..1999","end_date":null,"start_year":1991,"end_year":null}},{"type":"Feature","geometry":{"type":"Point","coordinates":[-75.90642,45.29808]},"properties":{"osm_type":"way","osm_id":469962535,"name":"Kingdom Hall of Jehovah's Witnesses","religion":"christian","denomination":"jehovahs_witness","start_date":"1991..1999","end_date":null,"start_year":1991,"end_year":null}},{"type":"Feature","geometry":{"type":"Point","coordinates":[-75.89017,45.32198]},"properties":{"osm_type":"way","osm_id":232675710,"name":"St. Xenia Russian Orthodox Church","religion":"christian","denomination":"russian_orthodox","start_date":"1991..1999","end_date":null,"start_year":1991,"end_year":null}},{"type":"Feature","geometry":{"type":"Point","coordinates":[-75.83167,45.27269]},"properties":{"osm_type":"way","osm_id":256926605,"name":"The Church of Jesus Christ of Latter-day Saints","religion":"christian","denomination":"mormon","start_date":"1991..1999","end_date":null,"start_year":1991,"end_year":null}},{"type":"Feature","geometry":{"type":"Point","coordinates":[-75.90687,45.23653]},"properties":{"osm_type":"way","osm_id":471109720,"name":"United-Pentecostal Church","religion":"christian","denomination":"pentecostal","start_date":"1991..1999","end_date":null,"start_year":1991,"end_year":null}},{"type":"Feature","geometry":{"type":"Point","coordinates":[-123.09638,49.28156]},"properties":{"osm_type":"way","osm_id":297424756,"name":"華光雷藏寺","religion":"buddhist","denomination":null,"start_date":"1996","end_date":null,"start_year":1996,"end_year":null}},{"type":"Feature","geometry":{"type":"Point","coordinates":[-75.89392,45.29741]},"properties":{"osm_type":"way","osm_id":272795880,"name":"St. Paul's Anglican","religion":"christian","denomination":"anglican","start_date":"2002..2005","end_date":null,"start_year":2002,"end_year":null}},{"type":"Feature","geometry":{"type":"Point","coordinates":[-115.77223,49.50831]},"properties":{"osm_type":"way","osm_id":595668520,"name":"St. Aidan Orthodox Church","religion":"christian","denomination":"orthodox","start_date":"2005","end_date":null,"start_year":2005,"end_year":null}},{"type":"Feature","geometry":{"type":"Point","coordinates":[-122.28536,49.06454]},"properties":{"osm_type":"way","osm_id":400515208,"name":"Calvin Presbyterian Church","religion":"christian","denomination":"presbyterian","start_date":"2016-02-14","end_date":null,"start_year":2016,"end_year":null}},{"type":"Feature","geometry":{"type":"Point","coordinates":[-122.70613,49.12633]},"properties":{"osm_type":"way","osm_id":586194854,"name":"Hope Community Church","religion":"christian","denomination":"christian_reformed","start_date":"2016","end_date":null,"start_year":2016,"end_year":null}},{"type":"Feature","geometry":{"type":"Point","coordinates":[-80.03164,48.15027]},"properties":{"osm_type":"node","osm_id":5792993064,"name":"Lazarus Christian Community (online)","religion":"christian","denomination":"catholic","start_date":"29 Jul 2018","end_date":null,"start_year":2018,"end_year":null}},{"type":"Feature","geometry":{"type":"Point","coordinates":[-113.31207,53.54512]},"properties":{"osm_type":"way","osm_id":485777709,"name":"Masjid in The Park","religion":"muslim","denomination":"sunni","start_date":"2018-05-01","end_date":null,"start_year":2018,"end_year":null}},{"type":"Feature","geometry":{"type":"Point","coordinates":[-62.63677,45.60991]},"properties":{"osm_type":"way","osm_id":685858431,"name":"Pictou County Mosque","religion":"muslim","denomination":"sunni","start_date":"2018","end_date":null,"start_year":2018,"end_year":null}},{"type":"Feature","geometry":{"type":"Point","coordinates":[-122.91885,49.20284]},"properties":{"osm_type":"way","osm_id":391124720,"name":"Kingdom Hall of Jehovah's Witnesses","religion":"christian","denomination":"jehovahs_witness","start_date":"2022","end_date":null,"start_year":2022,"end_year":null}},{"type":"Feature","geometry":{"type":"Point","coordinates":[-73.55145,45.52068]},"properties":{"osm_type":"way","osm_id":46866850,"name":"Église Sainte-Brigide de Kildare","religion":"christian","denomination":null,"start_date":null,"end_date":"2025-09-01","start_year":null,"end_year":2025}},{"type":"Feature","geometry":{"type":"Point","coordinates":[-81.88889,42.43669]},"properties":{"osm_type":"node","osm_id":1865081670,"name":"Marsh Street Baptist Church","religion":"christian","denomination":"baptist","start_date":null,"end_date":"2025-09-01","start_year":null,"end_year":2025}}]}
