{"type":"FeatureCollection", "features": [
{"type":"Feature","geometry":{"type":"Polygon","coordinates":[[[179.18264,-8.53654],[179.18139,-8.53741],[179.18065,-8.53777],[179.18038,-8.53792],[179.18035,-8.53795],[179.18022,-8.53803],[179.17987,-8.53826],[179.17975,-8.53831],[179.17959,-8.53838],[179.17945,-8.53843],[179.17935,-8.53847],[179.17925,-8.5385],[179.17917,-8.53848],[179.17905,-8.53853],[179.17896,-8.53858],[179.1789,-8.53857],[179.17884,-8.53858],[179.1788,-8.53861],[179.17875,-8.53863],[179.1787,-8.53862],[179.17866,-8.53862],[179.17861,-8.53863],[179.17853,-8.53863],[179.17848,-8.53864],[179.17832,-8.5387],[179.17828,-8.5387],[179.17824,-8.53872],[179.17821,-8.53873],[179.17821,-8.53875],[179.17816,-8.53876],[179.1781,-8.53878],[179.17806,-8.53877],[179.17801,-8.53877],[179.17797,-8.53875],[179.17799,-8.53871],[179.17798,-8.53863],[179.17794,-8.53857],[179.17789,-8.53854],[179.17778,-8.53853],[179.1777,-8.53855],[179.17764,-8.53858],[179.17757,-8.53861],[179.17755,-8.53859],[179.17751,-8.53858],[179.17748,-8.5386],[179.17744,-8.5386],[179.17739,-8.53858],[179.17731,-8.53857],[179.17725,-8.5386],[179.17713,-8.53862],[179.17708,-8.53863],[179.17697,-8.53866],[179.17692,-8.53866],[179.17688,-8.53867],[179.17684,-8.5387],[179.17671,-8.53875],[179.17666,-8.53874],[179.17662,-8.53872],[179.17657,-8.53871],[179.17653,-8.53873],[179.17648,-8.53874],[179.17644,-8.53876],[179.17639,-8.53878],[179.17634,-8.53879],[179.17629,-8.5388],[179.17625,-8.53881],[179.17621,-8.53883],[179.17616,-8.53885],[179.17611,-8.53887],[179.17606,-8.53887],[179.1759,-8.53887],[179.17585,-8.53887],[179.1758,-8.53886],[179.17576,-8.53887],[179.17574,-8.53891],[179.1757,-8.53893],[179.17565,-8.53894],[179.1756,-8.53894],[179.17551,-8.53896],[179.17547,-8.53899],[179.17543,-8.539],[179.17538,-8.53901],[179.17534,-8.53902],[179.17529,-8.53903],[179.17524,-8.53904],[179.1752,-8.53905],[179.17515,-8.53905],[179.1751,-8.53906],[179.1751,-8.53911],[179.17505,-8.53913],[179.175,-8.53912],[179.17497,-8.53915],[179.17492,-8.53916],[179.17488,-8.53919],[179.17484,-8.53919],[179.1748,-8.53922],[179.17475,-8.53922],[179.17472,-8.53926],[179.17468,-8.53928],[179.17463,-8.53928],[179.1746,-8.53932],[179.17456,-8.53934],[179.17451,-8.53936],[179.17447,-8.53939],[179.17445,-8.53943],[179.17441,-8.53946],[179.17437,-8.53949],[179.17433,-8.53951],[179.17428,-8.53953],[179.1742,-8.53958],[179.17415,-8.5396],[179.17402,-8.53966],[179.17393,-8.53969],[179.17388,-8.5397],[179.17384,-8.53971],[179.17375,-8.53975],[179.1737,-8.53976],[179.17366,-8.53978],[179.17362,-8.5398],[179.17357,-8.53981],[179.17347,-8.53982],[179.17343,-8.53984],[179.17338,-8.53986],[179.17334,-8.53988],[179.17325,-8.53993],[179.17321,-8.53995],[179.17316,-8.53995],[179.17311,-8.53995],[179.17307,-8.53995],[179.17292,-8.53998],[179.17288,-8.53999],[179.17284,-8.54001],[179.17279,-8.54004],[179.17275,-8.54006],[179.1727,-8.54008],[179.17265,-8.54009],[179.17242,-8.54023],[179.17235,-8.54024],[179.17234,-8.5402],[179.17229,-8.54016],[179.17219,-8.5402],[179.17213,-8.5403],[179.17212,-8.54037],[179.17221,-8.54044],[179.1723,-8.54047],[179.17234,-8.54047],[179.1725,-8.54055],[179.17282,-8.54056],[179.17469,-8.53993],[179.17513,-8.53984],[179.17568,-8.53977],[179.17598,-8.53969],[179.17611,-8.53969],[179.1764,-8.53962],[179.17787,-8.53946],[179.17893,-8.53931],[179.18058,-8.53876],[179.18124,-8.53842],[179.18171,-8.53821],[179.1819,-8.5381],[179.18285,-8.53744],[179.18364,-8.53677],[179.18383,-8.53662],[179.18391,-8.53659],[179.18439,-8.53622],[179.18482,-8.53587],[179.18497,-8.53579],[179.18526,-8.53556],[179.18591,-8.53511],[179.18595,-8.53512],[179.18605,-8.53506],[179.18852,-8.53294],[179.18987,-8.53174],[179.19188,-8.53013],[179.19364,-8.52869],[179.19582,-8.52701],[179.1977,-8.52565],[179.19839,-8.52518],[179.19922,-8.52449],[179.19975,-8.52412],[179.20076,-8.5234],[179.20164,-8.52267],[179.20231,-8.52174],[179.20266,-8.52101],[179.20289,-8.52032],[179.20288,-8.51954],[179.20272,-8.51845],[179.2024,-8.51753],[179.20153,-8.51533],[179.2003,-8.51244],[179.199,-8.50949],[179.19796,-8.50689],[179.19686,-8.50403],[179.19563,-8.5006],[179.19488,-8.49737],[179.19441,-8.49518],[179.19422,-8.49441],[179.19339,-8.49165],[179.1929,-8.48936],[179.19276,-8.48742],[179.19267,-8.48552],[179.19274,-8.48256],[179.19281,-8.48121],[179.19267,-8.47897],[179.19235,-8.47754],[179.192,-8.47624],[179.19144,-8.47463],[179.1905,-8.47273],[179.18815,-8.46909],[179.18742,-8.46767],[179.18683,-8.46601],[179.18604,-8.46345],[179.18512,-8.46104],[179.18431,-8.4591],[179.18345,-8.45725],[179.18233,-8.45476],[179.18118,-8.45245],[179.18032,-8.45067],[179.17926,-8.44883],[179.17864,-8.44797],[179.17817,-8.4477],[179.17774,-8.44758],[179.17767,-8.44777],[179.17782,-8.44813],[179.17931,-8.45039],[179.17994,-8.45157],[179.18063,-8.45319],[179.18165,-8.45525],[179.18282,-8.4575],[179.18314,-8.4583],[179.18359,-8.45909],[179.18393,-8.46003],[179.18506,-8.46379],[179.1855,-8.46462],[179.1855,-8.46475],[179.18552,-8.4648],[179.18554,-8.46485],[179.18559,-8.46493],[179.18565,-8.46525],[179.18577,-8.46546],[179.18579,-8.4655],[179.1858,-8.46556],[179.18581,-8.46561],[179.18592,-8.46591],[179.18592,-8.46614],[179.18593,-8.46619],[179.18596,-8.46625],[179.18609,-8.46655],[179.18611,-8.46659],[179.18614,-8.46664],[179.18624,-8.46688],[179.18624,-8.46695],[179.18622,-8.46701],[179.18625,-8.46716],[179.18629,-8.46719],[179.18634,-8.46728],[179.18638,-8.46744],[179.18636,-8.46748],[179.18643,-8.46767],[179.18645,-8.46771],[179.18658,-8.46796],[179.18668,-8.46822],[179.18671,-8.46827],[179.18675,-8.46831],[179.18708,-8.46886],[179.18743,-8.46946],[179.18745,-8.46951],[179.18769,-8.46989],[179.18771,-8.46993],[179.18775,-8.46997],[179.18778,-8.47001],[179.18799,-8.4702],[179.18803,-8.47024],[179.18807,-8.47026],[179.18811,-8.4703],[179.18821,-8.47049],[179.18824,-8.47053],[179.18824,-8.47058],[179.18824,-8.47063],[179.18833,-8.47073],[179.18838,-8.47075],[179.18843,-8.47078],[179.18847,-8.47081],[179.18864,-8.4711],[179.18872,-8.4712],[179.18877,-8.47125],[179.18894,-8.47138],[179.18899,-8.4714],[179.18904,-8.47142],[179.18919,-8.47147],[179.18923,-8.4715],[179.18933,-8.4716],[179.18935,-8.47165],[179.18936,-8.4717],[179.18934,-8.47178],[179.18933,-8.47183],[179.18933,-8.47189],[179.18942,-8.47194],[179.18948,-8.47194],[179.18953,-8.47196],[179.18955,-8.47201],[179.18957,-8.47206],[179.18959,-8.47211],[179.1896,-8.47216],[179.18963,-8.4722],[179.1898,-8.4725],[179.18988,-8.47263],[179.19008,-8.47318],[179.19015,-8.4733],[179.19018,-8.47334],[179.19021,-8.47339],[179.19021,-8.47344],[179.19022,-8.47354],[179.19043,-8.4741],[179.19053,-8.47433],[179.19055,-8.4744],[179.1906,-8.47464],[179.19068,-8.47474],[179.1907,-8.47487],[179.19071,-8.47492],[179.19072,-8.47497],[179.19078,-8.4751],[179.19081,-8.47518],[179.19084,-8.47536],[179.19094,-8.47556],[179.19094,-8.47568],[179.19093,-8.47572],[179.19093,-8.47577],[179.19093,-8.47583],[179.19096,-8.47589],[179.19098,-8.47606],[179.19099,-8.47611],[179.19101,-8.47616],[179.19103,-8.47621],[179.19103,-8.47626],[179.19101,-8.4763],[179.19101,-8.47635],[179.19103,-8.47639],[179.19106,-8.47645],[179.19107,-8.4765],[179.19109,-8.47675],[179.19109,-8.4768],[179.19117,-8.47696],[179.19114,-8.47705],[179.19111,-8.4771],[179.19111,-8.47715],[179.19113,-8.4772],[179.19115,-8.47725],[179.19117,-8.4773],[179.19122,-8.47739],[179.19122,-8.47744],[179.19123,-8.47749],[179.19125,-8.47754],[179.19136,-8.47801],[179.19138,-8.47805],[179.19143,-8.47825],[179.19145,-8.47837],[179.19154,-8.47881],[179.19154,-8.47886],[179.19153,-8.47891],[179.19153,-8.47896],[179.19164,-8.47981],[179.19163,-8.48002],[179.19163,-8.48007],[179.19171,-8.48028],[179.1917,-8.4803],[179.1917,-8.48035],[179.1917,-8.4804],[179.19169,-8.48046],[179.19168,-8.48062],[179.19168,-8.48067],[179.19169,-8.48085],[179.19172,-8.4809],[179.19174,-8.48094],[179.19175,-8.48099],[179.19174,-8.4812],[179.19173,-8.48133],[179.19171,-8.48138],[179.19171,-8.48143],[179.19175,-8.48152],[179.19173,-8.48157],[179.19172,-8.48162],[179.19171,-8.48167],[179.19173,-8.4818],[179.19174,-8.48185],[179.19176,-8.4819],[179.19174,-8.48206],[179.19174,-8.48211],[179.19172,-8.48216],[179.19172,-8.4822],[179.19175,-8.48249],[179.19175,-8.48254],[179.19177,-8.48258],[179.19179,-8.48263],[179.19177,-8.48269],[179.19177,-8.48275],[179.19178,-8.48282],[179.19178,-8.48313],[179.19181,-8.48318],[179.19183,-8.48322],[179.19183,-8.48327],[179.19183,-8.48333],[179.19182,-8.48338],[179.19181,-8.48342],[179.19181,-8.48347],[179.19177,-8.48357],[179.19176,-8.48362],[179.19177,-8.48367],[179.1918,-8.48372],[179.19181,-8.48377],[179.19181,-8.48382],[179.1918,-8.48387],[179.19178,-8.48393],[179.19175,-8.48398],[179.19172,-8.48429],[179.19172,-8.48434],[179.19173,-8.48439],[179.19173,-8.48444],[179.19172,-8.48449],[179.19172,-8.4846],[179.19172,-8.48497],[179.19172,-8.48507],[179.19172,-8.48527],[179.19172,-8.48537],[179.19171,-8.48542],[179.19168,-8.48553],[179.19167,-8.48587],[179.19173,-8.48621],[179.19175,-8.48627],[179.1919,-8.48701],[179.19191,-8.48706],[179.19191,-8.48711],[179.19191,-8.48717],[179.19195,-8.48748],[179.19195,-8.48778],[179.19193,-8.48809],[179.19193,-8.48823],[179.19194,-8.48828],[179.19195,-8.48833],[179.19196,-8.48838],[179.19202,-8.48856],[179.19202,-8.48861],[179.19207,-8.48884],[179.19208,-8.4889],[179.19215,-8.48906],[179.19216,-8.48912],[179.19223,-8.48948],[179.19225,-8.48953],[179.19232,-8.48999],[179.19233,-8.49004],[179.19243,-8.49043],[179.19243,-8.49048],[179.19251,-8.49069],[179.19255,-8.49094],[179.19255,-8.49099],[179.19254,-8.49104],[179.19253,-8.49109],[179.19259,-8.4914],[179.19259,-8.49145],[179.19263,-8.49165],[179.19265,-8.49169],[179.19268,-8.49174],[179.1927,-8.49179],[179.19271,-8.49184],[179.19277,-8.49201],[179.19286,-8.49239],[179.19289,-8.49251],[179.19292,-8.49258],[179.19293,-8.4927],[179.19293,-8.49275],[179.19294,-8.4928],[179.19296,-8.49285],[179.19297,-8.49295],[179.19297,-8.493],[179.19301,-8.49318],[179.19306,-8.49327],[179.19308,-8.49332],[179.19308,-8.49345],[179.1931,-8.49351],[179.19312,-8.4936],[179.19314,-8.49364],[179.19314,-8.49385],[179.19313,-8.4939],[179.19315,-8.49395],[179.19318,-8.49399],[179.19317,-8.49404],[179.1932,-8.49408],[179.19324,-8.49412],[179.19325,-8.49417],[179.19328,-8.49437],[179.19329,-8.49442],[179.19333,-8.49449],[179.19335,-8.49454],[179.19337,-8.49458],[179.19344,-8.49479],[179.19345,-8.49484],[179.1935,-8.49488],[179.19357,-8.49506],[179.19359,-8.49518],[179.19361,-8.49523],[179.19367,-8.49546],[179.19367,-8.49551],[179.19373,-8.49584],[179.19374,-8.49589],[179.19381,-8.49606],[179.19384,-8.49625],[179.19386,-8.49634],[179.19386,-8.49639],[179.19387,-8.49644],[179.19393,-8.49656],[179.19391,-8.49661],[179.19395,-8.4967],[179.19398,-8.49675],[179.194,-8.49685],[179.19399,-8.49691],[179.194,-8.49696],[179.19403,-8.497],[179.19403,-8.49711],[179.19402,-8.49714],[179.19403,-8.4972],[179.19409,-8.49729],[179.19409,-8.49755],[179.19411,-8.4976],[179.19411,-8.49765],[179.1941,-8.49769],[179.19408,-8.49777],[179.19407,-8.49782],[179.19407,-8.49787],[179.19414,-8.49795],[179.19419,-8.49809],[179.19421,-8.49821],[179.19424,-8.49825],[179.19429,-8.49828],[179.19433,-8.49832],[179.19442,-8.49847],[179.1945,-8.49876],[179.19447,-8.49886],[179.19446,-8.49891],[179.19446,-8.49897],[179.19446,-8.49914],[179.19452,-8.49936],[179.19458,-8.49941],[179.19462,-8.49945],[179.19468,-8.49959],[179.19469,-8.49964],[179.19469,-8.4997],[179.19469,-8.49981],[179.19476,-8.50008],[179.19479,-8.50012],[179.19481,-8.50017],[179.19482,-8.50022],[179.19482,-8.50027],[179.19484,-8.50044],[179.19485,-8.5005],[179.19487,-8.50055],[179.19496,-8.50089],[179.19498,-8.50094],[179.195,-8.50099],[179.19503,-8.50112],[179.19503,-8.50117],[179.19503,-8.50123],[179.19508,-8.50143],[179.19517,-8.50161],[179.19518,-8.50166],[179.19519,-8.50171],[179.19518,-8.50181],[179.19518,-8.50192],[179.1952,-8.50214],[179.19524,-8.50233],[179.19542,-8.50254],[179.19548,-8.50255],[179.19551,-8.50259],[179.19553,-8.50268],[179.19565,-8.50301],[179.19566,-8.50304],[179.19575,-8.50327],[179.19577,-8.50331],[179.19578,-8.50334],[179.19579,-8.50338],[179.19579,-8.50341],[179.1958,-8.50345],[179.19591,-8.50379],[179.19592,-8.50383],[179.19594,-8.50386],[179.19597,-8.50396],[179.19599,-8.50399],[179.19601,-8.50403],[179.196,-8.50407],[179.196,-8.5041],[179.19604,-8.50423],[179.19606,-8.5043],[179.19611,-8.50435],[179.1961,-8.50442],[179.19612,-8.50449],[179.19616,-8.50458],[179.19621,-8.50476],[179.19624,-8.50483],[179.19625,-8.5049],[179.19628,-8.50497],[179.19631,-8.50504],[179.19633,-8.50511],[179.19635,-8.50518],[179.19637,-8.50524],[179.19641,-8.50532],[179.19644,-8.50538],[179.19648,-8.50544],[179.19651,-8.50551],[179.19654,-8.50557],[179.19657,-8.50564],[179.19659,-8.50571],[179.19664,-8.50594],[179.19673,-8.5061],[179.19674,-8.50617],[179.19675,-8.50625],[179.19676,-8.50632],[179.19687,-8.50653],[179.1969,-8.50661],[179.19691,-8.50667],[179.19701,-8.5069],[179.19705,-8.50704],[179.19707,-8.50711],[179.19717,-8.50729],[179.19724,-8.50741],[179.19743,-8.50778],[179.19746,-8.50785],[179.19748,-8.50792],[179.1975,-8.50799],[179.19751,-8.50806],[179.19762,-8.50835],[179.19765,-8.50842],[179.19766,-8.50849],[179.19766,-8.50856],[179.19767,-8.50865],[179.19768,-8.50871],[179.19779,-8.50903],[179.19778,-8.50908],[179.19787,-8.50911],[179.19789,-8.50918],[179.19794,-8.50935],[179.19794,-8.50942],[179.19796,-8.50949],[179.19799,-8.50955],[179.19816,-8.50974],[179.19821,-8.5098],[179.19825,-8.50986],[179.19828,-8.50992],[179.19829,-8.50999],[179.19833,-8.51015],[179.19839,-8.5104],[179.1984,-8.51048],[179.19843,-8.51065],[179.19843,-8.51072],[179.19841,-8.51095],[179.1984,-8.51116],[179.19834,-8.51121],[179.19838,-8.51127],[179.19841,-8.51134],[179.19844,-8.5114],[179.19845,-8.51147],[179.19845,-8.51154],[179.19844,-8.51161],[179.19841,-8.51174],[179.1984,-8.51182],[179.19839,-8.51189],[179.19839,-8.51196],[179.1984,-8.51203],[179.19841,-8.51209],[179.19845,-8.5122],[179.19851,-8.51225],[179.19854,-8.51231],[179.19853,-8.51238],[179.19853,-8.51245],[179.19855,-8.51252],[179.19859,-8.51258],[179.19862,-8.51265],[179.19861,-8.51272],[179.19865,-8.51278],[179.19869,-8.51284],[179.19872,-8.51296],[179.19876,-8.51305],[179.19882,-8.51309],[179.19887,-8.51316],[179.1989,-8.51322],[179.19892,-8.51329],[179.19905,-8.5136],[179.19911,-8.51374],[179.19907,-8.5138],[179.19905,-8.51386],[179.19904,-8.51393],[179.19904,-8.51417],[179.19902,-8.51441],[179.19896,-8.51465],[179.19894,-8.51472],[179.19887,-8.51508],[179.19881,-8.51528],[179.19878,-8.51541],[179.19875,-8.51548],[179.19873,-8.51555],[179.1987,-8.51561],[179.1986,-8.51583],[179.19847,-8.51615],[179.19843,-8.51641],[179.19836,-8.5166],[179.19832,-8.51666],[179.19822,-8.51683],[179.19817,-8.51688],[179.19811,-8.5169],[179.19794,-8.51692],[179.19788,-8.51689],[179.19783,-8.51685],[179.19776,-8.51684],[179.1977,-8.51685],[179.19765,-8.5168],[179.19758,-8.51679],[179.19751,-8.51679],[179.19745,-8.51677],[179.19728,-8.5167],[179.1973,-8.51671],[179.19733,-8.51677],[179.19739,-8.51682],[179.19752,-8.51689],[179.1976,-8.51692],[179.19766,-8.51695],[179.19781,-8.51708],[179.19787,-8.5172],[179.19788,-8.51728],[179.19786,-8.51734],[179.19784,-8.51741],[179.19785,-8.51748],[179.19784,-8.51755],[179.19776,-8.51774],[179.19771,-8.51778],[179.19766,-8.51783],[179.19762,-8.51789],[179.19758,-8.51795],[179.19753,-8.518],[179.19742,-8.51816],[179.19738,-8.51822],[179.19733,-8.51827],[179.19729,-8.51832],[179.19725,-8.51839],[179.1972,-8.51844],[179.19715,-8.51848],[179.19711,-8.51854],[179.19707,-8.51859],[179.19703,-8.51865],[179.197,-8.51872],[179.19698,-8.51878],[179.19694,-8.51884],[179.19679,-8.51902],[179.19661,-8.5193],[179.19644,-8.51954],[179.19639,-8.51958],[179.1963,-8.51968],[179.19621,-8.51982],[179.19617,-8.51987],[179.19599,-8.52008],[179.19588,-8.52025],[179.19578,-8.52041],[179.19568,-8.52067],[179.19566,-8.52074],[179.19565,-8.5208],[179.19555,-8.521],[179.19545,-8.52118],[179.19531,-8.52144],[179.19525,-8.52148],[179.19522,-8.52154],[179.19512,-8.52173],[179.19504,-8.52185],[179.19503,-8.52196],[179.19502,-8.52202],[179.195,-8.52209],[179.1949,-8.52233],[179.19485,-8.52238],[179.19482,-8.52244],[179.19478,-8.52249],[179.19476,-8.52256],[179.19457,-8.52293],[179.19454,-8.52299],[179.19454,-8.52306],[179.1945,-8.5232],[179.19447,-8.52326],[179.19433,-8.52351],[179.19433,-8.52358],[179.19432,-8.52365],[179.19425,-8.52383],[179.19422,-8.52384],[179.19417,-8.52382],[179.19415,-8.52388],[179.19412,-8.52405],[179.194,-8.52436],[179.19397,-8.52442],[179.19394,-8.52449],[179.19392,-8.52455],[179.19386,-8.52468],[179.19383,-8.52474],[179.19378,-8.52485],[179.19365,-8.52504],[179.19363,-8.52506],[179.19361,-8.52507],[179.19359,-8.52508],[179.19357,-8.52508],[179.19355,-8.52509],[179.19352,-8.5251],[179.1935,-8.5251],[179.19348,-8.52511],[179.19346,-8.52512],[179.19344,-8.52514],[179.19342,-8.52515],[179.1934,-8.52517],[179.19339,-8.52519],[179.19339,-8.52524],[179.19344,-8.52526],[179.19342,-8.52532],[179.19334,-8.52528],[179.19329,-8.52547],[179.1932,-8.52567],[179.19306,-8.52591],[179.19296,-8.52606],[179.19291,-8.52611],[179.19275,-8.52627],[179.19269,-8.52631],[179.19265,-8.52637],[179.19263,-8.52643],[179.19262,-8.5265],[179.19256,-8.52665],[179.19252,-8.52671],[179.19248,-8.52683],[179.19239,-8.527],[179.19233,-8.52704],[179.19228,-8.52709],[179.19223,-8.52713],[179.19217,-8.52717],[179.19209,-8.52731],[179.19203,-8.52734],[179.19199,-8.5274],[179.19199,-8.52747],[179.19197,-8.52754],[179.19193,-8.52761],[179.19182,-8.52779],[179.19177,-8.52784],[179.19174,-8.52791],[179.1917,-8.52797],[179.19167,-8.52803],[179.19147,-8.52843],[179.1914,-8.52854],[179.19137,-8.52861],[179.1913,-8.52872],[179.19124,-8.52876],[179.19122,-8.52882],[179.19118,-8.52888],[179.19113,-8.52894],[179.19092,-8.5293],[179.19064,-8.52965],[179.19059,-8.5297],[179.19054,-8.52974],[179.19049,-8.52979],[179.19019,-8.53009],[179.19013,-8.53014],[179.19008,-8.53018],[179.19002,-8.53021],[179.18989,-8.53027],[179.18983,-8.53031],[179.18979,-8.53036],[179.18976,-8.53042],[179.1897,-8.53046],[179.18953,-8.53057],[179.18947,-8.53061],[179.18942,-8.53066],[179.18915,-8.53087],[179.1891,-8.53092],[179.18905,-8.53097],[179.18899,-8.53102],[179.18895,-8.53107],[179.18891,-8.53112],[179.18885,-8.53116],[179.18879,-8.5312],[179.18873,-8.53123],[179.18868,-8.53132],[179.18862,-8.53135],[179.18857,-8.5314],[179.18852,-8.53145],[179.18847,-8.53149],[179.18846,-8.53155],[179.18836,-8.53165],[179.18832,-8.5317],[179.18827,-8.53175],[179.18824,-8.53181],[179.18788,-8.5321],[179.18773,-8.5322],[179.18768,-8.53225],[179.18762,-8.53229],[179.18755,-8.53235],[179.18735,-8.53251],[179.18721,-8.53256],[179.18716,-8.5326],[179.18711,-8.53265],[179.18707,-8.53271],[179.18702,-8.53276],[179.18681,-8.53293],[179.18675,-8.53298],[179.18666,-8.53305],[179.18651,-8.53321],[179.18649,-8.53328],[179.18644,-8.53333],[179.18638,-8.53336],[179.18632,-8.53339],[179.18627,-8.53344],[179.18614,-8.53359],[179.18609,-8.53365],[179.18595,-8.53379],[179.18589,-8.53383],[179.18583,-8.53385],[179.18576,-8.53387],[179.1857,-8.53389],[179.1856,-8.53397],[179.18534,-8.53429],[179.1853,-8.53436],[179.18526,-8.53441],[179.18522,-8.53446],[179.18494,-8.53467],[179.18488,-8.5347],[179.18483,-8.53475],[179.18479,-8.53481],[179.18456,-8.53502],[179.18433,-8.5352],[179.18427,-8.53523],[179.1839,-8.53556],[179.18385,-8.53561],[179.1838,-8.53566],[179.18374,-8.53572],[179.18369,-8.53576],[179.18363,-8.53579],[179.18357,-8.53583],[179.18351,-8.53586],[179.18346,-8.53591],[179.18341,-8.53595],[179.18336,-8.53601],[179.1833,-8.53605],[179.18325,-8.53609],[179.18319,-8.53613],[179.18315,-8.53618],[179.1831,-8.53622],[179.18304,-8.53627],[179.18298,-8.53632],[179.18293,-8.53636],[179.18287,-8.5364],[179.18276,-8.53647],[179.1827,-8.53651],[179.18264,-8.53654]]]},"properties":{"area_code":"funafuti","area_name":"Funafuti","area_unit_id":"tv-region-2017-geoboundaries-adm1-dissolved:funafuti","boundary_set_id":"tv-region-2017-geoboundaries-adm1-dissolved","boundary_level":"region","land_area_sq_km":1.88}},
{"type":"Feature","geometry":{"type":"MultiPolygon","coordinates":[[[[179.86597,-9.42765],[179.86362,-9.42888],[179.8615,-9.42963],[179.8611,-9.42906],[179.86077,-9.42927],[179.8626,-9.43216],[179.86311,-9.4327],[179.86414,-9.43252],[179.86421,-9.43317],[179.86329,-9.43425],[179.86373,-9.43516],[179.86659,-9.43335],[179.86754,-9.43169],[179.86783,-9.43014],[179.86787,-9.42898],[179.86959,-9.42281],[179.87025,-9.42151],[179.87102,-9.41703],[179.87127,-9.41411],[179.87113,-9.41083],[179.87076,-9.4074],[179.87028,-9.40462],[179.86952,-9.40234],[179.86834,-9.39956],[179.86699,-9.39613],[179.86549,-9.39357],[179.86399,-9.39115],[179.86176,-9.38812],[179.86018,-9.3862],[179.85733,-9.38389],[179.85528,-9.38527],[179.85539,-9.38581],[179.8577,-9.38592],[179.85872,-9.38667],[179.85986,-9.38826],[179.86168,-9.3901],[179.86348,-9.39259],[179.8649,-9.39545],[179.86611,-9.39833],[179.86637,-9.4],[179.8671,-9.40097],[179.86853,-9.40364],[179.86948,-9.40646],[179.8697,-9.40895],[179.86977,-9.41303],[179.86952,-9.41649],[179.86867,-9.42064],[179.8667,-9.42653],[179.86597,-9.42765]]],[[[179.81038,-9.37002],[179.81104,-9.36887],[179.81148,-9.36822],[179.81049,-9.36782],[179.80899,-9.36865],[179.80782,-9.36955],[179.80731,-9.37071],[179.80724,-9.37262],[179.80757,-9.3741],[179.80823,-9.37569],[179.80724,-9.37565],[179.80629,-9.3749],[179.80468,-9.37313],[179.80413,-9.37165],[179.80468,-9.36832],[179.80475,-9.36666],[179.80427,-9.36641],[179.8038,-9.36702],[179.80303,-9.3706],[179.80285,-9.37251],[179.80318,-9.37407],[179.80449,-9.37573],[179.80585,-9.37789],[179.80684,-9.37677],[179.80899,-9.38013],[179.80888,-9.38114],[179.81028,-9.3823],[179.81269,-9.38356],[179.81609,-9.38486],[179.8192,-9.38674],[179.82294,-9.38988],[179.82557,-9.39244],[179.82839,-9.39609],[179.83227,-9.40186],[179.83432,-9.40493],[179.83615,-9.40786],[179.83831,-9.41168],[179.83801,-9.40988],[179.83724,-9.40807],[179.83483,-9.40417],[179.83417,-9.40223],[179.83212,-9.39916],[179.82784,-9.39352],[179.82557,-9.39085],[179.82319,-9.38836],[179.81983,-9.38583],[179.81752,-9.38439],[179.81895,-9.38197],[179.81858,-9.38179],[179.81694,-9.38385],[179.81038,-9.38118],[179.81192,-9.37937],[179.81189,-9.37782],[179.81112,-9.37688],[179.81017,-9.37656],[179.80969,-9.37601],[179.80932,-9.37475],[179.80947,-9.37313],[179.80987,-9.37147],[179.81038,-9.37002]]],[[[178.39532,-8.02496],[178.39541,-8.02474],[178.3957,-8.02422],[178.39597,-8.02362],[178.3962,-8.02322],[178.39638,-8.02279],[178.39652,-8.02237],[178.39685,-8.02161],[178.39741,-8.02056],[178.39762,-8.02008],[178.39777,-8.01963],[178.39826,-8.01867],[178.39842,-8.01832],[178.39855,-8.01781],[178.39867,-8.01721],[178.39893,-8.01635],[178.39896,-8.01612],[178.3989,-8.01598],[178.39891,-8.01587],[178.39898,-8.01578],[178.39902,-8.01571],[178.399,-8.01568],[178.39893,-8.01577],[178.39886,-8.01584],[178.39875,-8.01608],[178.39874,-8.01617],[178.39862,-8.01636],[178.39848,-8.01672],[178.3984,-8.01688],[178.39826,-8.01707],[178.39814,-8.01723],[178.3981,-8.01743],[178.39811,-8.01773],[178.39808,-8.01788],[178.39793,-8.01839],[178.39766,-8.01897],[178.39739,-8.01953],[178.39702,-8.02021],[178.39679,-8.02068],[178.39659,-8.02107],[178.39631,-8.02158],[178.39602,-8.02216],[178.39586,-8.02245],[178.39573,-8.02249],[178.3957,-8.02262],[178.39571,-8.02278],[178.39572,-8.02296],[178.39567,-8.02331],[178.39554,-8.02379],[178.39524,-8.02429],[178.39475,-8.02495],[178.39399,-8.02596],[178.3935,-8.02672],[178.39261,-8.02786],[178.3919,-8.02869],[178.39138,-8.02922],[178.39127,-8.02938],[178.39091,-8.03002],[178.3904,-8.03094],[178.3901,-8.03151],[178.38926,-8.03295],[178.38892,-8.03335],[178.38877,-8.03344],[178.38851,-8.03372],[178.38829,-8.03392],[178.38804,-8.03421],[178.38786,-8.03445],[178.38773,-8.03471],[178.38774,-8.03482],[178.38769,-8.0351],[178.3875,-8.03541],[178.38731,-8.03559],[178.387,-8.036],[178.38661,-8.03656],[178.38616,-8.03724],[178.38605,-8.03747],[178.38591,-8.03771],[178.3858,-8.03804],[178.38568,-8.03815],[178.38564,-8.03832],[178.38563,-8.03857],[178.38561,-8.03883],[178.38548,-8.03932],[178.38531,-8.03981],[178.38517,-8.04019],[178.38506,-8.04059],[178.38507,-8.04088],[178.38514,-8.04113],[178.38509,-8.04136],[178.38504,-8.04163],[178.38504,-8.04198],[178.38506,-8.04234],[178.38505,-8.04258],[178.38496,-8.04276],[178.38491,-8.04313],[178.3849,-8.0435],[178.38493,-8.04371],[178.38509,-8.04401],[178.38516,-8.04442],[178.38511,-8.04493],[178.38505,-8.04529],[178.38492,-8.04558],[178.38479,-8.04567],[178.38469,-8.04569],[178.38468,-8.04585],[178.38474,-8.04595],[178.38477,-8.0461],[178.38464,-8.04641],[178.38358,-8.0481],[178.38271,-8.04953],[178.38227,-8.0502],[178.38205,-8.0505],[178.38176,-8.05074],[178.38158,-8.051],[178.38147,-8.05106],[178.38137,-8.05111],[178.38134,-8.05124],[178.38136,-8.05139],[178.38143,-8.05146],[178.38154,-8.05152],[178.38165,-8.05152],[178.38172,-8.05161],[178.38169,-8.05177],[178.38158,-8.05197],[178.38141,-8.05212],[178.38131,-8.05236],[178.38117,-8.05252],[178.38107,-8.05268],[178.38104,-8.05281],[178.38089,-8.05305],[178.3806,-8.05347],[178.38046,-8.05363],[178.38038,-8.05367],[178.38036,-8.05374],[178.38038,-8.05384],[178.38036,-8.05392],[178.38032,-8.0541],[178.38034,-8.05424],[178.38026,-8.05436],[178.3801,-8.05461],[178.37979,-8.05521],[178.37971,-8.05542],[178.37967,-8.05566],[178.37956,-8.05602],[178.37954,-8.05631],[178.37942,-8.05663],[178.37936,-8.05695],[178.3791,-8.05758],[178.37903,-8.05791],[178.37897,-8.05842],[178.37897,-8.05891],[178.37891,-8.05938],[178.37888,-8.0595],[178.37877,-8.05964],[178.37761,-8.06063],[178.3757,-8.06218],[178.37546,-8.06238],[178.37528,-8.0625],[178.37501,-8.06257],[178.37382,-8.06304],[178.37334,-8.06328],[178.37306,-8.06352],[178.37292,-8.06362],[178.37287,-8.06379],[178.37273,-8.06391],[178.37246,-8.06407],[178.37239,-8.0641],[178.37229,-8.06407],[178.37211,-8.06397],[178.3719,-8.06391],[178.37172,-8.06389],[178.37161,-8.06391],[178.37151,-8.06399],[178.37149,-8.06409],[178.37151,-8.06418],[178.37157,-8.06429],[178.37169,-8.06445],[178.37182,-8.06468],[178.37184,-8.06482],[178.37186,-8.06487],[178.37197,-8.0649],[178.37208,-8.06485],[178.37229,-8.06485],[178.37243,-8.06484],[178.37259,-8.06491],[178.37275,-8.06507],[178.37287,-8.06531],[178.37291,-8.0655],[178.37289,-8.06559],[178.37294,-8.06562],[178.37306,-8.06562],[178.37322,-8.06561],[178.37339,-8.06565],[178.37356,-8.06567],[178.37378,-8.06572],[178.37401,-8.06586],[178.37422,-8.06598],[178.37436,-8.06618],[178.37453,-8.06651],[178.37455,-8.06664],[178.3745,-8.06679],[178.37456,-8.06683],[178.37461,-8.06691],[178.37477,-8.06721],[178.37481,-8.06734],[178.37476,-8.06738],[178.37476,-8.06763],[178.37476,-8.06793],[178.37482,-8.06808],[178.37483,-8.06818],[178.37489,-8.0683],[178.37491,-8.06849],[178.37491,-8.06868],[178.37487,-8.06881],[178.37475,-8.06888],[178.37455,-8.06918],[178.37416,-8.06966],[178.37395,-8.06989],[178.37384,-8.07002],[178.3738,-8.07017],[178.37383,-8.07034],[178.37394,-8.07054],[178.37404,-8.07069],[178.37421,-8.07087],[178.37435,-8.07106],[178.3744,-8.07127],[178.37442,-8.07142],[178.3745,-8.0716],[178.3748,-8.07217],[178.37502,-8.07254],[178.37544,-8.07317],[178.37569,-8.07344],[178.37599,-8.07362],[178.3761,-8.07367],[178.37637,-8.07383],[178.37654,-8.07393],[178.37683,-8.07408],[178.37721,-8.07419],[178.3776,-8.07427],[178.37794,-8.07431],[178.37815,-8.0743],[178.37864,-8.07409],[178.37921,-8.07374],[178.37959,-8.07326],[178.37979,-8.07287],[178.37995,-8.07247],[178.37999,-8.07225],[178.37994,-8.07207],[178.38004,-8.07138],[178.38016,-8.07102],[178.38024,-8.07072],[178.38026,-8.07038],[178.38032,-8.06989],[178.38043,-8.06943],[178.38056,-8.06882],[178.38053,-8.06871],[178.38059,-8.06836],[178.38061,-8.06807],[178.3807,-8.06758],[178.38072,-8.06692],[178.38065,-8.06605],[178.38035,-8.06429],[178.38012,-8.06288],[178.37998,-8.06195],[178.37987,-8.06092],[178.37987,-8.05958],[178.37991,-8.0587],[178.38001,-8.05764],[178.38015,-8.05693],[178.38031,-8.05607],[178.38056,-8.05536],[178.38091,-8.05425],[178.38121,-8.05356],[178.38172,-8.05266],[178.38218,-8.05198],[178.38252,-8.05159],[178.38317,-8.05103],[178.38388,-8.05038],[178.38454,-8.04962],[178.38521,-8.04841],[178.38536,-8.04813],[178.38547,-8.04795],[178.38546,-8.04778],[178.38551,-8.04746],[178.38564,-8.04715],[178.38569,-8.04691],[178.38569,-8.04671],[178.38577,-8.04597],[178.38581,-8.04564],[178.3858,-8.04524],[178.38578,-8.04449],[178.38578,-8.04364],[178.38566,-8.04288],[178.38563,-8.04247],[178.38561,-8.0416],[178.38563,-8.04119],[178.38571,-8.04022],[178.38576,-8.03976],[178.3859,-8.03927],[178.38617,-8.03859],[178.38646,-8.03792],[178.38687,-8.0371],[178.38729,-8.03642],[178.38805,-8.03544],[178.38832,-8.03508],[178.38909,-8.03421],[178.38993,-8.03327],[178.39045,-8.03246],[178.39067,-8.03224],[178.39094,-8.03204],[178.39104,-8.03188],[178.3911,-8.03168],[178.39132,-8.03138],[178.39273,-8.02939],[178.39323,-8.02864],[178.39359,-8.02809],[178.3938,-8.02772],[178.39429,-8.02708],[178.39446,-8.02678],[178.39477,-8.02606],[178.39487,-8.02595],[178.3952,-8.02548],[178.39532,-8.02496]]],[[[178.66449,-7.45907],[178.66396,-7.4596],[178.66319,-7.46028],[178.66294,-7.46095],[178.66284,-7.4621],[178.66293,-7.46387],[178.66298,-7.46417],[178.6632,-7.46459],[178.66356,-7.46498],[178.66384,-7.4652],[178.66394,-7.46536],[178.66405,-7.46568],[178.67176,-7.47883],[178.6742,-7.4828],[178.67786,-7.48823],[178.67862,-7.4907],[178.67863,-7.49091],[178.67868,-7.49101],[178.67875,-7.4911],[178.6788,-7.49117],[178.67884,-7.49128],[178.67922,-7.493],[178.67933,-7.49334],[178.6795,-7.49365],[178.67989,-7.49428],[178.68077,-7.49558],[178.68089,-7.4958],[178.68103,-7.49605],[178.68117,-7.49633],[178.68124,-7.4966],[178.68128,-7.49689],[178.68126,-7.49716],[178.68114,-7.49731],[178.68113,-7.49747],[178.68114,-7.49762],[178.68121,-7.49786],[178.68138,-7.49814],[178.68186,-7.49851],[178.68233,-7.49844],[178.68266,-7.4984],[178.68336,-7.49846],[178.68402,-7.4986],[178.68428,-7.49869],[178.68465,-7.49872],[178.68523,-7.49868],[178.68543,-7.49862],[178.6856,-7.49871],[178.68596,-7.49902],[178.68631,-7.49911],[178.68699,-7.49911],[178.68759,-7.49893],[178.68819,-7.49865],[178.68887,-7.49806],[178.69011,-7.49707],[178.6904,-7.49698],[178.69098,-7.49647],[178.69126,-7.49605],[178.69141,-7.49595],[178.69159,-7.49582],[178.69166,-7.49553],[178.69185,-7.49541],[178.69227,-7.49478],[178.69269,-7.49415],[178.69346,-7.4934],[178.6951,-7.49094],[178.696,-7.48972],[178.69663,-7.48904],[178.69697,-7.48893],[178.69726,-7.48877],[178.69742,-7.48833],[178.69728,-7.48813],[178.69695,-7.48795],[178.69656,-7.48804],[178.69636,-7.48787],[178.69613,-7.48761],[178.69592,-7.48729],[178.69584,-7.48687],[178.69587,-7.48653],[178.69591,-7.48611],[178.69591,-7.48562],[178.69575,-7.48503],[178.69565,-7.48438],[178.69546,-7.48382],[178.69463,-7.48319],[178.69391,-7.48238],[178.69341,-7.48121],[178.69265,-7.48143],[178.69249,-7.48103],[178.69221,-7.4808],[178.69143,-7.48024],[178.69047,-7.47944],[178.68878,-7.47816],[178.6883,-7.47779],[178.68816,-7.47782],[178.68795,-7.47801],[178.68776,-7.47813],[178.68753,-7.47817],[178.68727,-7.47811],[178.68713,-7.47804],[178.68695,-7.47831],[178.68653,-7.47912],[178.68643,-7.47945],[178.68637,-7.47943],[178.68624,-7.47945],[178.68608,-7.47958],[178.68577,-7.47953],[178.68534,-7.47934],[178.68503,-7.47914],[178.6846,-7.47882],[178.68423,-7.47844],[178.68407,-7.47825],[178.68384,-7.47815],[178.68355,-7.47816],[178.68318,-7.47827],[178.68279,-7.47842],[178.68249,-7.47868],[178.68234,-7.47893],[178.68226,-7.47917],[178.68207,-7.47978],[178.68195,-7.48002],[178.6819,-7.48035],[178.68194,-7.48046],[178.68213,-7.48061],[178.68227,-7.48072],[178.6825,-7.48087],[178.68272,-7.48106],[178.68284,-7.48124],[178.68304,-7.48154],[178.68312,-7.48175],[178.68327,-7.4819],[178.68357,-7.48201],[178.68401,-7.48193],[178.68455,-7.48195],[178.68487,-7.48201],[178.68515,-7.48207],[178.6854,-7.4822],[178.68552,-7.48263],[178.68559,-7.48305],[178.6857,-7.48323],[178.68577,-7.48375],[178.68592,-7.48413],[178.6862,-7.48448],[178.68635,-7.48462],[178.68657,-7.48479],[178.68686,-7.4851],[178.68717,-7.48567],[178.68737,-7.48642],[178.68729,-7.48696],[178.68706,-7.48735],[178.68668,-7.48788],[178.68646,-7.48814],[178.68622,-7.48829],[178.68622,-7.48844],[178.68574,-7.48947],[178.68491,-7.49021],[178.68408,-7.4905],[178.68312,-7.49062],[178.68238,-7.49051],[178.68161,-7.48994],[178.68152,-7.48977],[178.68125,-7.48928],[178.6812,-7.48913],[178.68114,-7.48889],[178.68107,-7.48846],[178.68097,-7.48808],[178.68088,-7.48774],[178.68069,-7.48735],[178.68054,-7.48727],[178.68048,-7.487],[178.67999,-7.48595],[178.67951,-7.48446],[178.67932,-7.48421],[178.67908,-7.48387],[178.67898,-7.48367],[178.67898,-7.48336],[178.67901,-7.48309],[178.67895,-7.48294],[178.67882,-7.48277],[178.67873,-7.48251],[178.67865,-7.48223],[178.67858,-7.48212],[178.67815,-7.4818],[178.67779,-7.48148],[178.67755,-7.48137],[178.67743,-7.48127],[178.67741,-7.48112],[178.67728,-7.48106],[178.67721,-7.48092],[178.67719,-7.48062],[178.6773,-7.48029],[178.67751,-7.47991],[178.67779,-7.47969],[178.67798,-7.47947],[178.6784,-7.47917],[178.67854,-7.47909],[178.67875,-7.479],[178.67889,-7.47898],[178.67898,-7.479],[178.67905,-7.47904],[178.67913,-7.47916],[178.67922,-7.47938],[178.6793,-7.47959],[178.67942,-7.47968],[178.67961,-7.47969],[178.67973,-7.47968],[178.67982,-7.47956],[178.67984,-7.47945],[178.67991,-7.47883],[178.68074,-7.4779],[178.68093,-7.4777],[178.68102,-7.47742],[178.681,-7.47718],[178.68114,-7.47684],[178.68127,-7.47659],[178.68125,-7.47655],[178.68129,-7.47645],[178.68134,-7.47642],[178.68139,-7.47632],[178.68134,-7.47622],[178.68133,-7.4761],[178.6813,-7.47605],[178.68127,-7.47606],[178.68119,-7.47621],[178.68113,-7.47633],[178.6811,-7.47647],[178.68103,-7.47655],[178.68085,-7.47648],[178.68073,-7.47635],[178.68067,-7.47619],[178.68065,-7.47603],[178.68073,-7.47589],[178.68078,-7.47576],[178.68077,-7.47565],[178.68069,-7.47565],[178.68057,-7.47584],[178.68047,-7.47599],[178.68038,-7.4761],[178.68028,-7.4761],[178.68013,-7.47604],[178.6798,-7.47578],[178.67942,-7.4754],[178.6793,-7.47526],[178.67925,-7.47515],[178.67925,-7.47504],[178.67983,-7.47401],[178.67992,-7.47371],[178.68011,-7.47326],[178.68035,-7.47298],[178.68068,-7.47275],[178.68087,-7.47216],[178.68072,-7.47172],[178.68076,-7.4715],[178.68065,-7.47129],[178.68057,-7.47126],[178.68028,-7.47119],[178.68018,-7.4709],[178.68023,-7.47068],[178.68001,-7.47051],[178.67979,-7.47048],[178.67962,-7.4702],[178.67929,-7.46974],[178.67901,-7.46932],[178.67897,-7.46913],[178.67871,-7.46892],[178.67851,-7.46886],[178.67818,-7.46871],[178.67786,-7.46844],[178.67756,-7.46816],[178.67696,-7.46787],[178.67646,-7.46752],[178.67481,-7.46604],[178.67374,-7.46498],[178.67237,-7.46353],[178.67107,-7.46226],[178.67086,-7.46187],[178.67068,-7.46148],[178.67065,-7.46109],[178.67055,-7.46085],[178.6704,-7.46053],[178.67042,-7.46027],[178.67047,-7.46002],[178.67046,-7.45979],[178.6704,-7.45965],[178.67004,-7.45963],[178.66978,-7.45966],[178.66965,-7.45978],[178.66942,-7.46012],[178.66911,-7.46021],[178.66879,-7.46039],[178.66847,-7.4605],[178.66819,-7.46047],[178.66784,-7.4606],[178.6677,-7.46072],[178.66745,-7.46093],[178.66712,-7.46114],[178.66659,-7.46156],[178.66645,-7.46169],[178.66637,-7.46185],[178.66631,-7.4621],[178.6663,-7.46225],[178.66641,-7.46235],[178.66668,-7.46232],[178.66693,-7.46227],[178.66719,-7.46235],[178.66731,-7.46252],[178.66743,-7.46322],[178.66737,-7.46343],[178.66715,-7.46379],[178.66679,-7.46408],[178.66625,-7.46436],[178.66613,-7.46447],[178.66605,-7.46472],[178.66604,-7.46516],[178.66557,-7.46503],[178.66531,-7.46468],[178.6648,-7.46442],[178.66455,-7.46414],[178.66405,-7.46345],[178.66389,-7.46308],[178.66386,-7.46269],[178.66399,-7.46221],[178.66398,-7.46198],[178.66389,-7.46172],[178.66376,-7.46136],[178.66376,-7.46104],[178.66393,-7.46047],[178.66399,-7.4601],[178.66441,-7.45969],[178.66468,-7.45936],[178.66492,-7.45908],[178.66516,-7.45883],[178.66537,-7.4588],[178.6657,-7.45861],[178.66591,-7.4586],[178.66631,-7.45865],[178.66641,-7.45873],[178.66642,-7.45893],[178.66634,-7.45941],[178.66628,-7.45965],[178.66615,-7.45981],[178.66619,-7.46007],[178.66648,-7.46038],[178.66729,-7.46025],[178.668,-7.46008],[178.66837,-7.4599],[178.66855,-7.45967],[178.66875,-7.45946],[178.66892,-7.45932],[178.66899,-7.45919],[178.66904,-7.45903],[178.66904,-7.45891],[178.66892,-7.45874],[178.66883,-7.45866],[178.66859,-7.45856],[178.66752,-7.45829],[178.66658,-7.458],[178.66629,-7.45796],[178.66587,-7.45806],[178.66547,-7.45827],[178.66497,-7.45863],[178.66449,-7.45907]]],[[[177.14521,-7.24774],[177.14532,-7.24791],[177.14548,-7.24813],[177.14564,-7.24827],[177.14599,-7.24862],[177.14638,-7.24888],[177.14675,-7.24918],[177.14704,-7.24941],[177.14727,-7.24963],[177.14743,-7.24984],[177.14759,-7.24997],[177.14779,-7.25012],[177.14829,-7.25036],[177.14841,-7.25042],[177.1485,-7.25048],[177.14884,-7.25062],[177.14919,-7.25074],[177.14956,-7.25088],[177.14995,-7.25102],[177.15042,-7.25116],[177.15064,-7.25126],[177.15099,-7.25135],[177.15117,-7.25147],[177.15143,-7.25155],[177.1517,-7.25162],[177.15199,-7.25173],[177.15231,-7.2518],[177.15245,-7.25182],[177.15258,-7.25189],[177.15279,-7.25197],[177.15329,-7.25216],[177.15367,-7.25225],[177.15407,-7.25231],[177.15452,-7.25242],[177.15498,-7.25252],[177.15553,-7.25265],[177.1561,-7.25274],[177.15659,-7.25283],[177.15709,-7.25288],[177.1576,-7.25292],[177.15815,-7.25292],[177.15861,-7.25291],[177.15928,-7.25287],[177.15986,-7.25279],[177.16038,-7.25266],[177.16077,-7.25249],[177.16157,-7.25206],[177.16193,-7.25183],[177.162,-7.25174],[177.16227,-7.25156],[177.16235,-7.2515],[177.16253,-7.25145],[177.16274,-7.25132],[177.16287,-7.25117],[177.163,-7.25099],[177.16313,-7.25079],[177.16336,-7.25062],[177.16353,-7.25048],[177.16362,-7.25031],[177.16371,-7.25013],[177.16383,-7.25004],[177.16399,-7.24989],[177.16418,-7.24968],[177.16415,-7.24949],[177.16421,-7.24927],[177.1643,-7.24905],[177.16436,-7.24892],[177.16434,-7.2488],[177.16439,-7.24867],[177.16436,-7.24856],[177.16442,-7.24849],[177.16442,-7.24835],[177.16446,-7.2482],[177.16446,-7.24802],[177.16449,-7.24789],[177.16459,-7.24774],[177.16461,-7.24748],[177.16461,-7.24731],[177.16467,-7.24715],[177.1647,-7.24706],[177.1647,-7.24694],[177.16472,-7.24686],[177.16482,-7.24671],[177.16487,-7.24659],[177.16486,-7.24645],[177.16488,-7.24628],[177.16492,-7.2461],[177.16502,-7.24595],[177.16512,-7.24583],[177.16518,-7.24566],[177.16517,-7.24558],[177.16527,-7.24552],[177.16535,-7.24537],[177.16547,-7.24507],[177.16553,-7.24495],[177.16557,-7.2448],[177.16559,-7.24464],[177.16575,-7.24452],[177.16583,-7.24442],[177.1659,-7.24433],[177.16589,-7.24412],[177.16582,-7.24395],[177.16575,-7.24386],[177.16556,-7.24381],[177.16539,-7.24387],[177.16524,-7.24385],[177.16512,-7.24376],[177.16504,-7.24365],[177.165,-7.2436],[177.16503,-7.24348],[177.16498,-7.2434],[177.1649,-7.2434],[177.16475,-7.24321],[177.1646,-7.243],[177.16449,-7.24282],[177.16445,-7.24263],[177.16443,-7.24246],[177.16443,-7.24231],[177.16444,-7.24221],[177.16444,-7.24202],[177.16443,-7.24189],[177.16443,-7.24178],[177.1644,-7.24169],[177.16437,-7.24158],[177.16427,-7.24144],[177.16424,-7.2414],[177.16421,-7.24135],[177.16409,-7.24129],[177.16397,-7.24127],[177.16393,-7.24123],[177.16385,-7.24121],[177.16378,-7.24117],[177.16375,-7.24114],[177.16372,-7.24116],[177.16372,-7.24122],[177.16368,-7.24125],[177.16363,-7.24129],[177.1636,-7.24136],[177.16355,-7.24138],[177.16347,-7.24144],[177.16342,-7.24149],[177.16339,-7.24156],[177.16332,-7.24159],[177.16333,-7.24164],[177.16339,-7.24168],[177.16342,-7.24173],[177.16348,-7.24172],[177.16352,-7.2417],[177.16354,-7.24176],[177.16353,-7.24182],[177.16356,-7.24187],[177.16355,-7.24191],[177.16352,-7.24193],[177.16346,-7.24196],[177.16341,-7.24197],[177.16337,-7.24199],[177.16335,-7.24204],[177.16331,-7.24207],[177.16331,-7.2421],[177.16327,-7.24214],[177.16323,-7.24218],[177.16325,-7.24221],[177.1633,-7.2422],[177.16337,-7.24223],[177.16335,-7.24226],[177.16332,-7.24228],[177.1633,-7.24223],[177.16324,-7.24226],[177.16322,-7.24229],[177.1632,-7.24232],[177.16316,-7.24233],[177.16316,-7.24237],[177.16319,-7.24245],[177.16325,-7.2425],[177.16335,-7.24253],[177.1634,-7.24252],[177.16346,-7.24253],[177.1635,-7.24249],[177.16353,-7.24251],[177.16355,-7.24256],[177.1636,-7.24255],[177.16365,-7.24256],[177.16369,-7.2426],[177.16362,-7.24263],[177.1636,-7.24268],[177.16364,-7.24273],[177.16368,-7.24277],[177.16364,-7.24283],[177.16366,-7.24287],[177.16371,-7.24285],[177.16376,-7.24285],[177.16381,-7.24291],[177.16379,-7.24296],[177.16374,-7.243],[177.16365,-7.24307],[177.16363,-7.24311],[177.16355,-7.24322],[177.1635,-7.2433],[177.1634,-7.2434],[177.16329,-7.24352],[177.1632,-7.24364],[177.16314,-7.24375],[177.1631,-7.24381],[177.16306,-7.24385],[177.16303,-7.24392],[177.16297,-7.24396],[177.16292,-7.24401],[177.16286,-7.2441],[177.16279,-7.24419],[177.16273,-7.24423],[177.16267,-7.24434],[177.16263,-7.24444],[177.16264,-7.24449],[177.16267,-7.24454],[177.16261,-7.24459],[177.16253,-7.24464],[177.16249,-7.24474],[177.16248,-7.2448],[177.16244,-7.24484],[177.16236,-7.24499],[177.16231,-7.24512],[177.16229,-7.24532],[177.16227,-7.24553],[177.16225,-7.24572],[177.16222,-7.24582],[177.16218,-7.24597],[177.16211,-7.24615],[177.16207,-7.24622],[177.16203,-7.24629],[177.16202,-7.2464],[177.16205,-7.2465],[177.16213,-7.24661],[177.16215,-7.24679],[177.16213,-7.24694],[177.16215,-7.24712],[177.16215,-7.24722],[177.16212,-7.24734],[177.16213,-7.24745],[177.16213,-7.24758],[177.16214,-7.24769],[177.1622,-7.24772],[177.16226,-7.24777],[177.16234,-7.24775],[177.1624,-7.24778],[177.16245,-7.24789],[177.16245,-7.248],[177.16244,-7.24811],[177.16236,-7.24816],[177.16245,-7.24825],[177.16264,-7.24825],[177.16279,-7.2483],[177.16286,-7.24838],[177.16283,-7.24845],[177.16281,-7.24856],[177.16278,-7.2487],[177.16274,-7.2488],[177.16267,-7.24891],[177.16264,-7.24895],[177.16253,-7.24896],[177.16245,-7.24891],[177.16233,-7.2489],[177.16224,-7.24886],[177.16213,-7.24883],[177.16214,-7.24892],[177.16227,-7.24901],[177.16233,-7.24912],[177.16233,-7.24921],[177.16223,-7.24923],[177.16212,-7.24922],[177.16208,-7.24927],[177.16209,-7.24938],[177.16214,-7.2495],[177.16222,-7.24959],[177.16225,-7.24968],[177.16223,-7.24974],[177.16215,-7.24979],[177.16207,-7.24984],[177.16195,-7.24991],[177.16185,-7.24989],[177.16181,-7.24981],[177.16168,-7.2498],[177.1615,-7.24979],[177.16133,-7.24972],[177.16112,-7.24962],[177.16096,-7.24943],[177.16079,-7.24917],[177.16075,-7.24905],[177.16068,-7.24897],[177.16058,-7.24895],[177.16056,-7.24902],[177.16062,-7.24906],[177.16059,-7.2491],[177.16048,-7.24912],[177.16035,-7.24915],[177.16019,-7.24916],[177.16011,-7.2492],[177.16003,-7.24917],[177.15987,-7.24928],[177.15984,-7.24935],[177.15978,-7.24934],[177.1598,-7.24929],[177.15971,-7.24932],[177.15962,-7.24938],[177.15966,-7.24944],[177.15962,-7.24951],[177.15932,-7.24956],[177.15924,-7.2496],[177.15906,-7.24957],[177.15904,-7.24946],[177.15895,-7.24942],[177.15886,-7.24934],[177.1588,-7.24938],[177.15865,-7.24939],[177.15855,-7.24945],[177.1585,-7.24949],[177.15831,-7.24948],[177.15834,-7.2494],[177.15829,-7.24934],[177.1582,-7.2493],[177.15814,-7.24934],[177.15811,-7.2495],[177.15806,-7.24956],[177.15793,-7.24955],[177.15786,-7.24957],[177.15775,-7.24957],[177.15769,-7.24962],[177.15745,-7.24954],[177.15726,-7.24946],[177.15704,-7.24931],[177.15705,-7.24922],[177.15709,-7.24914],[177.15709,-7.24908],[177.15701,-7.2491],[177.15694,-7.24906],[177.15686,-7.24907],[177.15679,-7.24904],[177.15674,-7.2491],[177.15666,-7.24911],[177.1565,-7.24902],[177.1565,-7.24893],[177.15647,-7.24886],[177.15641,-7.24883],[177.15633,-7.24889],[177.15625,-7.24883],[177.15616,-7.24877],[177.15596,-7.24879],[177.15585,-7.24885],[177.15565,-7.24884],[177.15553,-7.2488],[177.15545,-7.24866],[177.15559,-7.2486],[177.15564,-7.24851],[177.15559,-7.24844],[177.15537,-7.24843],[177.15525,-7.24844],[177.15512,-7.24846],[177.15502,-7.24852],[177.15492,-7.24846],[177.155,-7.24836],[177.15506,-7.24822],[177.15502,-7.24811],[177.15493,-7.24806],[177.15487,-7.24794],[177.15494,-7.24781],[177.15488,-7.2477],[177.15489,-7.24761],[177.15479,-7.24758],[177.1547,-7.24757],[177.15461,-7.24753],[177.15449,-7.24763],[177.1544,-7.24753],[177.15427,-7.24742],[177.15419,-7.24735],[177.15401,-7.2473],[177.15383,-7.24729],[177.1535,-7.24732],[177.1533,-7.24741],[177.15312,-7.24742],[177.15308,-7.24751],[177.15298,-7.24756],[177.15291,-7.2475],[177.15281,-7.24752],[177.15281,-7.24767],[177.15275,-7.24771],[177.15262,-7.24767],[177.15233,-7.24762],[177.15211,-7.24755],[177.15166,-7.24733],[177.15133,-7.24709],[177.15093,-7.24674],[177.15061,-7.24633],[177.15052,-7.24615],[177.15047,-7.24581],[177.15041,-7.24565],[177.1504,-7.24562],[177.15023,-7.2451],[177.15008,-7.2447],[177.15008,-7.24468],[177.15013,-7.24462],[177.15013,-7.24446],[177.15012,-7.24421],[177.15011,-7.24392],[177.15014,-7.24371],[177.15021,-7.24354],[177.15039,-7.24331],[177.15051,-7.24327],[177.15065,-7.24325],[177.15075,-7.24323],[177.15082,-7.24319],[177.15084,-7.2431],[177.15081,-7.2429],[177.15073,-7.24274],[177.15057,-7.24251],[177.15047,-7.24234],[177.15035,-7.24237],[177.15017,-7.24243],[177.14999,-7.24245],[177.14983,-7.24243],[177.14978,-7.24226],[177.14975,-7.2421],[177.14993,-7.24202],[177.15014,-7.24197],[177.15006,-7.24186],[177.15005,-7.24173],[177.14994,-7.24156],[177.14989,-7.24142],[177.14983,-7.24129],[177.14975,-7.24114],[177.14971,-7.2411],[177.14968,-7.24094],[177.14969,-7.24079],[177.14967,-7.24061],[177.14963,-7.24047],[177.14962,-7.24035],[177.14954,-7.24024],[177.14948,-7.24008],[177.14941,-7.23999],[177.14936,-7.23989],[177.14913,-7.23951],[177.14895,-7.23933],[177.14871,-7.23931],[177.14859,-7.23936],[177.14838,-7.23947],[177.14826,-7.23958],[177.14808,-7.23967],[177.14798,-7.23975],[177.14785,-7.23977],[177.14771,-7.2398],[177.14758,-7.23987],[177.14744,-7.24003],[177.14734,-7.24028],[177.14726,-7.24055],[177.14717,-7.24074],[177.14711,-7.24094],[177.14712,-7.24108],[177.14705,-7.24132],[177.14702,-7.2415],[177.14701,-7.24168],[177.14696,-7.24186],[177.14693,-7.24203],[177.14688,-7.24221],[177.14683,-7.24244],[177.14676,-7.24264],[177.14668,-7.24283],[177.14653,-7.24304],[177.14629,-7.24326],[177.14601,-7.24344],[177.14581,-7.24352],[177.14552,-7.24362],[177.14529,-7.24369],[177.14513,-7.24376],[177.14489,-7.24383],[177.14474,-7.24392],[177.14458,-7.24413],[177.14444,-7.24445],[177.14444,-7.24487],[177.14467,-7.24535],[177.14476,-7.24554],[177.14479,-7.24565],[177.14478,-7.24581],[177.14476,-7.24608],[177.14479,-7.24617],[177.14482,-7.24627],[177.14488,-7.24639],[177.14491,-7.24645],[177.1449,-7.24658],[177.14493,-7.24674],[177.14498,-7.24698],[177.14506,-7.24721],[177.14513,-7.24735],[177.1451,-7.24745],[177.14515,-7.24755],[177.14516,-7.24762],[177.14521,-7.24774]]],[[[176.32119,-6.27407],[176.32092,-6.27399],[176.32055,-6.27402],[176.31983,-6.27442],[176.31952,-6.27471],[176.31923,-6.27513],[176.31856,-6.27609],[176.31807,-6.27698],[176.3156,-6.28166],[176.31498,-6.2827],[176.31396,-6.28472],[176.31311,-6.28702],[176.31285,-6.28829],[176.31276,-6.28965],[176.313,-6.29089],[176.31417,-6.2935],[176.31512,-6.2953],[176.31618,-6.29694],[176.31721,-6.29848],[176.31837,-6.29992],[176.31901,-6.30068],[176.31931,-6.30101],[176.31962,-6.30124],[176.31995,-6.30139],[176.32038,-6.30141],[176.32134,-6.30129],[176.32183,-6.30098],[176.32218,-6.30057],[176.32321,-6.29893],[176.32387,-6.29762],[176.32509,-6.29507],[176.32585,-6.29333],[176.32598,-6.29308],[176.32628,-6.29271],[176.32646,-6.29212],[176.32652,-6.29113],[176.32648,-6.28985],[176.32655,-6.28738],[176.32659,-6.285],[176.32668,-6.28409],[176.32668,-6.28343],[176.32652,-6.28258],[176.32648,-6.28169],[176.32635,-6.28122],[176.32607,-6.28083],[176.32569,-6.28042],[176.32535,-6.27968],[176.32498,-6.27841],[176.32467,-6.27753],[176.32438,-6.27684],[176.32417,-6.27618],[176.32401,-6.27606],[176.32357,-6.2759],[176.32312,-6.27547],[176.32244,-6.27494],[176.32119,-6.27407]]],[[[177.34419,-6.10408],[177.34072,-6.10361],[177.33775,-6.10287],[177.33498,-6.10287],[177.33375,-6.10312],[177.33269,-6.10354],[177.33205,-6.10384],[177.33133,-6.10432],[177.33094,-6.10483],[177.33077,-6.10518],[177.33067,-6.10572],[177.33057,-6.1063],[177.33073,-6.10696],[177.33101,-6.10741],[177.33243,-6.10935],[177.33322,-6.11015],[177.3344,-6.11122],[177.33567,-6.11238],[177.33686,-6.11333],[177.33814,-6.11414],[177.3388,-6.11434],[177.33939,-6.1144],[177.34001,-6.11444],[177.34067,-6.11444],[177.34176,-6.11428],[177.34272,-6.11414],[177.34567,-6.11379],[177.34699,-6.11366],[177.34846,-6.11346],[177.35084,-6.11315],[177.35159,-6.11249],[177.35192,-6.11212],[177.35221,-6.11188],[177.35275,-6.11156],[177.3534,-6.11116],[177.3536,-6.11051],[177.35334,-6.10826],[177.35236,-6.1055],[177.35195,-6.10482],[177.35067,-6.10411],[177.34979,-6.10389],[177.34909,-6.10396],[177.34782,-6.10402],[177.34645,-6.10402],[177.34518,-6.10411],[177.34419,-6.10408]]],[[[176.11833,-5.67847],[176.11896,-5.67922],[176.11959,-5.68008],[176.12166,-5.68258],[176.12438,-5.68586],[176.12746,-5.68958],[176.12915,-5.69176],[176.13132,-5.69522],[176.13335,-5.69836],[176.13501,-5.70057],[176.13603,-5.70134],[176.13627,-5.70137],[176.13634,-5.70121],[176.13631,-5.70088],[176.136,-5.69981],[176.13469,-5.6968],[176.13352,-5.69435],[176.13247,-5.69149],[176.13177,-5.68864],[176.13167,-5.68805],[176.13075,-5.68376],[176.12925,-5.67917],[176.12673,-5.67276],[176.12553,-5.67011],[176.12351,-5.66646],[176.12134,-5.66345],[176.12095,-5.66275],[176.1208,-5.66234],[176.12054,-5.6621],[176.12023,-5.66216],[176.11989,-5.66241],[176.11953,-5.66266],[176.11921,-5.66301],[176.11908,-5.66335],[176.11922,-5.66424],[176.1195,-5.66527],[176.11987,-5.6663],[176.12065,-5.66762],[176.12105,-5.66841],[176.12087,-5.6696],[176.12066,-5.67032],[176.12058,-5.67082],[176.12061,-5.67143],[176.12119,-5.67217],[176.12205,-5.67258],[176.12269,-5.67338],[176.12317,-5.67396],[176.12392,-5.67476],[176.12417,-5.675],[176.12439,-5.67528],[176.12463,-5.67573],[176.12479,-5.67636],[176.12475,-5.67662],[176.12484,-5.67689],[176.12479,-5.6772],[176.12483,-5.67757],[176.12509,-5.67794],[176.12548,-5.67823],[176.12587,-5.67879],[176.12597,-5.67921],[176.12587,-5.68015],[176.12576,-5.68049],[176.12546,-5.6808],[176.12501,-5.68116],[176.12444,-5.68159],[176.12379,-5.68183],[176.12286,-5.68168],[176.1221,-5.68101],[176.12162,-5.68009],[176.12116,-5.67955],[176.12084,-5.67913],[176.12089,-5.67888],[176.11991,-5.67805],[176.11946,-5.67764],[176.11927,-5.67724],[176.11938,-5.67687],[176.1193,-5.67672],[176.11907,-5.67708],[176.11883,-5.67704],[176.11849,-5.6767],[176.11796,-5.6757],[176.11779,-5.6751],[176.11752,-5.67478],[176.1173,-5.67445],[176.11734,-5.67422],[176.11728,-5.67409],[176.1167,-5.67375],[176.11656,-5.67383],[176.1162,-5.67363],[176.11594,-5.67321],[176.11618,-5.67299],[176.11608,-5.67291],[176.11593,-5.67283],[176.11563,-5.67307],[176.11498,-5.67259],[176.11476,-5.67169],[176.11483,-5.67117],[176.1146,-5.67072],[176.11423,-5.6705],[176.11324,-5.67043],[176.11291,-5.67049],[176.11253,-5.67035],[176.11219,-5.67014],[176.11209,-5.66997],[176.11192,-5.66956],[176.1119,-5.66934],[176.11178,-5.66913],[176.1116,-5.66905],[176.11146,-5.66904],[176.11133,-5.66904],[176.11086,-5.66899],[176.11061,-5.66895],[176.11033,-5.66891],[176.11008,-5.66888],[176.10995,-5.66894],[176.1099,-5.66911],[176.11012,-5.66947],[176.11023,-5.66995],[176.1104,-5.67022],[176.1105,-5.67044],[176.11069,-5.67065],[176.1109,-5.67083],[176.11101,-5.67096],[176.11109,-5.6712],[176.11127,-5.67146],[176.11152,-5.6717],[176.1117,-5.67206],[176.11258,-5.67278],[176.11358,-5.67385],[176.1142,-5.67452],[176.11448,-5.67472],[176.11467,-5.67502],[176.11484,-5.67544],[176.11504,-5.67575],[176.11549,-5.67608],[176.11648,-5.67669],[176.1176,-5.6777],[176.11833,-5.67847]]],[[[176.07606,-5.6485],[176.07368,-5.64689],[176.0712,-5.6454],[176.0687,-5.64428],[176.06488,-5.64308],[176.06309,-5.64277],[176.06138,-5.64259],[176.0605,-5.64249],[176.05949,-5.64257],[176.05915,-5.64283],[176.05892,-5.64333],[176.05892,-5.64447],[176.05944,-5.64559],[176.06019,-5.64659],[176.06145,-5.64762],[176.06363,-5.64869],[176.0674,-5.65003],[176.06968,-5.65103],[176.07232,-5.65196],[176.0734,-5.65215],[176.07461,-5.65237],[176.07543,-5.65279],[176.07656,-5.65306],[176.07741,-5.65319],[176.07805,-5.65324],[176.07825,-5.6531],[176.07838,-5.65276],[176.07812,-5.65228],[176.07823,-5.65148],[176.07812,-5.65029],[176.07742,-5.64944],[176.0766,-5.64875],[176.07606,-5.6485]]]]},"properties":{"area_code":"outer-islands","area_name":"Outer Islands","area_unit_id":"tv-region-2017-geoboundaries-adm1-dissolved:outer-islands","boundary_set_id":"tv-region-2017-geoboundaries-adm1-dissolved","boundary_level":"region","land_area_sq_km":20}}
]}