{"type":"FeatureCollection","attribution":"© OpenStreetMap contributors, ODbL 1.0","features":[{"type":"Feature","geometry":{"type":"Point","coordinates":[-77.34315,25.07593]},"properties":{"osm_type":"way","osm_id":408486495,"name":"St Andrews Presbyterian Kirk","religion":"christian","denomination":"presbyterian","start_date":"1810","end_date":null,"start_year":1810,"end_year":null}},{"type":"Feature","geometry":{"type":"Point","coordinates":[-77.35895,25.0724]},"properties":{"osm_type":"way","osm_id":444210626,"name":"Holy Spirit Anglican Church","religion":"christian","denomination":"anglican","start_date":"1939","end_date":null,"start_year":1939,"end_year":null}}]}
