{"type":"FeatureCollection", "features": [
{"type":"Feature","geometry":{"type":"Polygon","coordinates":[[[-61.67338,12.16724],[-61.67447,12.16547],[-61.6755,12.16427],[-61.67704,12.16062],[-61.67698,12.15862],[-61.67784,12.15685],[-61.67881,12.15593],[-61.67978,12.15445],[-61.68172,12.15205],[-61.68252,12.14954],[-61.68503,12.14428],[-61.68657,12.14166],[-61.6868,12.14069],[-61.6876,12.13983],[-61.68777,12.1388],[-61.68863,12.138],[-61.6892,12.13663],[-61.6912,12.13383],[-61.6936,12.13126],[-61.6948,12.13029],[-61.69645,12.12835],[-61.69765,12.12767],[-61.69834,12.1267],[-61.70005,12.12498],[-61.69994,12.11533],[-61.70005,12.11133],[-61.70085,12.11008],[-61.70082,12.10924],[-61.70091,12.10665],[-61.70154,12.10562],[-61.70159,12.10157],[-61.70068,12.09906],[-61.70057,12.09631],[-61.69965,12.09357],[-61.69965,12.09026],[-61.69851,12.08752],[-61.69845,12.08158],[-61.69851,12.08004],[-61.69685,12.07696],[-61.69514,12.07347],[-61.69224,12.07427],[-61.69071,12.07516],[-61.68742,12.07523],[-61.68482,12.07512],[-61.68307,12.07534],[-61.68139,12.0752],[-61.67939,12.07541],[-61.67475,12.07555],[-61.67168,12.07355],[-61.67018,12.07277],[-61.66965,12.07284],[-61.66768,12.07131],[-61.66686,12.07109],[-61.66626,12.07013],[-61.66536,12.0702],[-61.66454,12.06934],[-61.6609,12.06777],[-61.6599,12.06692],[-61.65801,12.06606],[-61.65548,12.06438],[-61.65184,12.06263],[-61.64898,12.06006],[-61.64745,12.05913],[-61.64356,12.05571],[-61.64188,12.05396],[-61.64102,12.05403],[-61.63917,12.05225],[-61.63626,12.04991],[-61.63573,12.04918],[-61.63285,12.04891],[-61.63259,12.04968],[-61.6339,12.04968],[-61.63468,12.05033],[-61.63441,12.05098],[-61.63545,12.05227],[-61.63703,12.05215],[-61.6373,12.05371],[-61.6366,12.05475],[-61.63386,12.05442],[-61.63358,12.05586],[-61.63175,12.05555],[-61.63103,12.0557],[-61.63093,12.05655],[-61.63314,12.05871],[-61.63297,12.06064],[-61.63242,12.06136],[-61.63145,12.06173],[-61.6288,12.05931],[-61.62755,12.05983],[-61.62834,12.06059],[-61.62819,12.06191],[-61.62769,12.06243],[-61.62651,12.06199],[-61.62557,12.06352],[-61.62711,12.06478],[-61.62756,12.0662],[-61.62715,12.06716],[-61.62624,12.06826],[-61.62684,12.06861],[-61.62719,12.07005],[-61.62657,12.07146],[-61.62715,12.07345],[-61.62702,12.07451],[-61.62615,12.07561],[-61.62464,12.07656],[-61.62309,12.07668],[-61.62193,12.07509],[-61.62066,12.07527],[-61.61977,12.07455],[-61.61945,12.07642],[-61.61721,12.07709],[-61.61765,12.07812],[-61.61998,12.07971],[-61.62072,12.08149],[-61.62191,12.08291],[-61.62208,12.08519],[-61.62117,12.08549],[-61.62163,12.08626],[-61.62247,12.08666],[-61.62267,12.08761],[-61.62176,12.08947],[-61.62327,12.08996],[-61.62392,12.09134],[-61.62405,12.09247],[-61.6248,12.0926],[-61.62568,12.09377],[-61.62597,12.09531],[-61.62578,12.09637],[-61.6247,12.09802],[-61.6247,12.0999],[-61.62375,12.10138],[-61.62218,12.10204],[-61.62244,12.10248],[-61.6239,12.10286],[-61.62467,12.10384],[-61.62592,12.10481],[-61.62696,12.10497],[-61.62734,12.10554],[-61.62739,12.10713],[-61.6268,12.10981],[-61.62682,12.11175],[-61.62637,12.11283],[-61.62473,12.11495],[-61.62444,12.11749],[-61.62365,12.11952],[-61.62309,12.11974],[-61.6224,12.1215],[-61.62101,12.12327],[-61.61992,12.12401],[-61.61853,12.12456],[-61.61707,12.1244],[-61.61551,12.1248],[-61.61402,12.12427],[-61.61291,12.12336],[-61.612,12.1235],[-61.61053,12.12468],[-61.60781,12.12504],[-61.60709,12.12377],[-61.6061,12.12335],[-61.60475,12.12207],[-61.60361,12.12251],[-61.60369,12.12396],[-61.60296,12.12516],[-61.60292,12.12596],[-61.60347,12.12645],[-61.60695,12.12586],[-61.60769,12.12649],[-61.60886,12.12834],[-61.60957,12.1307],[-61.60974,12.13338],[-61.60908,12.13918],[-61.60939,12.14264],[-61.60896,12.14538],[-61.60907,12.14627],[-61.60847,12.15044],[-61.60731,12.15336],[-61.60723,12.15575],[-61.6063,12.15872],[-61.60594,12.16091],[-61.60607,12.16232],[-61.60524,12.1666],[-61.60424,12.16828],[-61.603,12.16819],[-61.602,12.1688],[-61.60224,12.16992],[-61.60282,12.17084],[-61.60295,12.17366],[-61.6056,12.17349],[-61.60655,12.17271],[-61.60975,12.17246],[-61.61089,12.17267],[-61.61188,12.17345],[-61.61452,12.17335],[-61.61542,12.1725],[-61.61641,12.1724],[-61.61736,12.17168],[-61.62511,12.17139],[-61.62775,12.17136],[-61.62812,12.17044],[-61.63251,12.17038],[-61.63331,12.16949],[-61.63487,12.16964],[-61.64123,12.16951],[-61.64207,12.17052],[-61.64378,12.17031],[-61.64709,12.17037],[-61.64909,12.17025],[-61.65195,12.17033],[-61.65322,12.17021],[-61.65368,12.16926],[-61.65652,12.16909],[-61.65676,12.16842],[-61.66101,12.16827],[-61.6619,12.16844],[-61.66206,12.16915],[-61.66286,12.16922],[-61.66565,12.16898],[-61.66754,12.16911],[-61.6691,12.169],[-61.66986,12.16821],[-61.67176,12.16812],[-61.67338,12.16724]]]},"properties":{"area_code":"GD-01","area_name":"Saint Andrew","area_unit_id":"gd-parish-2021-geoboundaries-adm1:GD-01","boundary_set_id":"gd-parish-2021-geoboundaries-adm1","boundary_level":"parish"}},
{"type":"Feature","geometry":{"type":"Polygon","coordinates":[[[-61.69514,12.07347],[-61.69697,12.07244],[-61.70114,12.07067],[-61.70473,12.0677],[-61.70553,12.06639],[-61.70571,12.06468],[-61.70565,12.06194],[-61.70645,12.06079],[-61.70633,12.05657],[-61.70725,12.0552],[-61.70736,12.05206],[-61.70816,12.05057],[-61.70822,12.04772],[-61.70913,12.04675],[-61.70902,12.04463],[-61.7097,12.04326],[-61.70982,12.04229],[-61.71073,12.04132],[-61.71085,12.04041],[-61.71164,12.03966],[-61.71267,12.03789],[-61.71342,12.0355],[-61.71324,12.03258],[-61.71427,12.03161],[-61.71427,12.03053],[-61.71496,12.02921],[-61.71496,12.02487],[-61.71507,12.02362],[-61.71227,12.01893],[-61.71088,12.01746],[-61.70976,12.0161],[-61.70953,12.01516],[-61.7098,12.01433],[-61.70913,12.0137],[-61.70932,12.01239],[-61.70843,12.01113],[-61.70744,12.01055],[-61.70669,12.00962],[-61.70554,12.00965],[-61.70473,12.00925],[-61.70297,12.0096],[-61.70237,12.00949],[-61.70149,12.00836],[-61.70091,12.00689],[-61.70044,12.00659],[-61.6991,12.0067],[-61.69877,12.00767],[-61.69754,12.00928],[-61.69824,12.0102],[-61.69947,12.01005],[-61.69984,12.01142],[-61.70056,12.01194],[-61.70199,12.01184],[-61.70309,12.01203],[-61.70342,12.01115],[-61.70659,12.01177],[-61.70823,12.01449],[-61.70792,12.01644],[-61.70739,12.01699],[-61.70546,12.01672],[-61.70446,12.01584],[-61.70229,12.01553],[-61.70078,12.01609],[-61.69982,12.01607],[-61.69849,12.01552],[-61.69776,12.01448],[-61.69588,12.01407],[-61.69521,12.01421],[-61.69343,12.01563],[-61.69364,12.01639],[-61.69281,12.01717],[-61.69187,12.01697],[-61.69096,12.01596],[-61.68952,12.01544],[-61.68799,12.01593],[-61.68691,12.01566],[-61.68575,12.01482],[-61.68512,12.01277],[-61.68405,12.01158],[-61.68295,12.0112],[-61.68324,12.01239],[-61.68399,12.01363],[-61.68383,12.01468],[-61.68452,12.01537],[-61.68478,12.01653],[-61.68454,12.01766],[-61.68478,12.01839],[-61.68348,12.01927],[-61.68155,12.01924],[-61.6809,12.02028],[-61.68029,12.02249],[-61.67893,12.02289],[-61.6781,12.02234],[-61.67663,12.01751],[-61.67682,12.01621],[-61.67605,12.01616],[-61.67515,12.017],[-61.67507,12.01764],[-61.67409,12.01878],[-61.67314,12.01889],[-61.67231,12.01775],[-61.67169,12.01888],[-61.67267,12.02057],[-61.67371,12.02065],[-61.67364,12.02215],[-61.67307,12.02335],[-61.67168,12.024],[-61.67051,12.02396],[-61.66981,12.02327],[-61.66972,12.02196],[-61.66843,12.0209],[-61.66757,12.01958],[-61.6664,12.02005],[-61.66605,12.02132],[-61.66519,12.02156],[-61.66374,12.021],[-61.6621,12.02321],[-61.66272,12.02418],[-61.66292,12.02552],[-61.66445,12.02698],[-61.66389,12.02754],[-61.66123,12.02743],[-61.66075,12.02607],[-61.65982,12.02509],[-61.65892,12.02653],[-61.65792,12.02665],[-61.6574,12.02623],[-61.65585,12.02604],[-61.65523,12.02716],[-61.65385,12.02663],[-61.65327,12.02714],[-61.65376,12.02805],[-61.65449,12.02848],[-61.65501,12.02979],[-61.65584,12.03024],[-61.65543,12.03139],[-61.65426,12.03203],[-61.65306,12.03106],[-61.65155,12.03091],[-61.64975,12.03268],[-61.64857,12.03335],[-61.64824,12.0327],[-61.64647,12.03313],[-61.64603,12.0344],[-61.64671,12.0359],[-61.64675,12.0368],[-61.64793,12.03644],[-61.64888,12.0368],[-61.65187,12.03722],[-61.65205,12.03833],[-61.6492,12.03835],[-61.64845,12.03904],[-61.64922,12.04066],[-61.64826,12.04141],[-61.64733,12.04091],[-61.64646,12.03999],[-61.64487,12.03918],[-61.64331,12.03804],[-61.6432,12.03876],[-61.64452,12.04027],[-61.64361,12.04098],[-61.64263,12.04067],[-61.641,12.04157],[-61.63928,12.04052],[-61.6394,12.04173],[-61.63908,12.04298],[-61.63776,12.04421],[-61.63595,12.0448],[-61.63585,12.04525],[-61.63729,12.04652],[-61.63703,12.04769],[-61.63741,12.04863],[-61.63626,12.04991],[-61.63917,12.05225],[-61.64102,12.05403],[-61.64188,12.05396],[-61.64356,12.05571],[-61.64745,12.05913],[-61.64898,12.06006],[-61.65184,12.06263],[-61.65548,12.06438],[-61.65801,12.06606],[-61.6599,12.06692],[-61.6609,12.06777],[-61.66454,12.06934],[-61.66536,12.0702],[-61.66626,12.07013],[-61.66686,12.07109],[-61.66768,12.07131],[-61.66965,12.07284],[-61.67018,12.07277],[-61.67168,12.07355],[-61.67475,12.07555],[-61.67939,12.07541],[-61.68139,12.0752],[-61.68307,12.07534],[-61.68482,12.07512],[-61.68742,12.07523],[-61.69071,12.07516],[-61.69224,12.07427],[-61.69514,12.07347]]]},"properties":{"area_code":"GD-02","area_name":"Saint David","area_unit_id":"gd-parish-2021-geoboundaries-adm1:GD-02","boundary_set_id":"gd-parish-2021-geoboundaries-adm1","boundary_level":"parish"}},
{"type":"Feature","geometry":{"type":"Polygon","coordinates":[[[-61.70082,12.10924],[-61.70238,12.10902],[-61.70342,12.1098],[-61.70485,12.11005],[-61.70906,12.1098],[-61.71027,12.10995],[-61.71416,12.10991],[-61.71491,12.11066],[-61.7162,12.10991],[-61.71763,12.10995],[-61.71937,12.11048],[-61.72084,12.11066],[-61.72262,12.11045],[-61.72441,12.11052],[-61.72837,12.11045],[-61.7294,12.10959],[-61.73312,12.10966],[-61.73751,12.10945],[-61.73925,12.10955],[-61.7409,12.10934],[-61.74591,12.10925],[-61.74632,12.10833],[-61.74716,12.10838],[-61.74783,12.10954],[-61.74957,12.10934],[-61.74964,12.10829],[-61.75152,12.10591],[-61.75243,12.10518],[-61.75297,12.10275],[-61.75364,12.10172],[-61.7534,12.10053],[-61.75243,12.09934],[-61.75248,12.09803],[-61.75358,12.09578],[-61.75407,12.09544],[-61.75634,12.09562],[-61.7559,12.0947],[-61.75657,12.09367],[-61.75561,12.09315],[-61.75539,12.09259],[-61.75613,12.09131],[-61.75726,12.09055],[-61.759,12.09082],[-61.7596,12.08981],[-61.76075,12.08946],[-61.76193,12.08842],[-61.76219,12.08741],[-61.7608,12.08592],[-61.7609,12.08519],[-61.7621,12.08427],[-61.76317,12.08404],[-61.76207,12.08222],[-61.76135,12.08263],[-61.7599,12.08191],[-61.75912,12.08014],[-61.75793,12.07855],[-61.75684,12.07798],[-61.75525,12.07805],[-61.75263,12.07455],[-61.7523,12.07332],[-61.75284,12.07195],[-61.75263,12.0707],[-61.75363,12.06959],[-61.75384,12.06879],[-61.7563,12.06515],[-61.75714,12.06408],[-61.75735,12.06323],[-61.75667,12.062],[-61.75526,12.06136],[-61.75498,12.06087],[-61.75442,12.05762],[-61.75465,12.055],[-61.75529,12.05401],[-61.75579,12.05086],[-61.7549,12.04992],[-61.75546,12.04922],[-61.75551,12.04794],[-61.75426,12.04778],[-61.7535,12.04805],[-61.75228,12.04983],[-61.75098,12.05104],[-61.75083,12.05207],[-61.74951,12.05237],[-61.74889,12.05186],[-61.74989,12.04977],[-61.75054,12.04949],[-61.74952,12.04661],[-61.74777,12.04694],[-61.74601,12.04613],[-61.74552,12.04476],[-61.74606,12.04352],[-61.74743,12.04249],[-61.74986,12.04302],[-61.74926,12.04505],[-61.75047,12.04545],[-61.75062,12.04605],[-61.75207,12.04514],[-61.75377,12.0403],[-61.75406,12.03876],[-61.75492,12.03695],[-61.75538,12.03467],[-61.75503,12.03402],[-61.75402,12.03344],[-61.75404,12.03231],[-61.75532,12.02943],[-61.75632,12.02787],[-61.75951,12.02555],[-61.76051,12.02515],[-61.76537,12.02269],[-61.7679,12.02176],[-61.77128,12.02233],[-61.77253,12.02305],[-61.7744,12.02369],[-61.77566,12.02446],[-61.77532,12.02319],[-61.77434,12.02227],[-61.77248,12.02198],[-61.77201,12.02148],[-61.77255,12.01956],[-61.77406,12.0181],[-61.77567,12.01915],[-61.77679,12.01812],[-61.7765,12.01757],[-61.77859,12.01587],[-61.77941,12.0157],[-61.77971,12.01471],[-61.78182,12.01315],[-61.78317,12.01253],[-61.78381,12.01186],[-61.785,12.01139],[-61.7858,12.01069],[-61.7879,12.01017],[-61.78828,12.00982],[-61.79258,12.0086],[-61.79445,12.00842],[-61.7949,12.00783],[-61.79649,12.00671],[-61.7974,12.00679],[-61.79794,12.00736],[-61.79869,12.00583],[-61.80029,12.00477],[-61.80134,12.00478],[-61.80242,12.00266],[-61.80178,12.00235],[-61.80084,12.00323],[-61.79892,12.00313],[-61.79843,12.00216],[-61.79642,12.00203],[-61.7921,12.00199],[-61.78941,12.00121],[-61.78838,12.00057],[-61.78748,11.99933],[-61.78513,11.99928],[-61.78542,12.00008],[-61.78494,12.00095],[-61.78472,12.00315],[-61.78067,12.00318],[-61.77992,12.00236],[-61.77852,12.00162],[-61.77829,12.00245],[-61.77688,12.0025],[-61.77588,12.00208],[-61.77645,11.99967],[-61.77536,11.9994],[-61.77447,11.99868],[-61.77445,11.99776],[-61.77357,11.99706],[-61.77314,11.99844],[-61.77197,11.99899],[-61.77072,11.99885],[-61.77095,12.00121],[-61.77012,12.00156],[-61.76903,12.00138],[-61.76836,12.00017],[-61.76846,11.99893],[-61.7669,11.99719],[-61.76715,11.99588],[-61.76768,11.9949],[-61.76756,11.99383],[-61.76648,11.99506],[-61.76651,11.99656],[-61.76574,11.99694],[-61.76617,11.99796],[-61.76556,11.99988],[-61.76612,12.00146],[-61.76574,12.00233],[-61.76622,12.00318],[-61.7661,12.00432],[-61.76525,12.00657],[-61.76386,12.00677],[-61.76341,12.00588],[-61.76389,12.00455],[-61.76309,12.00332],[-61.76297,12.0018],[-61.76179,12.00169],[-61.76087,12.0024],[-61.75946,12.00203],[-61.7583,12.00122],[-61.75804,12.00065],[-61.75894,11.99928],[-61.75936,11.99758],[-61.75902,11.99741],[-61.76017,11.9956],[-61.7597,11.99374],[-61.7612,11.99131],[-61.76097,11.98993],[-61.76145,11.9883],[-61.76043,11.98777],[-61.7591,11.98934],[-61.75788,11.98918],[-61.75721,11.99019],[-61.75822,11.99144],[-61.7578,11.99217],[-61.75686,11.992],[-61.75608,11.99101],[-61.75509,11.99177],[-61.75459,11.99087],[-61.75467,11.9893],[-61.75385,11.9898],[-61.75323,11.99128],[-61.75275,11.99387],[-61.75274,11.9952],[-61.75366,11.99664],[-61.75346,11.99757],[-61.75392,11.99844],[-61.75316,11.99953],[-61.75266,11.99959],[-61.75234,12.00085],[-61.75295,12.00138],[-61.75265,12.0025],[-61.75274,12.00406],[-61.75314,12.00515],[-61.75188,12.0062],[-61.75076,12.00583],[-61.74977,12.0045],[-61.74884,12.00549],[-61.74722,12.00512],[-61.74706,12.0039],[-61.74741,12.00276],[-61.74855,12.00022],[-61.74808,11.99867],[-61.74705,11.99734],[-61.74638,11.99872],[-61.74528,11.99919],[-61.74479,12.00087],[-61.7441,12.00157],[-61.7429,12.00371],[-61.74122,12.00435],[-61.74044,12.00428],[-61.74061,12.00543],[-61.73862,12.00669],[-61.73798,12.00842],[-61.73875,12.00978],[-61.73998,12.01088],[-61.74044,12.01264],[-61.74018,12.0135],[-61.74065,12.01455],[-61.74001,12.01594],[-61.73945,12.01545],[-61.73826,12.01256],[-61.73774,12.01307],[-61.73538,12.01114],[-61.73354,12.01041],[-61.73232,12.00781],[-61.7314,12.00772],[-61.73028,12.00921],[-61.72951,12.00912],[-61.72797,12.00771],[-61.72876,12.00569],[-61.72823,12.00445],[-61.72711,12.00279],[-61.72575,12.00192],[-61.72494,12.00395],[-61.72388,12.00435],[-61.72222,12.00268],[-61.72065,12.00163],[-61.71948,11.99976],[-61.71876,12.00133],[-61.71886,12.00227],[-61.71941,12.00294],[-61.71893,12.00391],[-61.71754,12.00418],[-61.71808,12.00618],[-61.71919,12.00958],[-61.72075,12.01041],[-61.72256,12.00944],[-61.72384,12.00924],[-61.72483,12.01086],[-61.72503,12.01186],[-61.72557,12.01253],[-61.72549,12.01561],[-61.72203,12.01329],[-61.72165,12.01264],[-61.72168,12.0113],[-61.72103,12.01124],[-61.72035,12.01211],[-61.71858,12.01295],[-61.71674,12.0123],[-61.71608,12.01091],[-61.71611,12.00998],[-61.71537,12.00929],[-61.71483,12.00812],[-61.71494,12.00749],[-61.71331,12.00425],[-61.71199,12.00351],[-61.71181,12.00252],[-61.71221,12.00148],[-61.71055,11.99837],[-61.71053,11.99698],[-61.71003,11.99636],[-61.71073,11.99492],[-61.71011,11.99363],[-61.70886,11.9937],[-61.70934,11.99547],[-61.70837,11.99653],[-61.7086,11.99759],[-61.70757,11.99901],[-61.70656,11.99939],[-61.70693,12.0023],[-61.70568,12.00414],[-61.70725,12.00432],[-61.70836,12.00519],[-61.70873,12.00646],[-61.71051,12.00838],[-61.71186,12.01078],[-61.71209,12.01244],[-61.71246,12.01334],[-61.71343,12.0144],[-61.71439,12.01407],[-61.71664,12.01384],[-61.71726,12.01457],[-61.71486,12.01448],[-61.71379,12.01596],[-61.71222,12.01532],[-61.71122,12.01607],[-61.71088,12.01746],[-61.71227,12.01893],[-61.71507,12.02362],[-61.71496,12.02487],[-61.71496,12.02921],[-61.71427,12.03053],[-61.71427,12.03161],[-61.71324,12.03258],[-61.71342,12.0355],[-61.71267,12.03789],[-61.71164,12.03966],[-61.71085,12.04041],[-61.71073,12.04132],[-61.70982,12.04229],[-61.7097,12.04326],[-61.70902,12.04463],[-61.70913,12.04675],[-61.70822,12.04772],[-61.70816,12.05057],[-61.70736,12.05206],[-61.70725,12.0552],[-61.70633,12.05657],[-61.70645,12.06079],[-61.70565,12.06194],[-61.70571,12.06468],[-61.70553,12.06639],[-61.70473,12.0677],[-61.70114,12.07067],[-61.69697,12.07244],[-61.69514,12.07347],[-61.69685,12.07696],[-61.69851,12.08004],[-61.69845,12.08158],[-61.69851,12.08752],[-61.69965,12.09026],[-61.69965,12.09357],[-61.70057,12.09631],[-61.70068,12.09906],[-61.70159,12.10157],[-61.70154,12.10562],[-61.70091,12.10665],[-61.70082,12.10924]]]},"properties":{"area_code":"GD-03","area_name":"Saint George","area_unit_id":"gd-parish-2021-geoboundaries-adm1:GD-03","boundary_set_id":"gd-parish-2021-geoboundaries-adm1","boundary_level":"parish"}},
{"type":"Feature","geometry":{"type":"Polygon","coordinates":[[[-61.68172,12.15205],[-61.68251,12.1523],[-61.6841,12.15394],[-61.6842,12.1548],[-61.6851,12.15477],[-61.68527,12.15575],[-61.68596,12.15658],[-61.68691,12.15658],[-61.69217,12.16167],[-61.69312,12.16172],[-61.69312,12.16263],[-61.69424,12.16267],[-61.69595,12.16427],[-61.69695,12.16424],[-61.69762,12.1652],[-61.69876,12.16517],[-61.70233,12.1685],[-61.70416,12.17034],[-61.70488,12.17041],[-61.70773,12.17195],[-61.70854,12.17205],[-61.70937,12.17283],[-61.71056,12.17305],[-61.71225,12.17371],[-61.71399,12.17376],[-61.71478,12.17443],[-61.71846,12.17457],[-61.7193,12.1754],[-61.72042,12.17548],[-61.72103,12.17614],[-61.72275,12.17681],[-61.72434,12.17708],[-61.72527,12.1755],[-61.72581,12.17295],[-61.72617,12.17264],[-61.72701,12.17025],[-61.72807,12.16885],[-61.72987,12.16797],[-61.73072,12.16783],[-61.73186,12.16603],[-61.73221,12.1643],[-61.73165,12.16164],[-61.73176,12.1607],[-61.73254,12.159],[-61.73267,12.15799],[-61.73389,12.15632],[-61.73412,12.15492],[-61.73482,12.15318],[-61.7348,12.15168],[-61.73512,12.15091],[-61.73646,12.14927],[-61.73691,12.14802],[-61.73831,12.1465],[-61.74136,12.14481],[-61.74219,12.14481],[-61.74413,12.14177],[-61.74367,12.14053],[-61.74396,12.13886],[-61.74364,12.13799],[-61.74402,12.13726],[-61.74581,12.13544],[-61.74676,12.13472],[-61.74684,12.1329],[-61.7476,12.132],[-61.74923,12.13081],[-61.7496,12.12954],[-61.74877,12.1285],[-61.7501,12.12712],[-61.75141,12.12451],[-61.75101,12.12314],[-61.75188,12.1221],[-61.75273,12.12213],[-61.75321,12.12076],[-61.7527,12.11998],[-61.75137,12.11886],[-61.74987,12.11823],[-61.74957,12.11681],[-61.74855,12.11578],[-61.74888,12.1141],[-61.74803,12.1132],[-61.74781,12.11237],[-61.74655,12.11192],[-61.74669,12.11068],[-61.74591,12.10925],[-61.7409,12.10934],[-61.73925,12.10955],[-61.73751,12.10945],[-61.73312,12.10966],[-61.7294,12.10959],[-61.72837,12.11045],[-61.72441,12.11052],[-61.72262,12.11045],[-61.72084,12.11066],[-61.71937,12.11048],[-61.71763,12.10995],[-61.7162,12.10991],[-61.71491,12.11066],[-61.71416,12.10991],[-61.71027,12.10995],[-61.70906,12.1098],[-61.70485,12.11005],[-61.70342,12.1098],[-61.70238,12.10902],[-61.70082,12.10924],[-61.70085,12.11008],[-61.70005,12.11133],[-61.69994,12.11533],[-61.70005,12.12498],[-61.69834,12.1267],[-61.69765,12.12767],[-61.69645,12.12835],[-61.6948,12.13029],[-61.6936,12.13126],[-61.6912,12.13383],[-61.6892,12.13663],[-61.68863,12.138],[-61.68777,12.1388],[-61.6876,12.13983],[-61.6868,12.14069],[-61.68657,12.14166],[-61.68503,12.14428],[-61.68252,12.14954],[-61.68172,12.15205]]]},"properties":{"area_code":"GD-04","area_name":"Saint John","area_unit_id":"gd-parish-2021-geoboundaries-adm1:GD-04","boundary_set_id":"gd-parish-2021-geoboundaries-adm1","boundary_level":"parish"}},
{"type":"Feature","geometry":{"type":"Polygon","coordinates":[[[-61.67338,12.16724],[-61.67361,12.17078],[-61.67355,12.17398],[-61.67373,12.17809],[-61.67373,12.18186],[-61.67395,12.18614],[-61.67395,12.18826],[-61.6727,12.1894],[-61.67293,12.19088],[-61.67201,12.1926],[-61.67218,12.19494],[-61.67207,12.19762],[-61.6715,12.19865],[-61.67121,12.19991],[-61.67121,12.20219],[-61.67304,12.20402],[-61.67321,12.20505],[-61.67333,12.20836],[-61.67367,12.21013],[-61.67441,12.21099],[-61.67555,12.21179],[-61.67641,12.21184],[-61.67767,12.21258],[-61.67869,12.21361],[-61.68121,12.21681],[-61.68223,12.21767],[-61.68297,12.2197],[-61.68438,12.21921],[-61.68663,12.21782],[-61.68754,12.21796],[-61.68863,12.21739],[-61.6895,12.21587],[-61.68974,12.21449],[-61.69038,12.21376],[-61.69081,12.21229],[-61.69139,12.21135],[-61.69252,12.21082],[-61.69468,12.21039],[-61.69575,12.20962],[-61.69718,12.20909],[-61.69809,12.20677],[-61.69803,12.20578],[-61.69917,12.20486],[-61.69945,12.20354],[-61.70125,12.20094],[-61.70271,12.19972],[-61.7034,12.19854],[-61.70387,12.19712],[-61.70495,12.19654],[-61.70779,12.19545],[-61.7087,12.19436],[-61.71038,12.19376],[-61.71349,12.19327],[-61.71512,12.19219],[-61.716,12.19137],[-61.71715,12.19101],[-61.71835,12.1895],[-61.7187,12.18798],[-61.71995,12.1864],[-61.72201,12.18503],[-61.72331,12.18447],[-61.72434,12.18349],[-61.72418,12.18168],[-61.7244,12.18111],[-61.72428,12.17884],[-61.72398,12.17778],[-61.72434,12.17708],[-61.72275,12.17681],[-61.72103,12.17614],[-61.72042,12.17548],[-61.7193,12.1754],[-61.71846,12.17457],[-61.71478,12.17443],[-61.71399,12.17376],[-61.71225,12.17371],[-61.71056,12.17305],[-61.70937,12.17283],[-61.70854,12.17205],[-61.70773,12.17195],[-61.70488,12.17041],[-61.70416,12.17034],[-61.70233,12.1685],[-61.69876,12.16517],[-61.69762,12.1652],[-61.69695,12.16424],[-61.69595,12.16427],[-61.69424,12.16267],[-61.69312,12.16263],[-61.69312,12.16172],[-61.69217,12.16167],[-61.68691,12.15658],[-61.68596,12.15658],[-61.68527,12.15575],[-61.6851,12.15477],[-61.6842,12.1548],[-61.6841,12.15394],[-61.68251,12.1523],[-61.68172,12.15205],[-61.67978,12.15445],[-61.67881,12.15593],[-61.67784,12.15685],[-61.67698,12.15862],[-61.67704,12.16062],[-61.6755,12.16427],[-61.67447,12.16547],[-61.67338,12.16724]]]},"properties":{"area_code":"GD-05","area_name":"Saint Mark","area_unit_id":"gd-parish-2021-geoboundaries-adm1:GD-05","boundary_set_id":"gd-parish-2021-geoboundaries-adm1","boundary_level":"parish"}},
{"type":"Feature","geometry":{"type":"MultiPolygon","coordinates":[[[[-61.60295,12.17366],[-61.60338,12.17678],[-61.60316,12.17877],[-61.60403,12.18082],[-61.6045,12.18434],[-61.60443,12.1864],[-61.60415,12.18823],[-61.60354,12.18998],[-61.60235,12.19087],[-61.6024,12.19184],[-61.6041,12.19256],[-61.60564,12.19441],[-61.60611,12.19941],[-61.60647,12.20035],[-61.60618,12.20192],[-61.60658,12.20311],[-61.60767,12.20384],[-61.60887,12.2051],[-61.60992,12.2067],[-61.61016,12.20815],[-61.61033,12.21201],[-61.60985,12.21367],[-61.60955,12.21577],[-61.60883,12.21712],[-61.60765,12.2204],[-61.60669,12.22087],[-61.60603,12.22071],[-61.60489,12.22338],[-61.60585,12.2244],[-61.60668,12.22478],[-61.60767,12.22456],[-61.60813,12.22505],[-61.60863,12.22687],[-61.61194,12.22747],[-61.61304,12.22795],[-61.61335,12.2285],[-61.61626,12.22971],[-61.61763,12.22994],[-61.62046,12.23],[-61.6234,12.22941],[-61.6251,12.22983],[-61.62614,12.22865],[-61.62847,12.22817],[-61.63002,12.22762],[-61.63117,12.22657],[-61.63318,12.22615],[-61.63348,12.22638],[-61.63465,12.22518],[-61.63633,12.22527],[-61.63776,12.2256],[-61.64039,12.22657],[-61.64089,12.22549],[-61.64192,12.22492],[-61.643,12.22492],[-61.64588,12.22625],[-61.64832,12.22836],[-61.64935,12.22977],[-61.65337,12.2328],[-61.65447,12.23463],[-61.65575,12.23455],[-61.6565,12.23388],[-61.65892,12.23414],[-61.6606,12.23502],[-61.66291,12.23354],[-61.66408,12.23374],[-61.66413,12.2318],[-61.6647,12.23129],[-61.66598,12.23096],[-61.66861,12.22953],[-61.66932,12.22839],[-61.67151,12.22799],[-61.67172,12.22657],[-61.67379,12.22606],[-61.67587,12.22511],[-61.67636,12.22412],[-61.67836,12.22277],[-61.67854,12.22149],[-61.68121,12.21955],[-61.68201,12.21932],[-61.68297,12.2197],[-61.68223,12.21767],[-61.68121,12.21681],[-61.67869,12.21361],[-61.67767,12.21258],[-61.67641,12.21184],[-61.67555,12.21179],[-61.67441,12.21099],[-61.67367,12.21013],[-61.67333,12.20836],[-61.67321,12.20505],[-61.67304,12.20402],[-61.67121,12.20219],[-61.67121,12.19991],[-61.6715,12.19865],[-61.67207,12.19762],[-61.67218,12.19494],[-61.67201,12.1926],[-61.67293,12.19088],[-61.6727,12.1894],[-61.67395,12.18826],[-61.67395,12.18614],[-61.67373,12.18186],[-61.67373,12.17809],[-61.67355,12.17398],[-61.67361,12.17078],[-61.67338,12.16724],[-61.67176,12.16812],[-61.66986,12.16821],[-61.6691,12.169],[-61.66754,12.16911],[-61.66565,12.16898],[-61.66286,12.16922],[-61.66206,12.16915],[-61.6619,12.16844],[-61.66101,12.16827],[-61.65676,12.16842],[-61.65652,12.16909],[-61.65368,12.16926],[-61.65322,12.17021],[-61.65195,12.17033],[-61.64909,12.17025],[-61.64709,12.17037],[-61.64378,12.17031],[-61.64207,12.17052],[-61.64123,12.16951],[-61.63487,12.16964],[-61.63331,12.16949],[-61.63251,12.17038],[-61.62812,12.17044],[-61.62775,12.17136],[-61.62511,12.17139],[-61.61736,12.17168],[-61.61641,12.1724],[-61.61542,12.1725],[-61.61452,12.17335],[-61.61188,12.17345],[-61.61089,12.17267],[-61.60975,12.17246],[-61.60655,12.17271],[-61.6056,12.17349],[-61.60295,12.17366]]],[[[-61.58533,12.31824],[-61.58704,12.31731],[-61.58847,12.31719],[-61.58842,12.31634],[-61.58751,12.31488],[-61.58637,12.31374],[-61.58622,12.31235],[-61.58685,12.31139],[-61.58697,12.31013],[-61.58929,12.30723],[-61.59143,12.30539],[-61.59321,12.30294],[-61.59423,12.30126],[-61.59585,12.30042],[-61.59611,12.29921],[-61.59435,12.29787],[-61.59161,12.29732],[-61.58994,12.29676],[-61.58858,12.29506],[-61.58626,12.294],[-61.58578,12.29289],[-61.58459,12.29226],[-61.5839,12.29328],[-61.58388,12.2939],[-61.58292,12.29612],[-61.5827,12.29812],[-61.58219,12.29906],[-61.58075,12.30059],[-61.5803,12.30148],[-61.57874,12.30328],[-61.57865,12.3042],[-61.58024,12.3049],[-61.57986,12.30665],[-61.58045,12.30733],[-61.58217,12.30804],[-61.58233,12.3102],[-61.58149,12.31145],[-61.58046,12.31227],[-61.57978,12.31233],[-61.57893,12.31173],[-61.57766,12.31237],[-61.57702,12.31306],[-61.57713,12.3161],[-61.57811,12.31654],[-61.57815,12.31525],[-61.57912,12.31428],[-61.58108,12.31403],[-61.58422,12.31501],[-61.58506,12.31584],[-61.58495,12.31656],[-61.58533,12.31824]]]]},"properties":{"area_code":"GD-06","area_name":"Saint Patrick","area_unit_id":"gd-parish-2021-geoboundaries-adm1:GD-06","boundary_set_id":"gd-parish-2021-geoboundaries-adm1","boundary_level":"parish"}},
{"type":"Feature","geometry":{"type":"MultiPolygon","coordinates":[[[[-61.38379,12.52674],[-61.38552,12.52622],[-61.38612,12.52627],[-61.38764,12.52512],[-61.38961,12.52324],[-61.39051,12.52286],[-61.39201,12.52092],[-61.39249,12.51985],[-61.39478,12.51963],[-61.39414,12.51767],[-61.39254,12.51651],[-61.39092,12.51612],[-61.39049,12.51475],[-61.38976,12.51388],[-61.38879,12.51208],[-61.38828,12.51169],[-61.3865,12.51207],[-61.38438,12.51143],[-61.38382,12.51059],[-61.38239,12.51168],[-61.38005,12.51211],[-61.3786,12.51363],[-61.37883,12.51442],[-61.37816,12.51953],[-61.37844,12.52069],[-61.37923,12.52123],[-61.37956,12.52322],[-61.38112,12.52599],[-61.38188,12.52597],[-61.38379,12.52674]]],[[[-61.43412,12.52507],[-61.43513,12.52551],[-61.4377,12.52743],[-61.43843,12.52862],[-61.44014,12.52609],[-61.4402,12.52504],[-61.44169,12.52361],[-61.44429,12.52321],[-61.44603,12.52188],[-61.44798,12.51993],[-61.44726,12.51923],[-61.44739,12.5185],[-61.44813,12.51763],[-61.4493,12.51695],[-61.45024,12.51687],[-61.4498,12.51556],[-61.44982,12.51455],[-61.44895,12.51298],[-61.44904,12.51213],[-61.44967,12.51134],[-61.44996,12.51008],[-61.45056,12.50917],[-61.44965,12.50814],[-61.44888,12.50683],[-61.44885,12.50409],[-61.45007,12.50115],[-61.45228,12.49886],[-61.45428,12.4973],[-61.4542,12.49563],[-61.45469,12.49429],[-61.45418,12.49323],[-61.45498,12.49139],[-61.45406,12.49067],[-61.45425,12.4895],[-61.45405,12.48818],[-61.45502,12.48678],[-61.45658,12.48578],[-61.45752,12.48422],[-61.45983,12.48198],[-61.46314,12.48031],[-61.46687,12.479],[-61.46936,12.47895],[-61.47345,12.47849],[-61.4749,12.47953],[-61.47811,12.4786],[-61.47753,12.47621],[-61.47854,12.47426],[-61.48037,12.4729],[-61.48197,12.47195],[-61.48416,12.47204],[-61.48489,12.47251],[-61.4861,12.47261],[-61.48836,12.47155],[-61.4893,12.47187],[-61.49009,12.47278],[-61.49088,12.47239],[-61.49351,12.47264],[-61.49593,12.47399],[-61.49636,12.47577],[-61.49596,12.47797],[-61.49635,12.47874],[-61.49714,12.47848],[-61.49793,12.47772],[-61.49728,12.47591],[-61.49873,12.47514],[-61.49828,12.47344],[-61.49719,12.47246],[-61.49737,12.47098],[-61.49814,12.46812],[-61.49726,12.46702],[-61.49564,12.46543],[-61.49526,12.46482],[-61.49407,12.46404],[-61.4931,12.46308],[-61.49163,12.46265],[-61.49032,12.46348],[-61.48757,12.46316],[-61.48726,12.46403],[-61.48811,12.46432],[-61.48662,12.46522],[-61.4869,12.46576],[-61.48969,12.46584],[-61.49013,12.46459],[-61.49152,12.46458],[-61.49258,12.46363],[-61.49381,12.4643],[-61.49411,12.46485],[-61.49298,12.46529],[-61.49095,12.46552],[-61.48986,12.46629],[-61.4864,12.46631],[-61.48597,12.46569],[-61.48646,12.46488],[-61.48608,12.46397],[-61.48419,12.46239],[-61.48417,12.4613],[-61.48336,12.46059],[-61.48292,12.45906],[-61.48307,12.45707],[-61.48383,12.45488],[-61.48503,12.45354],[-61.48626,12.45279],[-61.48688,12.45277],[-61.48829,12.45346],[-61.48987,12.45376],[-61.49106,12.45353],[-61.49191,12.4529],[-61.49277,12.45132],[-61.49516,12.44904],[-61.49733,12.44776],[-61.4978,12.4464],[-61.49786,12.44501],[-61.49677,12.44272],[-61.49752,12.44063],[-61.49821,12.44027],[-61.49842,12.43926],[-61.49763,12.43847],[-61.49848,12.43768],[-61.49942,12.43575],[-61.49687,12.4368],[-61.49594,12.43621],[-61.49595,12.43773],[-61.49669,12.43872],[-61.49544,12.44219],[-61.49462,12.44343],[-61.49349,12.44388],[-61.492,12.44498],[-61.49165,12.44558],[-61.48947,12.44655],[-61.48821,12.44812],[-61.48548,12.4485],[-61.48411,12.44774],[-61.48274,12.44774],[-61.48179,12.4485],[-61.48029,12.44856],[-61.47937,12.44817],[-61.4787,12.44733],[-61.47677,12.44699],[-61.47555,12.44651],[-61.47491,12.44558],[-61.47351,12.44591],[-61.47273,12.4453],[-61.47199,12.44557],[-61.47008,12.44554],[-61.46987,12.44648],[-61.46787,12.44855],[-61.46793,12.44904],[-61.46683,12.44975],[-61.46533,12.45144],[-61.46427,12.45309],[-61.46242,12.45449],[-61.46102,12.45495],[-61.45963,12.45505],[-61.45744,12.45621],[-61.45642,12.45722],[-61.45516,12.45801],[-61.4528,12.45815],[-61.45206,12.4575],[-61.4516,12.45639],[-61.45063,12.45587],[-61.44774,12.45559],[-61.44663,12.45669],[-61.44473,12.45758],[-61.44251,12.458],[-61.44152,12.45724],[-61.44092,12.45603],[-61.44008,12.45637],[-61.43888,12.45512],[-61.43844,12.45622],[-61.43702,12.45747],[-61.43617,12.45713],[-61.43469,12.45802],[-61.43369,12.45769],[-61.4328,12.45803],[-61.4316,12.4577],[-61.431,12.45819],[-61.43014,12.45802],[-61.42976,12.46141],[-61.43013,12.46239],[-61.4301,12.46367],[-61.43067,12.46369],[-61.43213,12.46492],[-61.43238,12.46716],[-61.43206,12.46788],[-61.4323,12.46867],[-61.43213,12.47038],[-61.43174,12.47135],[-61.4324,12.47209],[-61.43244,12.47613],[-61.43231,12.47776],[-61.43138,12.4814],[-61.43051,12.48363],[-61.42972,12.48377],[-61.42928,12.48472],[-61.42814,12.48595],[-61.42494,12.48665],[-61.42383,12.48602],[-61.42358,12.4866],[-61.42268,12.48679],[-61.42445,12.48838],[-61.42456,12.48976],[-61.42518,12.49121],[-61.4248,12.49358],[-61.42416,12.49504],[-61.42372,12.49702],[-61.42214,12.49909],[-61.42112,12.49902],[-61.42025,12.49939],[-61.41989,12.50071],[-61.42104,12.50158],[-61.42147,12.50262],[-61.42287,12.50312],[-61.42471,12.50441],[-61.42577,12.50582],[-61.42687,12.50585],[-61.42775,12.50657],[-61.42898,12.50827],[-61.42982,12.51054],[-61.43022,12.51362],[-61.42988,12.51492],[-61.43058,12.51549],[-61.43027,12.51748],[-61.43038,12.51867],[-61.42993,12.52157],[-61.42872,12.52244],[-61.4291,12.52384],[-61.43116,12.5258],[-61.43169,12.52514],[-61.43288,12.52488],[-61.43412,12.52507]]]]},"properties":{"area_code":"GD-10","area_name":"Carriacou & Petite Martinique","area_unit_id":"gd-parish-2021-geoboundaries-adm1:GD-10","boundary_set_id":"gd-parish-2021-geoboundaries-adm1","boundary_level":"parish"}}
]}