{"type":"FeatureCollection", "features": [
{"type":"Feature","geometry":{"type":"MultiPolygon","coordinates":[[[[-61.84177,17.72719],[-61.84404,17.72886],[-61.84898,17.72827],[-61.85136,17.72757],[-61.85403,17.72573],[-61.85477,17.72405],[-61.85318,17.72324],[-61.85272,17.722],[-61.85244,17.72049],[-61.85142,17.71995],[-61.84932,17.72038],[-61.84767,17.72103],[-61.84762,17.72303],[-61.84682,17.724],[-61.8466,17.72632],[-61.8454,17.72621],[-61.84518,17.72486],[-61.84648,17.72286],[-61.84699,17.72108],[-61.84705,17.71876],[-61.8483,17.71762],[-61.84983,17.71665],[-61.85272,17.71606],[-61.85613,17.71503],[-61.85925,17.71416],[-61.86055,17.71319],[-61.86049,17.71168],[-61.86055,17.70935],[-61.86106,17.70627],[-61.86095,17.70417],[-61.85902,17.70125],[-61.85692,17.69871],[-61.85522,17.69709],[-61.85408,17.69709],[-61.85278,17.69687],[-61.85136,17.69514],[-61.84938,17.69303],[-61.84847,17.69336],[-61.84745,17.69341],[-61.84677,17.69401],[-61.84716,17.69519],[-61.84597,17.69644],[-61.84433,17.69519],[-61.84217,17.69363],[-61.84075,17.69233],[-61.83939,17.68919],[-61.83814,17.6866],[-61.83519,17.68444],[-61.8336,17.68384],[-61.8327,17.68287],[-61.83156,17.68309],[-61.83105,17.68471],[-61.83082,17.68611],[-61.83037,17.68449],[-61.82963,17.68168],[-61.82833,17.67741],[-61.82895,17.67671],[-61.8298,17.67438],[-61.82975,17.67109],[-61.83054,17.66893],[-61.83213,17.66741],[-61.83394,17.66282],[-61.83514,17.66233],[-61.83417,17.66163],[-61.83287,17.66136],[-61.83207,17.65984],[-61.83151,17.65817],[-61.83151,17.65595],[-61.83082,17.65487],[-61.83077,17.65222],[-61.83037,17.65028],[-61.82929,17.64849],[-61.82844,17.646],[-61.82856,17.64314],[-61.83014,17.64081],[-61.83162,17.63806],[-61.83372,17.63292],[-61.83394,17.63162],[-61.83326,17.63054],[-61.83213,17.62687],[-61.83179,17.61865],[-61.83253,17.61535],[-61.83326,17.61411],[-61.83219,17.61286],[-61.83258,17.61005],[-61.83292,17.60864],[-61.83287,17.6067],[-61.83463,17.60524],[-61.8378,17.60567],[-61.84172,17.60632],[-61.84586,17.60805],[-61.84722,17.60886],[-61.85,17.60891],[-61.85096,17.60913],[-61.85136,17.6107],[-61.85045,17.61097],[-61.84994,17.61227],[-61.85108,17.61481],[-61.85125,17.61686],[-61.85011,17.61967],[-61.84881,17.62524],[-61.8483,17.62838],[-61.84898,17.63173],[-61.85062,17.63644],[-61.85187,17.64168],[-61.85272,17.64638],[-61.85318,17.65141],[-61.85369,17.65487],[-61.85289,17.65855],[-61.85374,17.65968],[-61.85516,17.66087],[-61.85749,17.66368],[-61.85919,17.66574],[-61.8597,17.66795],[-61.85925,17.67017],[-61.8593,17.67141],[-61.86089,17.67174],[-61.8631,17.67449],[-61.86481,17.67757],[-61.86787,17.68093],[-61.86934,17.6826],[-61.87008,17.68487],[-61.86917,17.6873],[-61.86832,17.68865],[-61.86753,17.68671],[-61.86651,17.68433],[-61.8656,17.68265],[-61.86379,17.68093],[-61.86282,17.68157],[-61.86344,17.68336],[-61.86469,17.68449],[-61.86605,17.6866],[-61.86691,17.68979],[-61.86679,17.69346],[-61.86583,17.69509],[-61.86424,17.69779],[-61.86458,17.70049],[-61.86588,17.70141],[-61.86855,17.70109],[-61.87235,17.70087],[-61.87451,17.70081],[-61.87473,17.70157],[-61.87337,17.7026],[-61.87178,17.70454],[-61.86957,17.70552],[-61.86776,17.70595],[-61.86753,17.70762],[-61.8664,17.70844],[-61.86486,17.70973],[-61.86469,17.71152],[-61.86344,17.71297],[-61.86379,17.71357],[-61.86628,17.71308],[-61.86702,17.7133],[-61.86713,17.71438],[-61.86719,17.71578],[-61.86883,17.71595],[-61.86986,17.71508],[-61.87184,17.71249],[-61.87388,17.70957],[-61.87576,17.70638],[-61.88007,17.70173],[-61.882,17.70087],[-61.88563,17.69795],[-61.8867,17.696],[-61.88648,17.69541],[-61.88449,17.69422],[-61.88052,17.69119],[-61.87553,17.68795],[-61.87275,17.68568],[-61.8715,17.68438],[-61.86969,17.68168],[-61.86804,17.67903],[-61.86691,17.67633],[-61.86554,17.6726],[-61.86481,17.66871],[-61.86441,17.66644],[-61.86225,17.66336],[-61.8597,17.66125],[-61.85806,17.65995],[-61.8555,17.65482],[-61.85397,17.64903],[-61.85272,17.64027],[-61.85233,17.63719],[-61.85011,17.62957],[-61.85017,17.62589],[-61.85079,17.62222],[-61.8525,17.61551],[-61.85284,17.6134],[-61.85284,17.61102],[-61.85386,17.60821],[-61.85584,17.60194],[-61.85862,17.59415],[-61.86044,17.58782],[-61.86044,17.58415],[-61.85959,17.58155],[-61.85834,17.5802],[-61.85647,17.57923],[-61.85465,17.57933],[-61.85272,17.58182],[-61.84921,17.58485],[-61.84348,17.58826],[-61.83809,17.59118],[-61.83253,17.59307],[-61.82787,17.5928],[-61.82243,17.59177],[-61.81761,17.58885],[-61.81307,17.58599],[-61.80915,17.5842],[-61.80382,17.58074],[-61.80087,17.57793],[-61.79911,17.57566],[-61.7965,17.57452],[-61.79406,17.57322],[-61.79191,17.57338],[-61.78867,17.5729],[-61.78487,17.57199],[-61.77855,17.56863],[-61.77412,17.56503],[-61.77067,17.56005],[-61.76857,17.556],[-61.76668,17.55063],[-61.76672,17.54572],[-61.76701,17.54402],[-61.76668,17.54326],[-61.76584,17.54454],[-61.76454,17.54696],[-61.76338,17.54942],[-61.76203,17.55167],[-61.76025,17.55333],[-61.75873,17.5542],[-61.75717,17.55461],[-61.75415,17.5542],[-61.75136,17.55385],[-61.7465,17.55322],[-61.74278,17.55136],[-61.73861,17.54916],[-61.7364,17.54654],[-61.73534,17.54452],[-61.73303,17.54452],[-61.73214,17.54545],[-61.73312,17.54671],[-61.7348,17.54807],[-61.73613,17.54976],[-61.73666,17.55153],[-61.73631,17.55474],[-61.73551,17.55643],[-61.73649,17.55719],[-61.73826,17.55973],[-61.73897,17.56209],[-61.73826,17.56505],[-61.73649,17.56776],[-61.73604,17.57164],[-61.73622,17.57655],[-61.73711,17.58119],[-61.73649,17.58314],[-61.73471,17.58516],[-61.73454,17.58762],[-61.73312,17.59083],[-61.73206,17.59421],[-61.73241,17.59564],[-61.73144,17.5975],[-61.73179,17.60029],[-61.73188,17.60654],[-61.73312,17.6095],[-61.73436,17.61246],[-61.73463,17.61626],[-61.73516,17.61972],[-61.73666,17.62386],[-61.73799,17.6291],[-61.73941,17.63603],[-61.74278,17.64236],[-61.74562,17.64692],[-61.74961,17.65275],[-61.75812,17.66061],[-61.76335,17.66669],[-61.76991,17.67032],[-61.77301,17.67497],[-61.77753,17.67877],[-61.78152,17.68434],[-61.78285,17.68713],[-61.78657,17.69059],[-61.79083,17.69718],[-61.79269,17.6992],[-61.79561,17.70072],[-61.79756,17.70072],[-61.80066,17.70022],[-61.80279,17.69903],[-61.80554,17.69785],[-61.80722,17.69929],[-61.80926,17.70089],[-61.81086,17.70283],[-61.81272,17.70385],[-61.81573,17.70376],[-61.81893,17.70106],[-61.81804,17.69988],[-61.81671,17.69751],[-61.81609,17.69515],[-61.81822,17.69304],[-61.82025,17.69211],[-61.82158,17.69084],[-61.82185,17.68966],[-61.82034,17.68966],[-61.81884,17.6911],[-61.81671,17.69279],[-61.81573,17.69388],[-61.81334,17.69532],[-61.81112,17.69566],[-61.80873,17.69684],[-61.80758,17.69701],[-61.80652,17.69523],[-61.80714,17.69228],[-61.80793,17.69],[-61.80997,17.68915],[-61.81228,17.68915],[-61.81396,17.68856],[-61.81476,17.68704],[-61.81618,17.68502],[-61.81804,17.68493],[-61.81999,17.68578],[-61.8222,17.68679],[-61.82566,17.68696],[-61.82868,17.68747],[-61.83497,17.68941],[-61.8371,17.69127],[-61.83807,17.69329],[-61.8386,17.69583],[-61.83825,17.69861],[-61.83878,17.70157],[-61.83905,17.70419],[-61.8371,17.70537],[-61.83408,17.70748],[-61.83346,17.709],[-61.8324,17.7117],[-61.8316,17.7101],[-61.83116,17.70866],[-61.83098,17.7068],[-61.83063,17.70503],[-61.82956,17.70359],[-61.82876,17.70283],[-61.82859,17.70165],[-61.83036,17.70106],[-61.83107,17.69979],[-61.83107,17.69811],[-61.82956,17.69718],[-61.82717,17.69743],[-61.82584,17.69785],[-61.82442,17.69903],[-61.82158,17.69996],[-61.82043,17.70064],[-61.82185,17.70157],[-61.82249,17.70281],[-61.82566,17.70698],[-61.82793,17.71049],[-61.83168,17.71524],[-61.83338,17.71703],[-61.83593,17.71989],[-61.83695,17.72184],[-61.84001,17.72438],[-61.84177,17.72719]]],[[[-62.34574,16.94407],[-62.34697,16.94427],[-62.34735,16.94401],[-62.34779,16.9435],[-62.34795,16.94276],[-62.34779,16.94201],[-62.34765,16.9411],[-62.34744,16.93974],[-62.34758,16.93794],[-62.34804,16.93569],[-62.34816,16.9342],[-62.34804,16.9332],[-62.34772,16.93271],[-62.34642,16.93229],[-62.34458,16.93325],[-62.34358,16.93447],[-62.34307,16.93565],[-62.34319,16.93667],[-62.34281,16.93741],[-62.3423,16.93756],[-62.34191,16.93754],[-62.34184,16.93798],[-62.34221,16.93803],[-62.34256,16.93816],[-62.34279,16.93883],[-62.34295,16.93967],[-62.34298,16.94063],[-62.34316,16.94156],[-62.34349,16.94227],[-62.34414,16.9431],[-62.34491,16.94361],[-62.34574,16.94407]]],[[[-61.66807,17.05219],[-61.6677,17.05291],[-61.66756,17.0535],[-61.66803,17.05413],[-61.66905,17.05423],[-61.67021,17.05406],[-61.67057,17.05264],[-61.66996,17.05229],[-61.66919,17.05215],[-61.66807,17.05219]]],[[[-61.66876,17.07155],[-61.67057,17.07214],[-61.67141,17.0727],[-61.67181,17.07322],[-61.67246,17.07322],[-61.6725,17.07256],[-61.67322,17.07214],[-61.67406,17.07176],[-61.67431,17.07114],[-61.67406,17.0702],[-61.67261,17.07027],[-61.67159,17.07065],[-61.67039,17.07048],[-61.67014,17.07006],[-61.67032,17.06923],[-61.66977,17.06833],[-61.66919,17.06805],[-61.66825,17.06839],[-61.66781,17.06951],[-61.6668,17.06992],[-61.66538,17.07003],[-61.66473,17.06961],[-61.66476,17.06895],[-61.66404,17.06864],[-61.66364,17.06822],[-61.66371,17.06746],[-61.66386,17.06687],[-61.66295,17.06642],[-61.66222,17.06683],[-61.66211,17.0676],[-61.6615,17.06794],[-61.66066,17.06808],[-61.65946,17.06815],[-61.65837,17.06812],[-61.65743,17.06839],[-61.65717,17.06892],[-61.65747,17.06926],[-61.65863,17.06912],[-61.65957,17.06885],[-61.66026,17.06905],[-61.66088,17.07003],[-61.66157,17.07055],[-61.66364,17.07121],[-61.66516,17.07155],[-61.66643,17.07152],[-61.66876,17.07155]]],[[[-61.74323,17.04363],[-61.73971,17.04325],[-61.7362,17.04319],[-61.73206,17.04265],[-61.72746,17.0395],[-61.72417,17.03728],[-61.72128,17.03511],[-61.71731,17.0331],[-61.71311,17.03213],[-61.70868,17.03175],[-61.7059,17.03186],[-61.70324,17.03207],[-61.69978,17.03234],[-61.69592,17.03224],[-61.69331,17.03093],[-61.692,17.03126],[-61.69257,17.03294],[-61.69144,17.03424],[-61.69007,17.03424],[-61.68781,17.03386],[-61.68616,17.03375],[-61.68554,17.03462],[-61.68639,17.03554],[-61.68758,17.03549],[-61.68917,17.03603],[-61.69024,17.03788],[-61.68985,17.03988],[-61.68894,17.04102],[-61.68752,17.04086],[-61.68474,17.04048],[-61.68321,17.04119],[-61.68344,17.04254],[-61.68293,17.04422],[-61.68162,17.04531],[-61.6802,17.0452],[-61.6793,17.04428],[-61.67873,17.04308],[-61.67748,17.04336],[-61.67697,17.04406],[-61.6743,17.04525],[-61.67368,17.04661],[-61.67453,17.04726],[-61.67606,17.04737],[-61.6768,17.04748],[-61.67714,17.04878],[-61.67612,17.04965],[-61.67652,17.05084],[-61.67555,17.0516],[-61.67408,17.05323],[-61.67493,17.05355],[-61.67646,17.05453],[-61.67759,17.0561],[-61.67765,17.05757],[-61.67844,17.0586],[-61.67861,17.05936],[-61.67839,17.06006],[-61.67725,17.06131],[-61.67612,17.06131],[-61.67464,17.06109],[-61.67323,17.06174],[-61.67396,17.06234],[-61.67595,17.06207],[-61.67759,17.06218],[-61.6785,17.06283],[-61.67861,17.06391],[-61.67969,17.06451],[-61.67918,17.06532],[-61.67754,17.06603],[-61.67731,17.06716],[-61.67833,17.06749],[-61.67935,17.06803],[-61.67969,17.06917],[-61.67941,17.07074],[-61.67884,17.07188],[-61.67992,17.07205],[-61.68151,17.07091],[-61.68236,17.0695],[-61.6844,17.06863],[-61.68588,17.06851],[-61.68737,17.06767],[-61.6899,17.06727],[-61.69108,17.06722],[-61.69315,17.06742],[-61.69285,17.06818],[-61.69329,17.06878],[-61.69427,17.0686],[-61.69527,17.06789],[-61.69666,17.06849],[-61.69689,17.06942],[-61.69854,17.0702],[-61.69954,17.07113],[-61.69991,17.0718],[-61.69966,17.07253],[-61.69926,17.07335],[-61.69968,17.07446],[-61.70052,17.07506],[-61.70191,17.07518],[-61.70314,17.07491],[-61.70405,17.07402],[-61.70472,17.07291],[-61.70612,17.07193],[-61.70788,17.07104],[-61.70935,17.06973],[-61.71111,17.06924],[-61.712,17.06998],[-61.71318,17.07098],[-61.71316,17.07175],[-61.71165,17.07211],[-61.71056,17.07224],[-61.70886,17.07324],[-61.70756,17.07424],[-61.70656,17.07513],[-61.70591,17.07562],[-61.70498,17.07693],[-61.7047,17.078],[-61.70468,17.07875],[-61.7053,17.07924],[-61.70505,17.08046],[-61.704,17.08106],[-61.70173,17.08133],[-61.7001,17.08213],[-61.6985,17.08199],[-61.69738,17.08233],[-61.69578,17.08302],[-61.6948,17.08353],[-61.6935,17.08351],[-61.69257,17.0841],[-61.69259,17.0849],[-61.69313,17.08582],[-61.69406,17.08557],[-61.69513,17.08573],[-61.69529,17.08622],[-61.69494,17.08695],[-61.69348,17.08706],[-61.69334,17.08795],[-61.69399,17.08875],[-61.69362,17.09001],[-61.69204,17.08986],[-61.69153,17.08906],[-61.69122,17.08748],[-61.69113,17.08615],[-61.69057,17.08479],[-61.6895,17.08428],[-61.68811,17.08426],[-61.68672,17.08406],[-61.68562,17.08333],[-61.68462,17.08315],[-61.68439,17.08397],[-61.68481,17.0851],[-61.68481,17.08602],[-61.6846,17.08724],[-61.68434,17.0887],[-61.68381,17.08957],[-61.68267,17.09039],[-61.68239,17.09148],[-61.68304,17.0925],[-61.68383,17.09263],[-61.68523,17.09246],[-61.68625,17.09303],[-61.6862,17.0937],[-61.68513,17.09452],[-61.68409,17.09463],[-61.68321,17.09488],[-61.682,17.09503],[-61.68111,17.0957],[-61.6803,17.09661],[-61.68042,17.09723],[-61.68037,17.09836],[-61.67972,17.0989],[-61.67935,17.09961],[-61.67837,17.10021],[-61.67779,17.10103],[-61.67858,17.10176],[-61.67963,17.1015],[-61.67995,17.10059],[-61.68002,17.09985],[-61.68077,17.09961],[-61.68146,17.09919],[-61.68225,17.09794],[-61.68309,17.09779],[-61.68342,17.09845],[-61.68516,17.09814],[-61.68641,17.0969],[-61.68767,17.09723],[-61.68734,17.0987],[-61.68662,17.09947],[-61.68534,17.09992],[-61.68404,17.10021],[-61.68265,17.10074],[-61.68251,17.1017],[-61.68362,17.10223],[-61.68465,17.10198],[-61.68588,17.10158],[-61.68762,17.10116],[-61.68846,17.10019],[-61.68932,17.09927],[-61.6906,17.09921],[-61.69153,17.09976],[-61.6929,17.10014],[-61.69366,17.09965],[-61.69413,17.09854],[-61.6955,17.0993],[-61.69555,17.1001],[-61.69594,17.10087],[-61.69703,17.10143],[-61.69764,17.10247],[-61.69896,17.10321],[-61.70073,17.10369],[-61.70231,17.10383],[-61.70391,17.10334],[-61.703,17.10256],[-61.70349,17.10183],[-61.70421,17.10158],[-61.70475,17.10094],[-61.70484,17.10007],[-61.70389,17.09985],[-61.70284,17.09972],[-61.70328,17.09854],[-61.70486,17.09843],[-61.70607,17.0987],[-61.70702,17.09885],[-61.70733,17.09825],[-61.7067,17.09761],[-61.70623,17.09648],[-61.70698,17.09603],[-61.70849,17.09583],[-61.70909,17.09601],[-61.70949,17.09674],[-61.71004,17.09592],[-61.71046,17.09441],[-61.7116,17.09308],[-61.71209,17.09403],[-61.71174,17.09597],[-61.71188,17.09699],[-61.71265,17.09665],[-61.71341,17.09543],[-61.71483,17.09463],[-61.71632,17.0938],[-61.71839,17.093],[-61.71973,17.09359],[-61.72002,17.09481],[-61.71959,17.09519],[-61.71843,17.09484],[-61.71824,17.09547],[-61.71821,17.09675],[-61.71781,17.09751],[-61.71676,17.09769],[-61.71494,17.09838],[-61.71512,17.09973],[-61.7161,17.09932],[-61.7173,17.09925],[-61.71817,17.09935],[-61.71923,17.0988],[-61.721,17.0981],[-61.72224,17.09776],[-61.72347,17.09762],[-61.72587,17.09696],[-61.7279,17.09647],[-61.72921,17.09592],[-61.73008,17.09491],[-61.73103,17.09279],[-61.7323,17.09064],[-61.73335,17.08995],[-61.73353,17.09113],[-61.73353,17.09304],[-61.73328,17.09408],[-61.73291,17.09554],[-61.7332,17.09685],[-61.73346,17.098],[-61.7332,17.09897],[-61.7324,17.09946],[-61.73128,17.10064],[-61.73099,17.10213],[-61.73077,17.10348],[-61.73004,17.10463],[-61.72888,17.10522],[-61.72772,17.10553],[-61.72645,17.10636],[-61.72652,17.10706],[-61.7275,17.1074],[-61.7283,17.10796],[-61.72954,17.10831],[-61.7303,17.10844],[-61.73034,17.10945],[-61.72946,17.11004],[-61.72837,17.11011],[-61.72798,17.11084],[-61.72968,17.11077],[-61.73092,17.11056],[-61.73193,17.11028],[-61.73259,17.11053],[-61.73288,17.11132],[-61.73393,17.11143],[-61.73487,17.11094],[-61.73614,17.11025],[-61.73978,17.11025],[-61.74192,17.11042],[-61.7437,17.11077],[-61.74457,17.11157],[-61.74529,17.11275],[-61.74548,17.11386],[-61.74453,17.11552],[-61.74293,17.11615],[-61.74148,17.11622],[-61.74047,17.1165],[-61.73816,17.11811],[-61.73674,17.1184],[-61.73384,17.11851],[-61.73059,17.11893],[-61.72903,17.11953],[-61.7281,17.11982],[-61.72789,17.12084],[-61.72743,17.12126],[-61.72668,17.12108],[-61.72615,17.12159],[-61.72568,17.1229],[-61.72496,17.12339],[-61.72406,17.12386],[-61.72287,17.1245],[-61.72178,17.12521],[-61.72062,17.12586],[-61.71946,17.1265],[-61.71829,17.12708],[-61.71815,17.12821],[-61.71888,17.12923],[-61.7199,17.12999],[-61.72104,17.13037],[-61.72248,17.13092],[-61.72315,17.13117],[-61.72352,17.1319],[-61.72459,17.13201],[-61.7258,17.13177],[-61.72682,17.13105],[-61.72724,17.13052],[-61.72759,17.12919],[-61.72766,17.12752],[-61.72824,17.12668],[-61.72896,17.12644],[-61.72977,17.12632],[-61.73012,17.12568],[-61.73084,17.12508],[-61.73164,17.12527],[-61.73277,17.12538],[-61.73357,17.125],[-61.73447,17.12399],[-61.7364,17.12226],[-61.738,17.12187],[-61.73996,17.12219],[-61.74101,17.12191],[-61.74177,17.12153],[-61.74304,17.12111],[-61.74453,17.12073],[-61.74526,17.12118],[-61.74598,17.12153],[-61.74635,17.12042],[-61.74613,17.11879],[-61.74653,17.11643],[-61.7478,17.11566],[-61.7494,17.1149],[-61.7506,17.11563],[-61.75143,17.11702],[-61.75143,17.11865],[-61.75132,17.11941],[-61.75158,17.11997],[-61.75266,17.12038],[-61.7535,17.12111],[-61.75404,17.12226],[-61.75383,17.12378],[-61.75328,17.12534],[-61.75237,17.12607],[-61.75103,17.12711],[-61.74951,17.12822],[-61.74853,17.12968],[-61.7474,17.13031],[-61.74627,17.13065],[-61.7458,17.13128],[-61.74591,17.13263],[-61.74656,17.13339],[-61.74736,17.13367],[-61.74794,17.13436],[-61.74755,17.13506],[-61.74747,17.13655],[-61.74794,17.13731],[-61.74882,17.13731],[-61.74958,17.13704],[-61.75052,17.13714],[-61.75161,17.13714],[-61.75172,17.13662],[-61.75125,17.136],[-61.75099,17.13509],[-61.75085,17.1335],[-61.75158,17.13253],[-61.7523,17.13201],[-61.75292,17.13114],[-61.75408,17.13013],[-61.75662,17.12819],[-61.75895,17.1268],[-61.76109,17.12562],[-61.76341,17.12406],[-61.76417,17.12302],[-61.76417,17.12232],[-61.76374,17.12198],[-61.76261,17.12187],[-61.76178,17.12167],[-61.76134,17.12135],[-61.76083,17.12017],[-61.76058,17.11913],[-61.76029,17.11802],[-61.75993,17.11698],[-61.76007,17.11514],[-61.76014,17.11358],[-61.76065,17.11219],[-61.76214,17.11205],[-61.76341,17.11247],[-61.76446,17.11264],[-61.76595,17.1123],[-61.76722,17.11178],[-61.76951,17.11087],[-61.77027,17.11115],[-61.76991,17.11244],[-61.76831,17.11323],[-61.76726,17.11424],[-61.76759,17.11504],[-61.76831,17.11559],[-61.76969,17.11577],[-61.77031,17.11532],[-61.77187,17.11362],[-61.7739,17.11271],[-61.77645,17.11244],[-61.77739,17.11296],[-61.77764,17.11349],[-61.77779,17.11382],[-61.77746,17.11528],[-61.77685,17.11695],[-61.77597,17.11861],[-61.77597,17.11951],[-61.77652,17.12052],[-61.77648,17.12167],[-61.77652,17.12288],[-61.77692,17.12486],[-61.77819,17.12527],[-61.77895,17.12496],[-61.77997,17.12423],[-61.78106,17.12375],[-61.78207,17.1235],[-61.78342,17.12271],[-61.78418,17.12167],[-61.78571,17.12021],[-61.78589,17.1208],[-61.78541,17.12205],[-61.78469,17.12295],[-61.78523,17.12392],[-61.78592,17.12378],[-61.78705,17.12291],[-61.78756,17.12347],[-61.78825,17.12517],[-61.78817,17.12649],[-61.78734,17.12798],[-61.786,17.12871],[-61.78458,17.12951],[-61.78316,17.13041],[-61.7824,17.13124],[-61.78178,17.13273],[-61.78142,17.13492],[-61.78131,17.1361],[-61.7808,17.137],[-61.78011,17.13721],[-61.77877,17.13669],[-61.77761,17.13589],[-61.7767,17.13544],[-61.77561,17.13554],[-61.77438,17.13631],[-61.7734,17.13721],[-61.77245,17.13943],[-61.77282,17.14078],[-61.7739,17.14162],[-61.77532,17.1421],[-61.77634,17.14248],[-61.77786,17.14311],[-61.78048,17.14387],[-61.78182,17.14505],[-61.78338,17.14561],[-61.78585,17.14679],[-61.78767,17.1481],[-61.78825,17.15012],[-61.78745,17.15123],[-61.78727,17.15216],[-61.78788,17.15241],[-61.78905,17.15261],[-61.78948,17.1531],[-61.79003,17.15435],[-61.78995,17.15549],[-61.78963,17.15674],[-61.78959,17.15813],[-61.79013,17.15921],[-61.79119,17.15938],[-61.79257,17.15924],[-61.79431,17.15924],[-61.79518,17.16004],[-61.79671,17.16115],[-61.79823,17.1624],[-61.7995,17.16351],[-61.80008,17.16503],[-61.80019,17.16757],[-61.80052,17.16951],[-61.80146,17.17041],[-61.80233,17.17061],[-61.8031,17.17079],[-61.80397,17.17048],[-61.80502,17.16993],[-61.80644,17.16937],[-61.80814,17.16902],[-61.8101,17.16934],[-61.81087,17.16958],[-61.81297,17.16857],[-61.8141,17.16802],[-61.81606,17.16784],[-61.81878,17.16788],[-61.82089,17.16777],[-61.82278,17.16795],[-61.82401,17.16861],[-61.82514,17.16944],[-61.82561,17.17024],[-61.82644,17.17117],[-61.8276,17.17149],[-61.82884,17.17159],[-61.83,17.17232],[-61.83167,17.17315],[-61.83253,17.17321],[-61.83287,17.17246],[-61.83394,17.17153],[-61.83542,17.17072],[-61.83729,17.1705],[-61.83786,17.16991],[-61.8399,17.16872],[-61.84268,17.16752],[-61.84472,17.1672],[-61.84694,17.16617],[-61.84643,17.16498],[-61.84586,17.16378],[-61.84586,17.16243],[-61.84682,17.16058],[-61.84824,17.15842],[-61.8504,17.15652],[-61.85295,17.15489],[-61.8542,17.15451],[-61.85516,17.15457],[-61.85516,17.15365],[-61.85454,17.1518],[-61.85471,17.14991],[-61.85573,17.14801],[-61.85703,17.14503],[-61.85851,17.1421],[-61.85936,17.13917],[-61.85925,17.13787],[-61.85998,17.13619],[-61.86248,17.1331],[-61.8639,17.13131],[-61.86356,17.13028],[-61.86282,17.13099],[-61.86169,17.13207],[-61.85947,17.13223],[-61.85709,17.13153],[-61.85556,17.13066],[-61.85352,17.13028],[-61.85142,17.12931],[-61.85136,17.12779],[-61.85289,17.12665],[-61.85454,17.12714],[-61.85641,17.12714],[-61.85743,17.12659],[-61.85624,17.12535],[-61.85369,17.12519],[-61.85164,17.1247],[-61.85011,17.12388],[-61.84807,17.12345],[-61.84745,17.12226],[-61.8458,17.12009],[-61.84574,17.11803],[-61.8483,17.11727],[-61.85057,17.11765],[-61.85238,17.1183],[-61.85386,17.11922],[-61.85528,17.12014],[-61.85675,17.12074],[-61.85891,17.12041],[-61.86027,17.11982],[-61.86271,17.12014],[-61.8652,17.12003],[-61.86787,17.12106],[-61.86906,17.12388],[-61.87071,17.12578],[-61.87247,17.12627],[-61.874,17.12589],[-61.87604,17.12567],[-61.87717,17.12594],[-61.87791,17.12659],[-61.87825,17.12795],[-61.87927,17.12838],[-61.88018,17.12822],[-61.88217,17.12893],[-61.88472,17.12974],[-61.88642,17.13006],[-61.8879,17.12974],[-61.88824,17.12914],[-61.88659,17.12887],[-61.88574,17.12833],[-61.88489,17.12687],[-61.88506,17.12508],[-61.88614,17.12421],[-61.88795,17.12426],[-61.88977,17.12388],[-61.89062,17.12285],[-61.893,17.12144],[-61.8959,17.12063],[-61.89726,17.1202],[-61.89686,17.1183],[-61.89692,17.11673],[-61.89748,17.1145],[-61.89805,17.1138],[-61.8993,17.11228],[-61.90049,17.11093],[-61.90185,17.10919],[-61.90282,17.10735],[-61.9027,17.10637],[-61.90219,17.10485],[-61.90253,17.10333],[-61.90378,17.10203],[-61.90571,17.10073],[-61.90548,17.09948],[-61.90273,17.09888],[-61.90019,17.0993],[-61.8988,17.10076],[-61.89768,17.1015],[-61.89543,17.10221],[-61.89322,17.10161],[-61.89167,17.10296],[-61.88853,17.10329],[-61.88532,17.10376],[-61.88272,17.10403],[-61.88086,17.10505],[-61.87803,17.10567],[-61.87553,17.10529],[-61.87538,17.10527],[-61.87419,17.10396],[-61.87375,17.10225],[-61.87396,17.10059],[-61.8747,17.09896],[-61.87475,17.09721],[-61.87512,17.0957],[-61.8767,17.09523],[-61.87877,17.09243],[-61.87921,17.09044],[-61.88028,17.08824],[-61.88144,17.08719],[-61.88381,17.08688],[-61.88493,17.08717],[-61.88599,17.0879],[-61.88755,17.08825],[-61.88896,17.08825],[-61.89103,17.088],[-61.89205,17.08762],[-61.89278,17.08634],[-61.89445,17.08502],[-61.89586,17.08485],[-61.89811,17.0845],[-61.89873,17.08554],[-61.89993,17.08623],[-61.90113,17.08585],[-61.90305,17.08495],[-61.90338,17.08387],[-61.90425,17.0829],[-61.90563,17.08228],[-61.90676,17.08075],[-61.90585,17.07936],[-61.90476,17.07974],[-61.90414,17.08033],[-61.90265,17.08033],[-61.8992,17.08054],[-61.89808,17.08016],[-61.89688,17.0786],[-61.89604,17.07836],[-61.89477,17.07891],[-61.89252,17.07978],[-61.89169,17.07947],[-61.89064,17.0777],[-61.88984,17.07589],[-61.89005,17.07457],[-61.89089,17.07325],[-61.89198,17.07308],[-61.89368,17.07315],[-61.89445,17.07277],[-61.89568,17.07232],[-61.89561,17.07131],[-61.89376,17.07145],[-61.89201,17.07162],[-61.89042,17.07089],[-61.88962,17.06895],[-61.88871,17.06614],[-61.88857,17.06361],[-61.88947,17.05972],[-61.89064,17.05618],[-61.89122,17.05458],[-61.89278,17.05392],[-61.89405,17.05427],[-61.8947,17.05416],[-61.89517,17.05323],[-61.89681,17.05232],[-61.89761,17.05198],[-61.89739,17.05097],[-61.89673,17.05028],[-61.89612,17.04882],[-61.89586,17.04635],[-61.89485,17.04385],[-61.89401,17.04139],[-61.89394,17.03906],[-61.89368,17.03702],[-61.89256,17.03351],[-61.8914,17.02952],[-61.89056,17.02712],[-61.88947,17.02653],[-61.88798,17.02566],[-61.88722,17.02473],[-61.88624,17.02459],[-61.88483,17.02455],[-61.88417,17.02375],[-61.88261,17.02296],[-61.88119,17.02337],[-61.87785,17.02389],[-61.87531,17.02389],[-61.87277,17.02358],[-61.87034,17.02285],[-61.86841,17.02296],[-61.86685,17.02282],[-61.86529,17.02202],[-61.86384,17.02209],[-61.86279,17.02278],[-61.86061,17.02261],[-61.85959,17.02171],[-61.8585,17.02087],[-61.85803,17.01917],[-61.85738,17.01778],[-61.85636,17.01761],[-61.85451,17.01827],[-61.85208,17.01792],[-61.84972,17.01747],[-61.84703,17.01716],[-61.84434,17.01688],[-61.84318,17.01619],[-61.84318,17.01507],[-61.84416,17.01351],[-61.84336,17.01341],[-61.84176,17.014],[-61.83969,17.01379],[-61.83886,17.01268],[-61.83773,17.01244],[-61.83621,17.01275],[-61.83563,17.01407],[-61.83556,17.0157],[-61.8341,17.01608],[-61.83236,17.01573],[-61.83116,17.01455],[-61.83211,17.01317],[-61.83225,17.01233],[-61.83193,17.01122],[-61.83229,17.01004],[-61.83225,17.0083],[-61.83258,17.00671],[-61.83327,17.00542],[-61.83232,17.00483],[-61.8312,17.00494],[-61.82902,17.00563],[-61.82742,17.00619],[-61.82601,17.00699],[-61.82307,17.00705],[-61.82136,17.00813],[-61.81856,17.00886],[-61.81562,17.00917],[-61.81366,17.00935],[-61.81217,17.00886],[-61.8105,17.00931],[-61.81054,17.01063],[-61.8105,17.01212],[-61.80927,17.01407],[-61.80814,17.01437],[-61.80756,17.01452],[-61.80596,17.01421],[-61.8044,17.01431],[-61.80099,17.01455],[-61.79997,17.01421],[-61.79827,17.01285],[-61.79703,17.01212],[-61.79518,17.01174],[-61.79271,17.01146],[-61.79086,17.0108],[-61.78977,17.01008],[-61.78865,17.00879],[-61.78785,17.00823],[-61.78639,17.00764],[-61.78571,17.00667],[-61.78433,17.00716],[-61.78483,17.00806],[-61.78585,17.009],[-61.78694,17.01053],[-61.78683,17.01167],[-61.78589,17.01341],[-61.78472,17.01462],[-61.78385,17.01549],[-61.78298,17.01681],[-61.78218,17.01841],[-61.78102,17.02046],[-61.77957,17.02178],[-61.7763,17.02198],[-61.77314,17.02198],[-61.76973,17.02098],[-61.7685,17.02004],[-61.76831,17.01869],[-61.76882,17.01737],[-61.76926,17.0158],[-61.76904,17.01372],[-61.76918,17.01226],[-61.77067,17.01146],[-61.77234,17.01143],[-61.77412,17.0107],[-61.77489,17.01014],[-61.7767,17.009],[-61.77779,17.00768],[-61.77797,17.00643],[-61.77725,17.00601],[-61.77528,17.00594],[-61.7743,17.00521],[-61.77401,17.00396],[-61.77383,17.00258],[-61.77263,17.00133],[-61.77093,17.0008],[-61.76984,17.00108],[-61.76958,17.00212],[-61.76842,17.00317],[-61.76697,17.00414],[-61.76552,17.00476],[-61.76483,17.00442],[-61.76417,17.00525],[-61.76468,17.00664],[-61.76425,17.00771],[-61.7641,17.00872],[-61.76577,17.00889],[-61.76693,17.0098],[-61.76595,17.01014],[-61.7637,17.00962],[-61.76276,17.00841],[-61.76287,17.00702],[-61.7616,17.00626],[-61.75996,17.00487],[-61.75935,17.00337],[-61.75967,17.00219],[-61.76098,17.00146],[-61.76083,17.00049],[-61.75949,17.00004],[-61.75858,16.99973],[-61.75655,16.99834],[-61.75452,16.99765],[-61.75383,16.99862],[-61.75179,16.9989],[-61.75056,16.99886],[-61.7486,16.99844],[-61.74653,16.99848],[-61.74533,16.99879],[-61.74399,17.00035],[-61.74326,17.00167],[-61.74108,17.00265],[-61.74,17.0031],[-61.73943,17.0037],[-61.74051,17.00452],[-61.74187,17.00424],[-61.74289,17.00528],[-61.74283,17.00669],[-61.74221,17.00603],[-61.74057,17.00576],[-61.7396,17.00636],[-61.73841,17.00587],[-61.73733,17.00408],[-61.73733,17.00235],[-61.73665,17.00186],[-61.73467,17.00218],[-61.73364,17.0049],[-61.73381,17.00728],[-61.73546,17.00853],[-61.73699,17.00999],[-61.73835,17.01195],[-61.73864,17.01401],[-61.73779,17.01575],[-61.73614,17.01618],[-61.73449,17.01623],[-61.73398,17.01482],[-61.73489,17.0133],[-61.73472,17.01254],[-61.73325,17.01276],[-61.7324,17.01488],[-61.73126,17.01694],[-61.73172,17.0203],[-61.73308,17.02209],[-61.73472,17.02329],[-61.7362,17.02426],[-61.73813,17.02578],[-61.73926,17.02697],[-61.74028,17.02909],[-61.74096,17.03153],[-61.74215,17.0331],[-61.74283,17.03457],[-61.74278,17.03695],[-61.74374,17.03853],[-61.74454,17.03988],[-61.74425,17.04216],[-61.74323,17.04363]]],[[[-61.70568,17.10649],[-61.7063,17.10703],[-61.70726,17.10754],[-61.70874,17.10705],[-61.70921,17.10625],[-61.70898,17.10556],[-61.70844,17.10583],[-61.7074,17.10609],[-61.70663,17.10614],[-61.70577,17.10552],[-61.7051,17.10512],[-61.70386,17.10489],[-61.70277,17.10492],[-61.70207,17.10509],[-61.7008,17.10512],[-61.70019,17.1052],[-61.70003,17.10567],[-61.70077,17.10614],[-61.7021,17.10636],[-61.70347,17.10636],[-61.70435,17.10625],[-61.70568,17.10649]]],[[[-61.7152,17.10956],[-61.71427,17.11016],[-61.7129,17.11145],[-61.71321,17.11196],[-61.71416,17.11185],[-61.71483,17.11098],[-61.71581,17.11034],[-61.71716,17.11025],[-61.71797,17.11011],[-61.71825,17.10974],[-61.71822,17.10931],[-61.71913,17.10922],[-61.71948,17.10969],[-61.72015,17.10929],[-61.72097,17.10854],[-61.72227,17.10843],[-61.72355,17.1094],[-61.72434,17.10991],[-61.72417,17.10907],[-61.72394,17.10858],[-61.7245,17.108],[-61.72515,17.10716],[-61.72524,17.10645],[-61.72471,17.10638],[-61.72341,17.107],[-61.72229,17.10756],[-61.72118,17.1076],[-61.71978,17.10754],[-61.71857,17.10751],[-61.71695,17.10796],[-61.71602,17.10869],[-61.7152,17.10956]]],[[[-61.76363,17.14699],[-61.7649,17.14838],[-61.76421,17.1471],[-61.7641,17.14623],[-61.76428,17.14526],[-61.7641,17.14477],[-61.76407,17.14394],[-61.7641,17.14352],[-61.76363,17.14283],[-61.76298,17.14304],[-61.76279,17.14366],[-61.76236,17.14446],[-61.762,17.14533],[-61.76141,17.14599],[-61.76149,17.14651],[-61.7624,17.14633],[-61.76287,17.14633],[-61.76363,17.14699]]],[[[-61.75662,17.15923],[-61.75736,17.15983],[-61.75787,17.16096],[-61.75792,17.16183],[-61.75855,17.16172],[-61.75855,17.16021],[-61.75912,17.15934],[-61.76014,17.15836],[-61.76019,17.15744],[-61.75991,17.15598],[-61.76048,17.15446],[-61.76139,17.15365],[-61.76195,17.15278],[-61.76178,17.15175],[-61.76133,17.15088],[-61.76036,17.1498],[-61.75974,17.1492],[-61.7581,17.14953],[-61.75736,17.15083],[-61.75639,17.15186],[-61.75532,17.1518],[-61.75469,17.15099],[-61.75441,17.14969],[-61.75361,17.14909],[-61.75361,17.14991],[-61.7539,17.15121],[-61.75333,17.15191],[-61.75174,17.15235],[-61.7501,17.15283],[-61.74959,17.15327],[-61.74879,17.15435],[-61.74754,17.15473],[-61.74675,17.15489],[-61.74595,17.15544],[-61.74618,17.15641],[-61.74681,17.15766],[-61.74754,17.1588],[-61.74896,17.15901],[-61.75185,17.15934],[-61.75288,17.15972],[-61.75344,17.15918],[-61.75515,17.15874],[-61.75662,17.15923]]]]},"properties":{"area_code":"AG","area_name":"Antigua and Barbuda"}}
]}