{"type":"FeatureCollection", "features": [
{"type":"Feature","geometry":{"type":"Polygon","coordinates":[[[18.627,5.73673],[18.62142,5.79771],[18.60733,5.85097],[18.61109,5.89769],[18.62424,5.93786],[18.62048,5.97897],[18.63551,6.00139],[18.69844,6.03222],[18.75198,6.0537],[18.77734,6.08639],[18.81585,6.12375],[18.84967,6.15924],[18.87409,6.19846],[18.87409,6.2162],[18.86282,6.22647],[18.85061,6.25542],[18.85248,6.30023],[18.85436,6.33851],[18.84027,6.36371],[18.80928,6.40292],[18.73038,6.47759],[18.7403,6.52128],[18.77437,6.58364],[18.82367,6.61349],[18.84411,6.64395],[18.8435,6.67798],[18.82787,6.71022],[18.7894,6.75977],[18.72087,6.82603],[18.69743,6.86602],[18.68961,6.92331],[18.6836,6.98776],[18.70163,7.02774],[18.72147,7.05578],[18.73891,7.08322],[18.7377,7.1375],[18.75033,7.16315],[18.77978,7.18343],[18.80443,7.20669],[18.83749,7.22816],[18.78399,7.39392],[18.71388,7.60781],[18.96925,7.73871],[18.97177,7.77867],[18.9605,7.82148],[18.97647,7.87266],[18.9915,7.91453],[19.00747,7.93964],[19.01968,7.98057],[19.02062,8.02429],[19.03658,8.05405],[19.04692,8.10334],[19.05161,8.14054],[19.05443,8.19167],[19.04974,8.22979],[19.02813,8.24559],[19.01216,8.26418],[19.01028,8.29393],[19.02986,8.32884],[19.03587,8.37463],[19.0497,8.39902],[19.05511,8.41507],[19.05044,8.45863],[19.0379,8.54099],[19.00307,8.51547],[18.97986,8.48613],[18.92826,8.42872],[18.92568,8.39809],[18.86763,8.3496],[18.80443,8.27046],[18.73348,8.24621],[18.67544,8.21557],[18.63803,8.16067],[18.63674,8.12108],[18.629,8.06745],[18.55031,8.04446],[18.04595,8.0138],[17.92341,7.95887],[17.79184,7.9742],[17.63576,7.99081],[17.56482,7.9231],[17.53773,7.90777],[17.50161,7.88988],[17.4513,7.88477],[17.37907,7.85922],[17.29522,7.81833],[17.23073,7.76209],[17.15994,7.69611],[17.12568,7.66615],[17.09746,7.7001],[17.07126,7.67613],[17.02692,7.65616],[16.89793,7.60821],[16.89188,7.56426],[16.8556,7.55227],[16.8313,7.53047],[16.8335,7.51459],[16.83292,7.48123],[16.83869,7.43703],[16.82301,7.40264],[16.80815,7.37153],[16.79659,7.32568],[16.78751,7.26918],[16.77183,7.22332],[16.76522,7.18728],[16.7743,7.14551],[16.77595,7.10537],[16.75944,7.06604],[16.72394,7.03163],[16.7033,7.01197],[16.69918,6.97755],[16.71073,6.94232],[16.72229,6.91199],[16.72972,6.84151],[16.73963,6.76527],[16.76109,6.69231],[16.79824,6.57914],[16.8131,6.5488],[16.84943,6.51681],[16.89236,6.46185],[16.92207,6.45283],[16.94602,6.45529],[16.98317,6.46842],[17.01866,6.4717],[17.06077,6.47006],[17.08471,6.46103],[17.10039,6.44709],[17.10287,6.41673],[17.08058,6.39376],[17.05499,6.37407],[17.03683,6.34782],[17.01701,6.30105],[16.98234,6.2871],[16.95345,6.27479],[16.94436,6.23868],[16.95262,6.18287],[16.95262,6.12214],[16.93528,6.109],[16.91052,6.10326],[16.90969,6.07535],[16.9229,6.02363],[16.93528,5.96533],[16.96583,5.89472],[16.98171,5.84502],[16.98805,5.7935],[17.03032,5.70571],[17.27442,5.69888],[17.42764,5.70046],[17.59407,5.70414],[17.73778,5.78299],[17.79115,5.80559],[17.81756,5.84659],[17.85983,5.87182],[17.89682,5.88443],[17.92799,5.87918],[17.98664,5.84975],[18.01159,5.82058],[18.0285,5.79434],[18.07618,5.79569],[18.12295,5.78404],[18.17684,5.78509],[18.24553,5.78194],[18.27036,5.76144],[18.28832,5.7525],[18.32425,5.75566],[18.35965,5.74409],[18.38712,5.72306],[18.40826,5.67154],[18.39769,5.63105],[18.39928,5.59582],[18.41037,5.55796],[18.4574,5.56638],[18.55567,5.61949],[18.60639,5.65471],[18.627,5.73673]]]},"properties":{"area_code":"CF-AC","area_name":"Ouham","area_unit_id":"cf-adm1-2006-geoboundaries-adm1:CF-AC","source_boundary_name":"Ouham","boundary_set_id":"cf-adm1-2006-geoboundaries-adm1","boundary_level":"adm1","boundary_vintage":"2006","boundary_source":"geoBoundaries gbOpen CAF ADM1 (CAF-ADM1-63714938); source Wikimedia","boundary_licence":"Creative Commons Attribution 2.5 Generic"}},
{"type":"Feature","geometry":{"type":"Polygon","coordinates":[[[20.12996,7.08501],[20.154,7.07248],[20.18887,7.05757],[20.21532,7.03549],[20.25439,7.02774],[20.32112,7.02237],[20.38965,7.02177],[20.44435,7.02356],[20.48644,7.04146],[20.51349,7.05697],[20.55196,7.06353],[20.5748,7.07904],[20.60967,7.11841],[20.63131,7.1542],[20.65115,7.20908],[20.66978,7.24605],[20.69563,7.24665],[20.71968,7.2383],[20.76597,7.22637],[20.80925,7.24307],[20.87538,7.27885],[20.91686,7.31403],[20.95353,7.38498],[20.98238,7.42969],[20.99801,7.46545],[21.0443,7.49823],[21.05692,7.51552],[21.0461,7.55425],[21.04189,7.58107],[21.04911,7.59835],[21.07135,7.63231],[21.08277,7.65793],[21.0966,7.68176],[21.11824,7.72406],[21.11836,7.72517],[21.12185,7.75623],[21.10862,7.78541],[21.09299,7.83187],[21.09059,7.85509],[21.0984,7.87772],[21.11042,7.91226],[21.11163,7.99025],[21.26131,7.99799],[21.43144,8.00335],[21.41701,8.03668],[21.38815,8.0843],[21.3623,8.13012],[21.36471,8.16047],[21.39777,8.17416],[21.43805,8.1926],[21.4663,8.23544],[21.48434,8.25686],[21.50718,8.26102],[21.54265,8.24675],[21.57511,8.23425],[21.59314,8.2408],[21.60697,8.27828],[21.66167,8.29731],[21.69834,8.31694],[21.7278,8.33003],[21.74463,8.33181],[21.76387,8.31159],[21.78431,8.28898],[21.81136,8.26816],[21.82519,8.24913],[21.84082,8.2045],[21.84803,8.19736],[21.92678,8.20283],[21.96435,8.22049],[21.97468,8.23351],[21.96717,8.25396],[21.94932,8.26697],[21.94369,8.28742],[21.95214,8.31623],[21.96905,8.34319],[21.98408,8.38129],[21.98689,8.40916],[21.97468,8.44633],[21.9559,8.47049],[21.94838,8.49092],[21.94463,8.52158],[21.95214,8.55038],[21.97093,8.58846],[21.99347,8.60703],[22.02916,8.61818],[22.05264,8.62189],[22.07237,8.61725],[22.09491,8.5996],[22.12591,8.58846],[22.18227,8.58196],[22.26398,8.57453],[22.33443,8.57453],[22.37106,8.58103],[22.39086,8.59284],[22.38891,8.60332],[22.37294,8.66275],[22.32786,8.67482],[22.26774,8.68225],[22.20951,8.69989],[22.12403,8.74631],[22.10337,8.7788],[22.09585,8.83543],[22.07707,8.88925],[22.07707,8.96441],[22.03574,8.98483],[22.0085,9.01822],[21.96435,9.07759],[21.93054,9.09429],[21.90799,9.12025],[21.89109,9.13973],[21.87042,9.15549],[21.8507,9.17404],[21.83097,9.20186],[21.82346,9.22967],[21.80279,9.26305],[21.79058,9.2992],[21.77931,9.36501],[21.76053,9.40486],[21.72014,9.44285],[21.70417,9.4586],[21.68726,9.49102],[21.66096,9.51326],[21.62996,9.54846],[21.60836,9.57347],[21.58112,9.58643],[21.52476,9.58551],[21.5041,9.68182],[21.49752,9.75496],[21.4778,9.76051],[21.44962,9.74662],[21.42238,9.72348],[21.3773,9.70219],[21.33972,9.65959],[21.30591,9.62996],[21.27397,9.59292],[21.2101,9.56235],[21.17065,9.54753],[21.11335,9.53549],[21.06451,9.52345],[21.03821,9.50492],[21.0044,9.46601],[20.97904,9.43729],[20.93019,9.42524],[20.91329,9.403],[20.88605,9.37983],[20.84472,9.37613],[20.79963,9.38261],[20.75543,9.41427],[20.73285,9.40739],[20.67997,9.38193],[20.67094,9.34121],[20.62837,9.32848],[20.56001,9.33102],[20.52389,9.30811],[20.50841,9.27119],[20.46455,9.18589],[20.41682,9.15151],[20.33169,9.12349],[20.21689,9.14259],[20.14723,9.14259],[20.09563,9.14768],[20.03243,9.12094],[19.946,9.084],[19.7796,9.04197],[19.65706,9.01776],[19.60547,9.02541],[19.49453,9.02413],[19.3965,9.02413],[19.29202,9.01904],[19.11143,9.01012],[19.025,8.99483],[18.86634,8.88652],[18.87021,8.86103],[18.93858,8.80112],[19.01468,8.76033],[19.10111,8.70423],[19.1153,8.67618],[19.09208,8.65195],[19.05467,8.60221],[19.04161,8.55451],[19.06413,8.53518],[19.07675,8.51199],[19.10621,8.47394],[19.12604,8.44005],[19.15129,8.40021],[19.19638,8.36869],[19.21201,8.33776],[19.22283,8.29434],[19.23124,8.26876],[19.25589,8.24615],[19.27753,8.22295],[19.29196,8.19677],[19.33704,8.14083],[19.33524,8.08608],[19.33224,8.02835],[19.32322,7.96048],[19.32322,7.92476],[19.32562,7.88784],[19.32202,7.85986],[19.3124,7.84139],[19.30879,7.81459],[19.32262,7.7872],[19.3671,7.76933],[19.43323,7.75563],[19.49034,7.73776],[19.53903,7.70798],[19.55706,7.68176],[19.56608,7.64959],[19.56788,7.61325],[19.58832,7.58822],[19.61057,7.57869],[19.64243,7.57034],[19.68992,7.55545],[19.71456,7.53995],[19.73681,7.50658],[19.75785,7.46903],[19.81075,7.41121],[19.86726,7.37365],[19.88529,7.35994],[19.89551,7.33669],[19.89972,7.30508],[19.90994,7.28004],[19.9448,7.24784],[19.96885,7.22458],[19.98448,7.20311],[20.02716,7.16434],[20.12996,7.08501]]]},"properties":{"area_code":"CF-BB","area_name":"Bamingui-Bangoran","area_unit_id":"cf-adm1-2006-geoboundaries-adm1:CF-BB","source_boundary_name":"Bamingui-Bangoran","boundary_set_id":"cf-adm1-2006-geoboundaries-adm1","boundary_level":"adm1","boundary_vintage":"2006","boundary_source":"geoBoundaries gbOpen CAF ADM1 (CAF-ADM1-63714938); source Wikimedia","boundary_licence":"Creative Commons Attribution 2.5 Generic"}},
{"type":"Feature","geometry":{"type":"Polygon","coordinates":[[[18.55246,4.31807],[18.55748,4.33082],[18.58473,4.35469],[18.6227,4.35716],[18.66284,4.359],[18.65957,4.38276],[18.63769,4.43382],[18.6228,4.46524],[18.59873,4.4779],[18.5659,4.48401],[18.516,4.49841],[18.4963,4.48401],[18.48535,4.46655],[18.48098,4.39149],[18.49717,4.36443],[18.51731,4.33256],[18.55246,4.31807]]]},"properties":{"area_code":"CF-BGF","area_name":"Bangui","area_unit_id":"cf-adm1-2006-geoboundaries-adm1:CF-BGF","source_boundary_name":"Bangui","boundary_set_id":"cf-adm1-2006-geoboundaries-adm1","boundary_level":"adm1","boundary_vintage":"2006","boundary_source":"geoBoundaries gbOpen CAF ADM1 (CAF-ADM1-63714938); source Wikimedia","boundary_licence":"Creative Commons Attribution 2.5 Generic"}},
{"type":"Feature","geometry":{"type":"Polygon","coordinates":[[[21.89312,5.46812],[21.78972,5.5124],[21.72419,5.53274],[21.6749,5.5477],[21.65305,5.56509],[21.65251,5.56217],[21.64217,5.50608],[21.62057,5.48644],[21.59333,5.46587],[21.56515,5.45465],[21.54167,5.45839],[21.52195,5.48083],[21.49189,5.52197],[21.47498,5.55656],[21.46559,5.59769],[21.45432,5.63695],[21.41768,5.65565],[21.36039,5.68089],[21.34348,5.67995],[21.26834,5.66687],[21.22701,5.6435],[21.19883,5.63976],[21.16126,5.64724],[21.12932,5.64537],[21.10396,5.65191],[21.08705,5.6706],[21.05982,5.67528],[21.02412,5.65658],[20.99688,5.61359],[20.99406,5.56311],[20.98185,5.52851],[20.97058,5.51262],[20.96307,5.48364],[20.96401,5.42753],[20.96119,5.40509],[20.94428,5.37797],[20.94992,5.34423],[20.95473,5.26342],[20.95292,5.22511],[20.91205,5.16824],[20.8898,5.1395],[20.8856,5.11974],[20.90002,5.08022],[20.91505,5.04849],[20.92287,5.02154],[20.91445,4.99279],[20.90483,4.95626],[20.89882,4.90775],[20.90664,4.8784],[20.90423,4.85085],[20.90062,4.8209],[20.88319,4.79274],[20.86456,4.78076],[20.84472,4.78376],[20.82728,4.79754],[20.80685,4.80053],[20.79422,4.78795],[20.76356,4.76698],[20.72689,4.75081],[20.70886,4.73943],[20.68181,4.69809],[20.6241,4.63158],[20.59043,4.59443],[20.54174,4.56207],[20.48283,4.53511],[20.46739,4.53095],[20.4967,4.48474],[20.5388,4.45347],[20.61227,4.41807],[20.67667,4.42301],[20.74023,4.42301],[20.81206,4.43042],[20.86654,4.4477],[20.9945,4.4189],[21.06798,4.3942],[21.13154,4.34399],[21.17365,4.31189],[21.23556,4.31106],[21.27023,4.3267],[21.31564,4.32012],[21.39654,4.28307],[21.46671,4.2592],[21.56908,4.26085],[21.62852,4.29707],[21.66815,4.30365],[21.72594,4.30612],[21.79446,4.28225],[21.84977,4.25755],[21.92572,4.24273],[21.99424,4.23779],[22.03858,4.22468],[22.05182,4.257],[22.06444,4.29476],[22.06564,4.33672],[22.07827,4.37509],[22.0951,4.40266],[22.11794,4.4566],[22.12275,4.49316],[22.12035,4.50994],[22.08909,4.52552],[22.03559,4.52072],[21.9893,4.50215],[21.95263,4.51473],[21.93459,4.54709],[21.91536,4.58425],[21.87508,4.6202],[21.82398,4.65495],[21.77469,4.67412],[21.74704,4.68491],[21.74764,4.72265],[21.76327,4.79634],[21.77289,4.87421],[21.78791,4.94309],[21.81917,4.98201],[21.8336,5.02573],[21.81857,5.04968],[21.80775,5.08741],[21.82579,5.10417],[21.87508,5.15207],[21.89011,5.185],[21.89913,5.23529],[21.90033,5.29036],[21.90875,5.35979],[21.90454,5.38972],[21.90333,5.42563],[21.90454,5.45315],[21.89312,5.46812]]]},"properties":{"area_code":"CF-BK","area_name":"Basse-Kotto","area_unit_id":"cf-adm1-2006-geoboundaries-adm1:CF-BK","source_boundary_name":"Basse-Kotto","boundary_set_id":"cf-adm1-2006-geoboundaries-adm1","boundary_level":"adm1","boundary_vintage":"2006","boundary_source":"geoBoundaries gbOpen CAF ADM1 (CAF-ADM1-63714938); source Wikimedia","boundary_licence":"Creative Commons Attribution 2.5 Generic"}},
{"type":"Feature","geometry":{"type":"Polygon","coordinates":[[[21.11836,7.72517],[21.12499,7.71653],[21.12463,7.70608],[21.13214,7.68001],[21.17159,7.63719],[21.19132,7.61299],[21.23264,7.60647],[21.27397,7.59995],[21.30873,7.59064],[21.34818,7.5655],[21.39045,7.51894],[21.39984,7.4789],[21.39796,7.40998],[21.39045,7.3662],[21.39514,7.32428],[21.40829,7.31403],[21.43741,7.30285],[21.49752,7.30378],[21.54825,7.30751],[21.55576,7.28981],[21.55576,7.24042],[21.5567,7.18172],[21.57173,7.11554],[21.58206,7.01114],[21.6093,6.9552],[21.614,6.91884],[21.62902,6.87315],[21.61775,6.82558],[21.60272,6.79387],[21.60179,6.76403],[21.61494,6.73604],[21.61494,6.69873],[21.63936,6.65582],[21.67035,6.6017],[21.69102,6.5877],[21.76898,6.57464],[21.76804,6.51212],[21.75846,6.45762],[21.76146,6.4158],[21.78311,6.37219],[21.78671,6.33873],[21.7813,6.31125],[21.75064,6.27121],[21.72299,6.22221],[21.7296,6.20249],[21.76928,6.17859],[21.7777,6.15408],[21.78611,6.11643],[21.80054,6.07698],[21.81136,6.05904],[21.86847,6.02676],[21.88169,5.96757],[21.89191,5.93768],[21.92678,5.89821],[21.92257,5.85875],[21.91716,5.81748],[21.89612,5.72896],[21.88169,5.69128],[21.87268,5.66017],[21.85945,5.63744],[21.83721,5.62308],[21.81857,5.62607],[21.79032,5.64402],[21.76928,5.66017],[21.74463,5.66316],[21.72359,5.65479],[21.68993,5.62667],[21.66769,5.60872],[21.6572,5.58741],[21.65305,5.56509],[21.6749,5.5477],[21.72419,5.53274],[21.78972,5.5124],[21.89312,5.46812],[21.91375,5.47516],[21.9394,5.48474],[21.95864,5.52622],[21.98215,5.54856],[22.02169,5.57409],[22.04734,5.60387],[22.05055,5.62833],[22.05162,5.64216],[22.06337,5.65067],[22.05055,5.68045],[22.03452,5.70065],[22.03559,5.75382],[22.05162,5.7921],[22.06337,5.84419],[22.06765,5.89948],[22.08902,5.92818],[22.10386,5.97456],[22.10728,5.99361],[22.16131,6.02286],[22.21329,6.04871],[22.24475,6.06095],[22.2899,6.06231],[22.33641,6.05143],[22.36787,6.05143],[22.42669,6.07183],[22.46294,6.10108],[22.48346,6.1582],[22.49919,6.20308],[22.51629,6.2398],[22.56485,6.25884],[22.64556,6.26631],[22.74268,6.26155],[22.78167,6.26223],[22.82066,6.26223],[22.83297,6.24048],[22.84186,6.20308],[22.88837,6.17928],[22.93967,6.16704],[23.17085,6.1038],[23.26524,6.08815],[23.27002,6.1174],[23.27618,6.15412],[23.29123,6.18744],[23.30217,6.2058],[23.34047,6.20988],[23.3733,6.20784],[23.3904,6.24252],[23.41229,6.29147],[23.45196,6.31322],[23.55387,6.37712],[23.77958,6.50082],[24.13388,6.70057],[24.23921,6.74541],[24.26041,6.74473],[24.2625,6.74576],[24.29051,6.75967],[24.30213,6.77393],[24.30897,6.80178],[24.31513,6.83438],[24.33086,6.86833],[24.33975,6.89481],[24.34317,6.93352],[24.36506,6.95864],[24.41089,6.9695],[24.4574,6.9695],[24.49365,6.97833],[24.52853,7.01431],[24.54768,7.03196],[24.56136,7.05164],[24.5511,7.08694],[24.55384,7.13852],[24.55452,7.17517],[24.55657,7.21928],[24.52648,7.24913],[24.50527,7.2912],[24.50938,7.34275],[24.53742,7.39024],[24.55931,7.44992],[24.57162,7.4818],[24.547,7.52723],[24.51143,7.5869],[24.48612,7.64723],[24.4827,7.72315],[24.4786,7.80108],[24.46424,7.82683],[24.45124,7.87562],[24.44987,7.95285],[24.46355,7.97452],[24.47655,8.02194],[24.47997,8.05986],[24.45808,8.08695],[24.43346,8.12081],[24.41636,8.15534],[24.39379,8.16279],[24.35548,8.18107],[24.31376,8.21153],[24.2823,8.25214],[24.26189,8.28336],[24.25129,8.28588],[24.18442,8.32346],[24.158,8.3692],[24.16295,8.44515],[24.19185,8.50394],[24.24303,8.55619],[24.26615,8.59538],[24.23808,8.6215],[24.23643,8.64761],[24.25789,8.69495],[24.2323,8.70719],[24.16378,8.70229],[24.12745,8.69576],[24.07875,8.70474],[24.03582,8.70719],[23.99124,8.71372],[23.94831,8.72759],[23.90125,8.72024],[23.85668,8.72351],[23.81622,8.73493],[23.7865,8.72922],[23.71716,8.72269],[23.64451,8.73901],[23.58259,8.74636],[23.54544,8.72432],[23.52976,8.7284],[23.5182,8.76431],[23.51737,8.81407],[23.53719,8.83936],[23.57104,8.88259],[23.59085,8.93561],[23.59498,8.98209],[23.57599,8.99677],[23.54544,8.97801],[23.50334,8.96823],[23.45794,8.99187],[23.46537,9.06118],[23.47833,9.138],[23.44768,9.15293],[23.43205,9.17074],[23.42724,9.18676],[23.37855,9.18676],[23.34729,9.17193],[23.33526,9.13276],[23.33286,9.06806],[23.31663,9.01522],[23.25772,8.98791],[23.19099,8.97959],[23.1471,8.94872],[23.09245,8.90665],[23.08321,8.8922],[23.07475,8.82606],[23.06359,8.75648],[23.01319,8.75458],[22.98059,8.75805],[22.92168,8.75032],[22.86156,8.72953],[22.79604,8.70041],[22.70586,8.69863],[22.6205,8.68496],[22.57301,8.65168],[22.54355,8.61721],[22.5135,8.58571],[22.44617,8.58987],[22.39086,8.59284],[22.37106,8.58103],[22.33443,8.57453],[22.26398,8.57453],[22.18227,8.58196],[22.12591,8.58846],[22.09491,8.5996],[22.07237,8.61725],[22.05264,8.62189],[22.02916,8.61818],[21.99347,8.60703],[21.97093,8.58846],[21.95214,8.55038],[21.94463,8.52158],[21.94838,8.49092],[21.9559,8.47049],[21.97468,8.44633],[21.98689,8.40916],[21.98408,8.38129],[21.96905,8.34319],[21.95214,8.31623],[21.94369,8.28742],[21.94932,8.26697],[21.96717,8.25396],[21.97468,8.23351],[21.96435,8.22049],[21.92678,8.20283],[21.84803,8.19736],[21.84082,8.2045],[21.82519,8.24913],[21.81136,8.26816],[21.78431,8.28898],[21.76387,8.31159],[21.74463,8.33181],[21.7278,8.33003],[21.69834,8.31694],[21.66167,8.29731],[21.60697,8.27828],[21.59314,8.2408],[21.57511,8.23425],[21.54265,8.24675],[21.50718,8.26102],[21.48434,8.25686],[21.4663,8.23544],[21.43805,8.1926],[21.39777,8.17416],[21.36471,8.16047],[21.3623,8.13012],[21.38815,8.0843],[21.41701,8.03668],[21.43144,8.00335],[21.26131,7.99799],[21.11163,7.99025],[21.11042,7.91226],[21.0984,7.87772],[21.09059,7.85509],[21.09299,7.83187],[21.10862,7.78541],[21.12185,7.75623],[21.11836,7.72517]]]},"properties":{"area_code":"CF-HK","area_name":"Haute-Kotto","area_unit_id":"cf-adm1-2006-geoboundaries-adm1:CF-HK","source_boundary_name":"Haute-Kotto","boundary_set_id":"cf-adm1-2006-geoboundaries-adm1","boundary_level":"adm1","boundary_vintage":"2006","boundary_source":"geoBoundaries gbOpen CAF ADM1 (CAF-ADM1-63714938); source Wikimedia","boundary_licence":"Creative Commons Attribution 2.5 Generic"}},
{"type":"Feature","geometry":{"type":"Polygon","coordinates":[[[24.2625,6.74576],[24.30337,6.68448],[24.44765,6.52949],[24.57483,6.39144],[24.65498,6.39994],[24.71055,6.4148],[24.74582,6.45304],[24.78857,6.48914],[24.82383,6.49763],[24.89116,6.48277],[24.92857,6.44666],[24.97559,6.43392],[25.02646,6.37644],[25.04971,6.35129],[25.05587,6.30982],[25.03467,6.28263],[24.99294,6.26359],[24.9779,6.2296],[24.93139,6.21396],[24.88625,6.21124],[24.85957,6.21056],[24.86025,6.18608],[24.92865,6.1344],[25.00551,6.06635],[25.05467,6.02065],[25.07498,5.97176],[25.12628,5.95263],[25.16154,5.95156],[25.16902,5.90904],[25.1562,5.86014],[25.14765,5.81336],[25.11238,5.7921],[25.06643,5.75914],[25.04612,5.72405],[25.0333,5.68151],[25.02582,5.63259],[25.02796,5.59324],[25.02047,5.55494],[24.99089,5.50227],[24.97106,5.48797],[24.95806,5.46074],[24.94096,5.42874],[24.91155,5.4192],[24.8753,5.38992],[24.8582,5.35043],[24.84521,5.32932],[24.80417,5.31229],[24.76343,5.28957],[24.72973,5.28129],[24.69208,5.25296],[24.66713,5.25078],[24.5949,5.25252],[24.5787,5.24206],[24.55726,5.19847],[24.54544,5.16969],[24.5288,5.1492],[24.53012,5.12697],[24.49378,5.09323],[24.54353,5.06966],[24.58976,5.02115],[24.6492,4.96193],[24.68635,4.92574],[24.73919,4.92081],[24.8044,4.92081],[24.86632,4.95124],[24.92163,4.97427],[24.98107,4.97591],[25.02978,4.95617],[25.06775,4.95206],[25.09252,4.97345],[25.12059,5.00388],[25.12802,5.02772],[25.15278,5.02855],[25.17342,5.01292],[25.24194,5.02444],[25.3212,5.05568],[25.33193,5.10256],[25.33193,5.15765],[25.31872,5.19958],[25.3278,5.23657],[25.35257,5.29576],[25.39137,5.31467],[25.45989,5.3533],[25.53501,5.35659],[25.60849,5.34179],[25.65224,5.31713],[25.6993,5.29576],[25.78433,5.24397],[25.86853,5.21849],[25.90156,5.19711],[25.93788,5.20451],[25.96843,5.22917],[26.02456,5.2152],[26.05511,5.21602],[26.08978,5.22917],[26.13354,5.25384],[26.19628,5.23246],[26.23425,5.19711],[26.27388,5.1708],[26.32919,5.15518],[26.3845,5.14449],[26.4266,5.10667],[26.45715,5.07049],[26.51164,5.05897],[26.54879,5.07131],[26.60245,5.08035],[26.68335,5.10091],[26.73453,5.10256],[26.76921,5.08282],[26.79315,5.06144],[26.83855,5.04582],[26.88148,5.0524],[26.90212,5.07953],[26.91698,5.11078],[26.94918,5.14696],[26.9888,5.16998],[27.05154,5.19876],[27.10768,5.20533],[27.15721,5.19053],[27.2051,5.16176],[27.27609,5.13545],[27.36443,5.10173],[27.42387,5.07789],[27.45276,5.05897],[27.45111,5.0746],[27.41974,5.10585],[27.40488,5.1412],[27.3603,5.18149],[27.32728,5.20451],[27.2926,5.25219],[27.26041,5.30645],[27.24637,5.36563],[27.23894,5.41987],[27.24968,5.48315],[27.27031,5.5226],[27.27857,5.57108],[27.26206,5.60312],[27.23977,5.61709],[27.2183,5.65652],[27.18941,5.71403],[27.15556,5.76085],[27.12502,5.78138],[27.09282,5.79616],[27.0532,5.80438],[27.0243,5.8282],[26.99623,5.85201],[26.95578,5.86022],[26.90542,5.87993],[26.84186,5.90457],[26.82617,5.95302],[26.81709,5.97847],[26.78737,5.99325],[26.74774,6.00803],[26.69326,6.01295],[26.61566,6.01952],[26.56117,6.04005],[26.53805,6.07863],[26.48604,6.09341],[26.45715,6.10161],[26.46871,6.13527],[26.50833,6.16236],[26.53558,6.18616],[26.52732,6.22145],[26.49595,6.22063],[26.47944,6.24771],[26.45963,6.28874],[26.39358,6.31746],[26.29452,6.3954],[26.29699,6.44135],[26.30195,6.484],[26.33332,6.53157],[26.36799,6.57586],[26.40762,6.62097],[26.41092,6.64393],[26.39111,6.66525],[26.35561,6.68903],[26.29369,6.7087],[26.2293,6.74068],[26.1655,6.80128],[26.0984,6.84797],[26.05296,6.9235],[26.04662,6.96441],[26.00964,7.00899],[25.91612,7.06772],[25.83687,7.11962],[25.77928,7.15265],[25.66938,7.19773],[25.53042,7.27268],[25.49344,7.27897],[25.4517,7.29365],[25.40679,7.31985],[25.35554,7.37016],[25.32701,7.42517],[25.2784,7.46184],[25.21975,7.47756],[25.19492,7.52837],[25.187,7.56346],[25.21288,7.60379],[25.25093,7.62474],[25.2895,7.6504],[25.29319,7.6991],[25.28897,7.77239],[25.26836,7.81793],[25.22504,7.85824],[25.17696,7.89854],[25.11144,7.89278],[25.07657,7.90639],[24.99151,7.97127],[24.90961,8.04347],[24.88795,8.14181],[24.85255,8.1847],[24.80975,8.19045],[24.76379,8.19464],[24.73156,8.20614],[24.68242,8.22235],[24.60634,8.21555],[24.54716,8.21085],[24.50225,8.23961],[24.45999,8.27621],[24.40609,8.27307],[24.3165,8.27036],[24.26189,8.28336],[24.2823,8.25214],[24.31376,8.21153],[24.35548,8.18107],[24.39379,8.16279],[24.41636,8.15534],[24.43346,8.12081],[24.45808,8.08695],[24.47997,8.05986],[24.47655,8.02194],[24.46355,7.97452],[24.44987,7.95285],[24.45124,7.87562],[24.46424,7.82683],[24.4786,7.80108],[24.4827,7.72315],[24.48612,7.64723],[24.51143,7.5869],[24.547,7.52723],[24.57162,7.4818],[24.55931,7.44992],[24.53742,7.39024],[24.50938,7.34275],[24.50527,7.2912],[24.52648,7.24913],[24.55657,7.21928],[24.55452,7.17517],[24.55384,7.13852],[24.5511,7.08694],[24.56136,7.05164],[24.54768,7.03196],[24.52853,7.01431],[24.49365,6.97833],[24.4574,6.9695],[24.41089,6.9695],[24.36506,6.95864],[24.34317,6.93352],[24.33975,6.89481],[24.33086,6.86833],[24.31513,6.83438],[24.30897,6.80178],[24.30213,6.77393],[24.29051,6.75967],[24.2625,6.74576]]]},"properties":{"area_code":"CF-HM","area_name":"Haut-Mbomou","area_unit_id":"cf-adm1-2006-geoboundaries-adm1:CF-HM","source_boundary_name":"Haut-Mbomou","boundary_set_id":"cf-adm1-2006-geoboundaries-adm1","boundary_level":"adm1","boundary_vintage":"2006","boundary_source":"geoBoundaries gbOpen CAF ADM1 (CAF-ADM1-63714938); source Wikimedia","boundary_licence":"Creative Commons Attribution 2.5 Generic"}},
{"type":"Feature","geometry":{"type":"Polygon","coordinates":[[[16.74871,4.24191],[16.78834,4.316],[16.81806,4.3514],[16.8519,4.38844],[16.87419,4.40984],[16.89055,4.41023],[16.93059,4.38628],[16.94162,4.3619],[17.00309,4.32241],[17.02689,4.32219],[17.03858,4.3237],[17.02819,4.36449],[16.99446,4.46338],[16.94002,4.50282],[16.92581,4.5426],[16.91093,4.55945],[16.8805,4.61338],[16.85954,4.63967],[16.85413,4.68247],[16.85142,4.68989],[16.83485,4.71584],[16.82809,4.75392],[16.82902,4.85553],[16.93258,4.90975],[16.98858,4.94923],[17.01658,4.95502],[17.03666,4.96976],[17.04416,4.9837],[17.02279,5.04335],[16.99885,5.0894],[17.04673,5.10585],[17.0748,5.12393],[17.12433,5.13627],[17.12929,5.15271],[17.09709,5.19136],[17.08058,5.21931],[17.05581,5.27439],[16.99472,5.31385],[16.90391,5.35988],[16.8808,5.35823],[16.842,5.34426],[16.81393,5.34097],[16.78834,5.34672],[16.71651,5.37878],[16.68845,5.35988],[16.64387,5.33604],[16.60011,5.30563],[16.5382,5.26946],[16.53781,5.26913],[16.51095,5.24644],[16.48206,5.23493],[16.42262,5.2152],[16.34584,5.19053],[16.23522,5.14285],[16.03461,5.0598],[16.00241,5.05651],[15.97682,5.0672],[15.9438,5.09927],[15.82575,5.05568],[15.81584,5.07295],[15.79438,5.13051],[15.7886,5.17985],[15.79107,5.22835],[15.7498,5.23246],[15.71925,5.22177],[15.70026,5.2004],[15.67963,5.16011],[15.6821,5.13133],[15.69036,5.08282],[15.69531,5.01457],[15.5723,5.02115],[15.53763,5.02855],[15.49966,5.04499],[15.48232,5.04335],[15.45838,5.0269],[15.43361,5.00305],[15.40142,4.99154],[15.37417,4.99318],[15.34776,5.00634],[15.32959,5.00963],[15.30895,4.99976],[15.25034,4.99401],[15.12156,4.98825],[15.08523,4.98332],[15.05304,4.96358],[15.02909,4.94219],[15.01093,4.94301],[14.98039,4.96604],[14.95562,4.99976],[14.92838,5.00552],[14.89948,5.00141],[14.85821,4.99565],[14.80455,5.00059],[14.73025,5.00963],[14.68572,5.01017],[14.68572,5.01009],[14.71152,4.79675],[14.73087,4.63092],[14.81858,4.52034],[15.01723,4.38016],[15.06108,4.31971],[15.0972,4.2451],[15.10365,4.12803],[15.1488,4.0637],[15.1746,4.03668],[15.1488,4.01481],[15.09204,4.01095],[15.05334,4.00194],[15.08559,3.97234],[15.11655,3.92988],[15.2636,3.68919],[15.27789,3.67399],[15.46416,3.75685],[15.55497,3.80792],[15.66229,3.84499],[15.75558,3.87546],[15.80098,3.93065],[15.83813,3.95618],[15.89922,3.96524],[15.95453,3.97677],[16.00572,3.985],[16.07341,3.98171],[16.1378,3.96112],[16.21293,3.929],[16.29136,3.89441],[16.34089,3.88288],[16.41106,3.86064],[16.46059,3.85323],[16.48949,3.84993],[16.53077,3.88864],[16.57122,3.98253],[16.60176,4.03606],[16.60589,4.06077],[16.59846,4.11511],[16.62075,4.17605],[16.66781,4.24767],[16.68019,4.25508],[16.74871,4.24191]]]},"properties":{"area_code":"CF-HS","area_name":"Mambere-Kadei","area_unit_id":"cf-adm1-2006-geoboundaries-adm1:CF-HS","source_boundary_name":"Mambéré-Kadéï","boundary_set_id":"cf-adm1-2006-geoboundaries-adm1","boundary_level":"adm1","boundary_vintage":"2006","boundary_source":"geoBoundaries gbOpen CAF ADM1 (CAF-ADM1-63714938); source Wikimedia","boundary_licence":"Creative Commons Attribution 2.5 Generic"}},
{"type":"Feature","geometry":{"type":"Polygon","coordinates":[[[18.73038,6.47759],[18.77918,6.50182],[18.97095,6.54123],[19.01784,6.54243],[19.03707,6.53168],[19.05391,6.48091],[19.08697,6.44925],[19.10801,6.43492],[19.24026,6.43731],[19.34546,6.45343],[19.41159,6.4839],[19.50476,6.49525],[19.6262,6.48449],[19.7356,6.47733],[19.77566,6.47612],[19.78896,6.47572],[19.82559,6.45146],[19.85377,6.44212],[19.86692,6.45146],[19.85846,6.49625],[19.84343,6.60077],[19.89322,6.67168],[19.98027,6.75619],[20.04099,6.82245],[20.07946,6.84215],[20.10351,6.86184],[20.11853,6.94957],[20.13236,6.99432],[20.12996,7.08501],[20.02716,7.16434],[19.98448,7.20311],[19.96885,7.22458],[19.9448,7.24784],[19.90994,7.28004],[19.89972,7.30508],[19.89551,7.33669],[19.88529,7.35994],[19.86726,7.37365],[19.81075,7.41121],[19.75785,7.46903],[19.73681,7.50658],[19.71456,7.53995],[19.68992,7.55545],[19.64243,7.57034],[19.61057,7.57869],[19.58832,7.58822],[19.56788,7.61325],[19.56608,7.64959],[19.55706,7.68176],[19.53903,7.70798],[19.49034,7.73776],[19.43323,7.75563],[19.3671,7.76933],[19.32262,7.7872],[19.30879,7.81459],[19.3124,7.84139],[19.32202,7.85986],[19.32562,7.88784],[19.32322,7.92476],[19.32322,7.96048],[19.33224,8.02835],[19.33524,8.08608],[19.33704,8.14083],[19.29196,8.19677],[19.27753,8.22295],[19.25589,8.24615],[19.23124,8.26876],[19.22283,8.29434],[19.21201,8.33776],[19.19638,8.36869],[19.15129,8.40021],[19.12604,8.44005],[19.10621,8.47394],[19.07675,8.51199],[19.06413,8.53518],[19.04161,8.55451],[19.0379,8.54099],[19.05044,8.45863],[19.05511,8.41507],[19.0497,8.39902],[19.03587,8.37463],[19.02986,8.32884],[19.01028,8.29393],[19.01216,8.26418],[19.02813,8.24559],[19.04974,8.22979],[19.05443,8.19167],[19.05161,8.14054],[19.04692,8.10334],[19.03658,8.05405],[19.02062,8.02429],[19.01968,7.98057],[19.00747,7.93964],[18.9915,7.91453],[18.97647,7.87266],[18.9605,7.82148],[18.97177,7.77867],[18.96925,7.73871],[18.71388,7.60781],[18.78399,7.39392],[18.83749,7.22816],[18.80443,7.20669],[18.77978,7.18343],[18.75033,7.16315],[18.7377,7.1375],[18.73891,7.08322],[18.72147,7.05578],[18.70163,7.02774],[18.6836,6.98776],[18.68961,6.92331],[18.69743,6.86602],[18.72087,6.82603],[18.7894,6.75977],[18.82787,6.71022],[18.8435,6.67798],[18.84411,6.64395],[18.82367,6.61349],[18.77437,6.58364],[18.7403,6.52128],[18.73038,6.47759]]]},"properties":{"area_code":"CF-KB","area_name":"Nana-Grebizi","area_unit_id":"cf-adm1-2006-geoboundaries-adm1:CF-KB","source_boundary_name":"Nana-Grébizi","boundary_set_id":"cf-adm1-2006-geoboundaries-adm1","boundary_level":"adm1","boundary_vintage":"2006","boundary_source":"geoBoundaries gbOpen CAF ADM1 (CAF-ADM1-63714938); source Wikimedia","boundary_licence":"Creative Commons Attribution 2.5 Generic"}},
{"type":"Feature","geometry":{"type":"Polygon","coordinates":[[[18.627,5.73673],[18.67772,5.65787],[18.72157,5.64367],[18.77124,5.63894],[18.83147,5.63316],[18.87374,5.61791],[18.8843,5.58531],[18.87955,5.5364],[18.8954,5.47066],[18.94136,5.44226],[18.98416,5.42227],[19.01216,5.35863],[19.02167,5.32285],[19.01111,5.26919],[18.9942,5.22342],[18.9831,5.17554],[18.99314,5.15133],[19.03013,5.10765],[19.04228,5.08134],[19.05919,5.05187],[19.08085,5.03818],[19.09934,5.00134],[19.10312,4.95978],[19.10565,4.94384],[19.17252,4.94384],[19.20967,4.95864],[19.24269,5.00388],[19.30956,5.05404],[19.39872,5.11242],[19.50439,5.14614],[19.58612,5.14367],[19.66454,5.13956],[19.73306,5.12722],[19.84204,5.07953],[19.85271,5.06373],[19.89493,5.07337],[19.91301,5.0818],[19.92648,5.10365],[19.94225,5.14312],[19.95202,5.19219],[19.94961,5.22391],[19.95743,5.26522],[19.95683,5.30114],[19.95764,5.33736],[19.96765,5.35766],[19.98688,5.39214],[19.9965,5.42239],[20.00497,5.46529],[20.00304,5.47908],[19.84761,5.47908],[19.66448,5.48521],[19.58253,5.48291],[19.49904,5.48789],[19.46095,5.53154],[19.47211,5.5526],[19.50097,5.55911],[19.54098,5.56984],[19.57214,5.59051],[19.60516,5.61351],[19.6298,5.63744],[19.64663,5.65778],[19.65505,5.6853],[19.64303,5.71461],[19.6304,5.74033],[19.62139,5.75169],[19.61237,5.77143],[19.61297,5.8121],[19.60023,5.8447],[19.58907,5.88106],[19.58638,5.92622],[19.72065,6.01882],[19.7495,6.04025],[19.7899,6.0567],[19.82991,6.07391],[19.84723,6.10299],[19.84761,6.12671],[19.84492,6.16152],[19.84684,6.19709],[19.83799,6.21392],[19.83261,6.23801],[19.84184,6.26593],[19.85415,6.30188],[19.8553,6.33171],[19.8503,6.34432],[19.8303,6.36574],[19.7899,6.38294],[19.7672,6.4013],[19.76489,6.43991],[19.77566,6.47612],[19.7356,6.47733],[19.6262,6.48449],[19.50476,6.49525],[19.41159,6.4839],[19.34546,6.45343],[19.24026,6.43731],[19.10801,6.43492],[19.08697,6.44925],[19.05391,6.48091],[19.03707,6.53168],[19.01784,6.54243],[18.97095,6.54123],[18.77918,6.50182],[18.73038,6.47759],[18.80928,6.40292],[18.84027,6.36371],[18.85436,6.33851],[18.85248,6.30023],[18.85061,6.25542],[18.86282,6.22647],[18.87409,6.2162],[18.87409,6.19846],[18.84967,6.15924],[18.81585,6.12375],[18.77734,6.08639],[18.75198,6.0537],[18.69844,6.03222],[18.63551,6.00139],[18.62048,5.97897],[18.62424,5.93786],[18.61109,5.89769],[18.60733,5.85097],[18.62142,5.79771],[18.627,5.73673]]]},"properties":{"area_code":"CF-KG","area_name":"Kemo","area_unit_id":"cf-adm1-2006-geoboundaries-adm1:CF-KG","source_boundary_name":"Kémo","boundary_set_id":"cf-adm1-2006-geoboundaries-adm1","boundary_level":"adm1","boundary_vintage":"2006","boundary_source":"geoBoundaries gbOpen CAF ADM1 (CAF-ADM1-63714938); source Wikimedia","boundary_licence":"Creative Commons Attribution 2.5 Generic"}},
{"type":"Feature","geometry":{"type":"Polygon","coordinates":[[[16.74871,4.24191],[16.7821,4.19094],[16.81017,4.16295],[16.8384,4.13033],[16.85484,4.09687],[16.86956,4.07205],[16.89466,4.04161],[16.91977,3.98138],[16.9518,3.9572],[16.96478,3.94705],[16.9743,3.93777],[17.05025,3.92144],[17.08609,3.89951],[17.11856,3.88163],[17.1642,3.87319],[17.24299,3.85025],[17.27106,3.82731],[17.32888,3.80504],[17.34951,3.78041],[17.41885,3.67721],[17.42236,3.67941],[17.4884,3.69589],[17.54784,3.67282],[17.61801,3.63987],[17.708,3.64151],[17.78642,3.62751],[17.83348,3.60444],[17.86485,3.555],[17.89952,3.55995],[17.95896,3.56736],[18.02253,3.56983],[18.10508,3.56242],[18.14966,3.54264],[18.17195,3.50886],[18.19424,3.48908],[18.23222,3.49815],[18.25781,3.54511],[18.26442,3.57066],[18.30404,3.58878],[18.36761,3.59125],[18.41962,3.59455],[18.45016,3.60938],[18.47906,3.63657],[18.50548,3.63163],[18.53437,3.60114],[18.55171,3.56818],[18.57482,3.52369],[18.59463,3.47837],[18.62683,3.46931],[18.62931,3.49485],[18.62188,3.55171],[18.61527,3.62009],[18.60454,3.6687],[18.59216,3.73131],[18.60537,3.78239],[18.60784,3.84169],[18.61501,3.88293],[18.58948,3.88357],[18.5414,3.89727],[18.48962,3.92099],[18.44102,3.9463],[18.4146,3.99584],[18.39716,4.01429],[18.3475,4.03115],[18.34961,4.14446],[18.33799,4.19189],[18.31051,4.23193],[18.26243,4.26987],[18.23126,4.31834],[18.21013,4.33362],[18.18847,4.36049],[18.1816,4.40158],[18.16522,4.42054],[18.13193,4.42107],[18.07223,4.42107],[18.04158,4.42739],[18.00671,4.45426],[17.97924,4.4611],[17.92957,4.45689],[17.89999,4.45426],[17.84715,4.46426],[17.82179,4.49323],[17.78639,4.51588],[17.75469,4.52484],[17.7177,4.52378],[17.67755,4.51272],[17.62947,4.50588],[17.59407,4.51799],[17.56607,4.53695],[17.50192,4.71333],[17.49629,4.74568],[17.46611,4.79413],[17.42071,4.8147],[17.36952,4.83197],[17.31999,4.86241],[17.2386,4.91666],[17.20546,4.93889],[17.18889,4.97393],[17.17198,4.98707],[17.15203,5.01132],[17.13343,5.03288],[17.09894,5.02513],[17.06411,5.01031],[17.04416,4.9837],[17.03666,4.96976],[17.01658,4.95502],[16.98858,4.94923],[16.93258,4.90975],[16.82902,4.85553],[16.82809,4.75392],[16.83485,4.71584],[16.85142,4.68989],[16.85413,4.68247],[16.85954,4.63967],[16.8805,4.61338],[16.91093,4.55945],[16.92581,4.5426],[16.94002,4.50282],[16.99446,4.46338],[17.02819,4.36449],[17.03858,4.3237],[17.02689,4.32219],[17.00309,4.32241],[16.94162,4.3619],[16.93059,4.38628],[16.89055,4.41023],[16.87419,4.40984],[16.8519,4.38844],[16.81806,4.3514],[16.78834,4.316],[16.74871,4.24191]]]},"properties":{"area_code":"CF-LB","area_name":"Lobaye","area_unit_id":"cf-adm1-2006-geoboundaries-adm1:CF-LB","source_boundary_name":"Lobaye","boundary_set_id":"cf-adm1-2006-geoboundaries-adm1","boundary_level":"adm1","boundary_vintage":"2006","boundary_source":"geoBoundaries gbOpen CAF ADM1 (CAF-ADM1-63714938); source Wikimedia","boundary_licence":"Creative Commons Attribution 2.5 Generic"}},
{"type":"Feature","geometry":{"type":"Polygon","coordinates":[[[22.03858,4.22468],[22.06936,4.21557],[22.11807,4.19251],[22.17503,4.15958],[22.22539,4.13158],[22.29474,4.12253],[22.37317,4.11923],[22.44251,4.1357],[22.47553,4.15299],[22.50773,4.17769],[22.53993,4.21886],[22.54901,4.25261],[22.56139,4.30777],[22.58946,4.33576],[22.60597,4.36622],[22.60349,4.40408],[22.60349,4.43618],[22.61257,4.47898],[22.65468,4.49215],[22.68935,4.49462],[22.71081,4.52425],[22.73228,4.57445],[22.74631,4.62382],[22.77191,4.67977],[22.79997,4.71186],[22.82722,4.7168],[22.8718,4.72667],[22.89987,4.75382],[22.88583,4.7859],[22.89656,4.81716],[22.93289,4.82292],[22.96839,4.83362],[22.99398,4.80976],[23.01049,4.77027],[23.03938,4.74641],[23.07736,4.72255],[23.11946,4.71844],[23.15001,4.73078],[23.17725,4.73243],[23.19706,4.72091],[23.22926,4.69376],[23.27384,4.65015],[23.31512,4.62382],[23.35639,4.60736],[23.38694,4.59913],[23.41666,4.59996],[23.43317,4.60983],[23.4373,4.63369],[23.44803,4.66496],[23.48023,4.68224],[23.53058,4.69458],[23.57269,4.7316],[23.63625,4.7604],[23.69404,4.77439],[23.76174,4.79495],[23.84182,4.8147],[23.87979,4.8147],[23.93345,4.80647],[23.94914,4.81387],[23.94831,4.84513],[23.98463,4.86981],[24.03334,4.8731],[24.0837,4.90847],[24.14809,4.906],[24.17864,4.92986],[24.22982,4.95042],[24.2711,4.95288],[24.28513,4.97591],[24.33219,5.01292],[24.38998,5.03101],[24.40484,5.07295],[24.44529,5.08693],[24.47584,5.10173],[24.49378,5.09323],[24.53012,5.12697],[24.5288,5.1492],[24.54544,5.16969],[24.55726,5.19847],[24.5787,5.24206],[24.5949,5.25252],[24.66713,5.25078],[24.69208,5.25296],[24.72973,5.28129],[24.76343,5.28957],[24.80417,5.31229],[24.84521,5.32932],[24.8582,5.35043],[24.8753,5.38992],[24.91155,5.4192],[24.94096,5.42874],[24.95806,5.46074],[24.97106,5.48797],[24.99089,5.50227],[25.02047,5.55494],[25.02796,5.59324],[25.02582,5.63259],[25.0333,5.68151],[25.04612,5.72405],[25.06643,5.75914],[25.11238,5.7921],[25.14765,5.81336],[25.1562,5.86014],[25.16902,5.90904],[25.16154,5.95156],[25.12628,5.95263],[25.07498,5.97176],[25.05467,6.02065],[25.00551,6.06635],[24.92865,6.1344],[24.86025,6.18608],[24.85957,6.21056],[24.88625,6.21124],[24.93139,6.21396],[24.9779,6.2296],[24.99294,6.26359],[25.03467,6.28263],[25.05587,6.30982],[25.04971,6.35129],[25.02646,6.37644],[24.97559,6.43392],[24.92857,6.44666],[24.89116,6.48277],[24.82383,6.49763],[24.78857,6.48914],[24.74582,6.45304],[24.71055,6.4148],[24.65498,6.39994],[24.57483,6.39144],[24.44765,6.52949],[24.30337,6.68448],[24.2625,6.74576],[24.26041,6.74473],[24.23921,6.74541],[24.13388,6.70057],[23.77958,6.50082],[23.55387,6.37712],[23.45196,6.31322],[23.41229,6.29147],[23.3904,6.24252],[23.3733,6.20784],[23.34047,6.20988],[23.30217,6.2058],[23.29123,6.18744],[23.27618,6.15412],[23.27002,6.1174],[23.26524,6.08815],[23.17085,6.1038],[22.93967,6.16704],[22.88837,6.17928],[22.84186,6.20308],[22.83297,6.24048],[22.82066,6.26223],[22.78167,6.26223],[22.74268,6.26155],[22.64556,6.26631],[22.56485,6.25884],[22.51629,6.2398],[22.49919,6.20308],[22.48346,6.1582],[22.46294,6.10108],[22.42669,6.07183],[22.36787,6.05143],[22.33641,6.05143],[22.2899,6.06231],[22.24475,6.06095],[22.21329,6.04871],[22.16131,6.02286],[22.10728,5.99361],[22.10386,5.97456],[22.08902,5.92818],[22.06765,5.89948],[22.06337,5.84419],[22.05162,5.7921],[22.03559,5.75382],[22.03452,5.70065],[22.05055,5.68045],[22.06337,5.65067],[22.05162,5.64216],[22.05055,5.62833],[22.04734,5.60387],[22.02169,5.57409],[21.98215,5.54856],[21.95864,5.52622],[21.9394,5.48474],[21.91375,5.47516],[21.89312,5.46812],[21.90454,5.45315],[21.90333,5.42563],[21.90454,5.38972],[21.90875,5.35979],[21.90033,5.29036],[21.89913,5.23529],[21.89011,5.185],[21.87508,5.15207],[21.82579,5.10417],[21.80775,5.08741],[21.81857,5.04968],[21.8336,5.02573],[21.81917,4.98201],[21.78791,4.94309],[21.77289,4.87421],[21.76327,4.79634],[21.74764,4.72265],[21.74704,4.68491],[21.77469,4.67412],[21.82398,4.65495],[21.87508,4.6202],[21.91536,4.58425],[21.93459,4.54709],[21.95263,4.51473],[21.9893,4.50215],[22.03559,4.52072],[22.08909,4.52552],[22.12035,4.50994],[22.12275,4.49316],[22.11794,4.4566],[22.0951,4.40266],[22.07827,4.37509],[22.06564,4.33672],[22.06444,4.29476],[22.05182,4.257],[22.03858,4.22468]]]},"properties":{"area_code":"CF-MB","area_name":"Mbomou","area_unit_id":"cf-adm1-2006-geoboundaries-adm1:CF-MB","source_boundary_name":"Mbomou","boundary_set_id":"cf-adm1-2006-geoboundaries-adm1","boundary_level":"adm1","boundary_vintage":"2006","boundary_source":"geoBoundaries gbOpen CAF ADM1 (CAF-ADM1-63714938); source Wikimedia","boundary_licence":"Creative Commons Attribution 2.5 Generic"}},
{"type":"Feature","geometry":{"type":"Polygon","coordinates":[[[16.98171,5.84502],[16.94526,5.82609],[16.88397,5.81506],[16.85227,5.80139],[16.79838,5.78509],[16.75347,5.77721],[16.74184,5.74514],[16.71331,5.70466],[16.69112,5.65103],[16.6758,5.61423],[16.65414,5.60582],[16.57013,5.579],[16.52205,5.55218],[16.52416,5.50537],[16.51307,5.45646],[16.49352,5.40544],[16.49193,5.38177],[16.52152,5.32443],[16.53781,5.26913],[16.5382,5.26946],[16.60011,5.30563],[16.64387,5.33604],[16.68845,5.35988],[16.71651,5.37878],[16.78834,5.34672],[16.81393,5.34097],[16.842,5.34426],[16.8808,5.35823],[16.90391,5.35988],[16.99472,5.31385],[17.05581,5.27439],[17.08058,5.21931],[17.09709,5.19136],[17.12929,5.15271],[17.12433,5.13627],[17.0748,5.12393],[17.04673,5.10585],[16.99885,5.0894],[17.02279,5.04335],[17.04416,4.9837],[17.06411,5.01031],[17.09894,5.02513],[17.13343,5.03288],[17.15203,5.01132],[17.17198,4.98707],[17.18889,4.97393],[17.20546,4.93889],[17.2386,4.91666],[17.31999,4.86241],[17.36952,4.83197],[17.42071,4.8147],[17.46611,4.79413],[17.49629,4.74568],[17.50192,4.71333],[17.56607,4.53695],[17.59407,4.51799],[17.62947,4.50588],[17.67755,4.51272],[17.7177,4.52378],[17.75469,4.52484],[17.78639,4.51588],[17.82179,4.49323],[17.84715,4.46426],[17.89999,4.45426],[17.92957,4.45689],[17.97924,4.4611],[18.00671,4.45426],[18.04158,4.42739],[18.07223,4.42107],[18.13193,4.42107],[18.16522,4.42054],[18.1816,4.40158],[18.18847,4.36049],[18.21013,4.33362],[18.23126,4.31834],[18.26243,4.26987],[18.31051,4.23193],[18.33799,4.19189],[18.34961,4.14446],[18.3475,4.03115],[18.39716,4.01429],[18.4146,3.99584],[18.44102,3.9463],[18.48962,3.92099],[18.5414,3.89727],[18.58948,3.88357],[18.61501,3.88293],[18.61858,3.90347],[18.63839,3.94712],[18.65242,4.01465],[18.64499,4.07806],[18.6227,4.14476],[18.59133,4.20486],[18.55748,4.26249],[18.5484,4.30777],[18.55246,4.31807],[18.51731,4.33256],[18.49717,4.36443],[18.48098,4.39149],[18.48535,4.46655],[18.4963,4.48401],[18.516,4.49841],[18.5659,4.48401],[18.59873,4.4779],[18.6228,4.46524],[18.63769,4.43382],[18.65957,4.38276],[18.66284,4.359],[18.69453,4.36045],[18.74984,4.39503],[18.78781,4.43454],[18.81258,4.52507],[18.83487,4.57445],[18.8811,4.63369],[18.93806,4.68142],[19.0008,4.74312],[19.03878,4.80976],[19.07015,4.8731],[19.10565,4.94384],[19.10312,4.95978],[19.09934,5.00134],[19.08085,5.03818],[19.05919,5.05187],[19.04228,5.08134],[19.03013,5.10765],[18.99314,5.15133],[18.9831,5.17554],[18.9942,5.22342],[19.01111,5.26919],[19.02167,5.32285],[19.01216,5.35863],[18.98416,5.42227],[18.94136,5.44226],[18.8954,5.47066],[18.87955,5.5364],[18.8843,5.58531],[18.87374,5.61791],[18.83147,5.63316],[18.77124,5.63894],[18.72157,5.64367],[18.67772,5.65787],[18.627,5.73673],[18.60639,5.65471],[18.55567,5.61949],[18.4574,5.56638],[18.41037,5.55796],[18.39928,5.59582],[18.39769,5.63105],[18.40826,5.67154],[18.38712,5.72306],[18.35965,5.74409],[18.32425,5.75566],[18.28832,5.7525],[18.27036,5.76144],[18.24553,5.78194],[18.17684,5.78509],[18.12295,5.78404],[18.07618,5.79569],[18.0285,5.79434],[18.01159,5.82058],[17.98664,5.84975],[17.92799,5.87918],[17.89682,5.88443],[17.85983,5.87182],[17.81756,5.84659],[17.79115,5.80559],[17.73778,5.78299],[17.59407,5.70414],[17.42764,5.70046],[17.27442,5.69888],[17.03032,5.70571],[16.98805,5.7935],[16.98171,5.84502]]]},"properties":{"area_code":"CF-MP","area_name":"Ombella-Mpoko","area_unit_id":"cf-adm1-2006-geoboundaries-adm1:CF-MP","source_boundary_name":"Ombella-M'Poko","boundary_set_id":"cf-adm1-2006-geoboundaries-adm1","boundary_level":"adm1","boundary_vintage":"2006","boundary_source":"geoBoundaries gbOpen CAF ADM1 (CAF-ADM1-63714938); source Wikimedia","boundary_licence":"Creative Commons Attribution 2.5 Generic"}},
{"type":"Feature","geometry":{"type":"Polygon","coordinates":[[[16.53781,5.26913],[16.52152,5.32443],[16.49193,5.38177],[16.49352,5.40544],[16.51307,5.45646],[16.52416,5.50537],[16.52205,5.55218],[16.48506,5.6095],[16.46446,5.6584],[16.43751,5.67785],[16.40317,5.70782],[16.38045,5.73042],[16.28323,5.79876],[16.26844,5.83608],[16.26104,5.88654],[16.23251,5.90493],[16.20821,5.90388],[16.19183,5.88811],[16.16541,5.81926],[16.12473,5.7914],[16.09144,5.78352],[15.99898,5.7872],[15.94509,5.84869],[15.91656,5.86236],[15.87059,5.88233],[15.81987,5.92438],[15.80508,6.05101],[15.79662,6.16659],[15.71261,6.27374],[15.78658,6.34253],[15.80138,6.36511],[15.79398,6.39347],[15.77073,6.41027],[15.74696,6.39662],[15.70997,6.37667],[15.67193,6.37719],[15.6434,6.35881],[15.59796,6.33256],[15.56045,6.30998],[15.46746,6.3021],[15.43787,6.29107],[15.40881,6.30157],[15.3787,6.34569],[15.3396,6.41815],[15.32639,6.45752],[15.31054,6.57301],[15.28465,6.615],[15.24872,6.64754],[15.20487,6.68112],[15.19377,6.74724],[15.10343,6.71943],[15.04795,6.68689],[14.94183,6.68866],[14.89984,6.59109],[14.81729,6.40397],[14.82245,6.36295],[14.7902,6.32064],[14.7386,6.25397],[14.5606,6.19113],[14.42128,6.07442],[14.42257,6.04492],[14.51029,5.91022],[14.57221,5.92689],[14.61606,5.92176],[14.62509,5.77419],[14.61993,5.67793],[14.59542,5.58936],[14.62509,5.50847],[14.59671,5.42758],[14.54125,5.27346],[14.57994,5.2375],[14.65992,5.20025],[14.68443,5.1283],[14.68572,5.01017],[14.73025,5.00963],[14.80455,5.00059],[14.85821,4.99565],[14.89948,5.00141],[14.92838,5.00552],[14.95562,4.99976],[14.98039,4.96604],[15.01093,4.94301],[15.02909,4.94219],[15.05304,4.96358],[15.08523,4.98332],[15.12156,4.98825],[15.25034,4.99401],[15.30895,4.99976],[15.32959,5.00963],[15.34776,5.00634],[15.37417,4.99318],[15.40142,4.99154],[15.43361,5.00305],[15.45838,5.0269],[15.48232,5.04335],[15.49966,5.04499],[15.53763,5.02855],[15.5723,5.02115],[15.69531,5.01457],[15.69036,5.08282],[15.6821,5.13133],[15.67963,5.16011],[15.70026,5.2004],[15.71925,5.22177],[15.7498,5.23246],[15.79107,5.22835],[15.7886,5.17985],[15.79438,5.13051],[15.81584,5.07295],[15.82575,5.05568],[15.9438,5.09927],[15.97682,5.0672],[16.00241,5.05651],[16.03461,5.0598],[16.23522,5.14285],[16.34584,5.19053],[16.42262,5.2152],[16.48206,5.23493],[16.51095,5.24644],[16.53781,5.26913]]]},"properties":{"area_code":"CF-NM","area_name":"Nana-Mambere","area_unit_id":"cf-adm1-2006-geoboundaries-adm1:CF-NM","source_boundary_name":"Nana-Mambéré","boundary_set_id":"cf-adm1-2006-geoboundaries-adm1","boundary_level":"adm1","boundary_vintage":"2006","boundary_source":"geoBoundaries gbOpen CAF ADM1 (CAF-ADM1-63714938); source Wikimedia","boundary_licence":"Creative Commons Attribution 2.5 Generic"}},
{"type":"Feature","geometry":{"type":"Polygon","coordinates":[[[16.8313,7.53047],[16.81328,7.51431],[16.78103,7.59623],[16.73669,7.63818],[16.69235,7.68212],[16.6601,7.74204],[16.62584,7.76601],[16.58956,7.78797],[16.58553,7.87184],[16.55126,7.86585],[16.50894,7.82991],[16.47266,7.79197],[16.42427,7.78561],[16.41767,7.74226],[16.41024,7.69972],[16.38629,7.67354],[16.30869,7.64899],[16.23852,7.61708],[16.16505,7.60072],[16.05855,7.57862],[16.03626,7.54343],[15.96527,7.48778],[15.81254,7.45831],[15.76879,7.46895],[15.711,7.52051],[15.56322,7.51069],[15.50353,7.53453],[15.46096,7.46419],[15.43387,7.41431],[15.2378,7.26718],[15.22232,7.216],[15.21845,7.13921],[15.20427,7.09313],[15.15912,7.03937],[15.1359,6.94334],[15.06237,6.77045],[14.96821,6.74995],[14.94183,6.68866],[15.04795,6.68689],[15.10343,6.71943],[15.19377,6.74724],[15.20487,6.68112],[15.24872,6.64754],[15.28465,6.615],[15.31054,6.57301],[15.32639,6.45752],[15.3396,6.41815],[15.3787,6.34569],[15.40881,6.30157],[15.43787,6.29107],[15.46746,6.3021],[15.56045,6.30998],[15.59796,6.33256],[15.6434,6.35881],[15.67193,6.37719],[15.70997,6.37667],[15.74696,6.39662],[15.77073,6.41027],[15.79398,6.39347],[15.80138,6.36511],[15.78658,6.34253],[15.71261,6.27374],[15.79662,6.16659],[15.80508,6.05101],[15.81987,5.92438],[15.87059,5.88233],[15.91656,5.86236],[15.94509,5.84869],[15.99898,5.7872],[16.09144,5.78352],[16.12473,5.7914],[16.16541,5.81926],[16.19183,5.88811],[16.20821,5.90388],[16.23251,5.90493],[16.26104,5.88654],[16.26844,5.83608],[16.28323,5.79876],[16.38045,5.73042],[16.40317,5.70782],[16.43751,5.67785],[16.46446,5.6584],[16.48506,5.6095],[16.52205,5.55218],[16.57013,5.579],[16.65414,5.60582],[16.6758,5.61423],[16.69112,5.65103],[16.71331,5.70466],[16.74184,5.74514],[16.75347,5.77721],[16.79838,5.78509],[16.85227,5.80139],[16.88397,5.81506],[16.94526,5.82609],[16.98171,5.84502],[16.96583,5.89472],[16.93528,5.96533],[16.9229,6.02363],[16.90969,6.07535],[16.91052,6.10326],[16.93528,6.109],[16.95262,6.12214],[16.95262,6.18287],[16.94436,6.23868],[16.95345,6.27479],[16.98234,6.2871],[17.01701,6.30105],[17.03683,6.34782],[17.05499,6.37407],[17.08058,6.39376],[17.10287,6.41673],[17.10039,6.44709],[17.08471,6.46103],[17.06077,6.47006],[17.01866,6.4717],[16.98317,6.46842],[16.94602,6.45529],[16.92207,6.45283],[16.89236,6.46185],[16.84943,6.51681],[16.8131,6.5488],[16.79824,6.57914],[16.76109,6.69231],[16.73963,6.76527],[16.72972,6.84151],[16.72229,6.91199],[16.71073,6.94232],[16.69918,6.97755],[16.7033,7.01197],[16.72394,7.03163],[16.75944,7.06604],[16.77595,7.10537],[16.7743,7.14551],[16.76522,7.18728],[16.77183,7.22332],[16.78751,7.26918],[16.79659,7.32568],[16.80815,7.37153],[16.82301,7.40264],[16.83869,7.43703],[16.83292,7.48123],[16.8335,7.51459],[16.8313,7.53047]]]},"properties":{"area_code":"CF-OP","area_name":"Ouham-Pende","area_unit_id":"cf-adm1-2006-geoboundaries-adm1:CF-OP","source_boundary_name":"Ouham-Pendé","boundary_set_id":"cf-adm1-2006-geoboundaries-adm1","boundary_level":"adm1","boundary_vintage":"2006","boundary_source":"geoBoundaries gbOpen CAF ADM1 (CAF-ADM1-63714938); source Wikimedia","boundary_licence":"Creative Commons Attribution 2.5 Generic"}},
{"type":"Feature","geometry":{"type":"Polygon","coordinates":[[[15.27789,3.67399],[15.40033,3.54372],[15.77699,3.10718],[15.84019,3.08915],[15.89824,3.07369],[15.9292,3.04922],[15.95758,3.00928],[15.99499,2.97966],[16.03368,2.97064],[16.07109,2.88046],[16.08528,2.85083],[16.08141,2.80316],[16.06464,2.77353],[16.06335,2.72715],[16.06722,2.69365],[16.07109,2.65499],[16.07754,2.60731],[16.0956,2.55706],[16.09173,2.5184],[16.09431,2.45783],[16.1085,2.38953],[16.14075,2.32895],[16.16267,2.2542],[16.19105,2.22068],[16.29466,2.41484],[16.37143,2.56082],[16.5093,2.81811],[16.52251,2.86593],[16.5027,2.89314],[16.48536,2.91623],[16.49362,2.99702],[16.52168,3.03577],[16.53985,3.06709],[16.52746,3.0976],[16.51178,3.13964],[16.5126,3.17014],[16.53159,3.21135],[16.5514,3.24844],[16.55636,3.27893],[16.56461,3.31025],[16.57865,3.35476],[16.59186,3.42398],[16.61745,3.48002],[16.62735,3.51215],[16.67771,3.53687],[16.72312,3.55088],[16.79494,3.54264],[16.84117,3.52369],[16.87254,3.53935],[16.91217,3.55088],[16.97326,3.54347],[17.00215,3.53193],[17.03435,3.52122],[17.05994,3.53605],[17.09461,3.55418],[17.14002,3.56901],[17.19285,3.57395],[17.22423,3.58054],[17.24569,3.59043],[17.25642,3.60609],[17.27376,3.62092],[17.3043,3.62586],[17.33237,3.61597],[17.37448,3.62009],[17.39346,3.66129],[17.41885,3.67721],[17.34951,3.78041],[17.32888,3.80504],[17.27106,3.82731],[17.24299,3.85025],[17.1642,3.87319],[17.11856,3.88163],[17.08609,3.89951],[17.05025,3.92144],[16.9743,3.93777],[16.96478,3.94705],[16.9518,3.9572],[16.91977,3.98138],[16.89466,4.04161],[16.86956,4.07205],[16.85484,4.09687],[16.8384,4.13033],[16.81017,4.16295],[16.7821,4.19094],[16.74871,4.24191],[16.68019,4.25508],[16.66781,4.24767],[16.62075,4.17605],[16.59846,4.11511],[16.60589,4.06077],[16.60176,4.03606],[16.57122,3.98253],[16.53077,3.88864],[16.48949,3.84993],[16.46059,3.85323],[16.41106,3.86064],[16.34089,3.88288],[16.29136,3.89441],[16.21293,3.929],[16.1378,3.96112],[16.07341,3.98171],[16.00572,3.985],[15.95453,3.97677],[15.89922,3.96524],[15.83813,3.95618],[15.80098,3.93065],[15.75558,3.87546],[15.66229,3.84499],[15.55497,3.80792],[15.46416,3.75685],[15.27789,3.67399]]]},"properties":{"area_code":"CF-SE","area_name":"Sangha-Mbaere","area_unit_id":"cf-adm1-2006-geoboundaries-adm1:CF-SE","source_boundary_name":"Sangha-Mbaéré","boundary_set_id":"cf-adm1-2006-geoboundaries-adm1","boundary_level":"adm1","boundary_vintage":"2006","boundary_source":"geoBoundaries gbOpen CAF ADM1 (CAF-ADM1-63714938); source Wikimedia","boundary_licence":"Creative Commons Attribution 2.5 Generic"}},
{"type":"Feature","geometry":{"type":"Polygon","coordinates":[[[20.12996,7.08501],[20.13236,6.99432],[20.11853,6.94957],[20.10351,6.86184],[20.07946,6.84215],[20.04099,6.82245],[19.98027,6.75619],[19.89322,6.67168],[19.84343,6.60077],[19.85846,6.49625],[19.86692,6.45146],[19.85377,6.44212],[19.82559,6.45146],[19.78896,6.47572],[19.77566,6.47612],[19.76489,6.43991],[19.7672,6.4013],[19.7899,6.38294],[19.8303,6.36574],[19.8503,6.34432],[19.8553,6.33171],[19.85415,6.30188],[19.84184,6.26593],[19.83261,6.23801],[19.83799,6.21392],[19.84684,6.19709],[19.84492,6.16152],[19.84761,6.12671],[19.84723,6.10299],[19.82991,6.07391],[19.7899,6.0567],[19.7495,6.04025],[19.72065,6.01882],[19.58638,5.92622],[19.58907,5.88106],[19.60023,5.8447],[19.61297,5.8121],[19.61237,5.77143],[19.62139,5.75169],[19.6304,5.74033],[19.64303,5.71461],[19.65505,5.6853],[19.64663,5.65778],[19.6298,5.63744],[19.60516,5.61351],[19.57214,5.59051],[19.54098,5.56984],[19.50097,5.55911],[19.47211,5.5526],[19.46095,5.53154],[19.49904,5.48789],[19.58253,5.48291],[19.66448,5.48521],[19.84761,5.47908],[20.00304,5.47908],[20.00497,5.46529],[19.9965,5.42239],[19.98688,5.39214],[19.96765,5.35766],[19.95764,5.33736],[19.95683,5.30114],[19.95743,5.26522],[19.94961,5.22391],[19.95202,5.19219],[19.94225,5.14312],[19.92648,5.10365],[19.91301,5.0818],[19.89493,5.07337],[19.85271,5.06373],[19.87093,5.03677],[19.9023,4.99976],[19.96835,4.98167],[20.03026,4.95864],[20.08392,4.92328],[20.14501,4.88215],[20.19455,4.84102],[20.23004,4.80153],[20.32911,4.77192],[20.358,4.74806],[20.42735,4.65755],[20.45377,4.62053],[20.45542,4.58761],[20.4612,4.5407],[20.46739,4.53095],[20.48283,4.53511],[20.54174,4.56207],[20.59043,4.59443],[20.6241,4.63158],[20.68181,4.69809],[20.70886,4.73943],[20.72689,4.75081],[20.76356,4.76698],[20.79422,4.78795],[20.80685,4.80053],[20.82728,4.79754],[20.84472,4.78376],[20.86456,4.78076],[20.88319,4.79274],[20.90062,4.8209],[20.90423,4.85085],[20.90664,4.8784],[20.89882,4.90775],[20.90483,4.95626],[20.91445,4.99279],[20.92287,5.02154],[20.91505,5.04849],[20.90002,5.08022],[20.8856,5.11974],[20.8898,5.1395],[20.91205,5.16824],[20.95292,5.22511],[20.95473,5.26342],[20.94992,5.34423],[20.94428,5.37797],[20.96119,5.40509],[20.96401,5.42753],[20.96307,5.48364],[20.97058,5.51262],[20.98185,5.52851],[20.99406,5.56311],[20.99688,5.61359],[21.02412,5.65658],[21.05982,5.67528],[21.08705,5.6706],[21.10396,5.65191],[21.12932,5.64537],[21.16126,5.64724],[21.19883,5.63976],[21.22701,5.6435],[21.26834,5.66687],[21.34348,5.67995],[21.36039,5.68089],[21.41768,5.65565],[21.45432,5.63695],[21.46559,5.59769],[21.47498,5.55656],[21.49189,5.52197],[21.52195,5.48083],[21.54167,5.45839],[21.56515,5.45465],[21.59333,5.46587],[21.62057,5.48644],[21.64217,5.50608],[21.65251,5.56217],[21.65305,5.56509],[21.6572,5.58741],[21.66769,5.60872],[21.68993,5.62667],[21.72359,5.65479],[21.74463,5.66316],[21.76928,5.66017],[21.79032,5.64402],[21.81857,5.62607],[21.83721,5.62308],[21.85945,5.63744],[21.87268,5.66017],[21.88169,5.69128],[21.89612,5.72896],[21.91716,5.81748],[21.92257,5.85875],[21.92678,5.89821],[21.89191,5.93768],[21.88169,5.96757],[21.86847,6.02676],[21.81136,6.05904],[21.80054,6.07698],[21.78611,6.11643],[21.7777,6.15408],[21.76928,6.17859],[21.7296,6.20249],[21.72299,6.22221],[21.75064,6.27121],[21.7813,6.31125],[21.78671,6.33873],[21.78311,6.37219],[21.76146,6.4158],[21.75846,6.45762],[21.76804,6.51212],[21.76898,6.57464],[21.69102,6.5877],[21.67035,6.6017],[21.63936,6.65582],[21.61494,6.69873],[21.61494,6.73604],[21.60179,6.76403],[21.60272,6.79387],[21.61775,6.82558],[21.62902,6.87315],[21.614,6.91884],[21.6093,6.9552],[21.58206,7.01114],[21.57173,7.11554],[21.5567,7.18172],[21.55576,7.24042],[21.55576,7.28981],[21.54825,7.30751],[21.49752,7.30378],[21.43741,7.30285],[21.40829,7.31403],[21.39514,7.32428],[21.39045,7.3662],[21.39796,7.40998],[21.39984,7.4789],[21.39045,7.51894],[21.34818,7.5655],[21.30873,7.59064],[21.27397,7.59995],[21.23264,7.60647],[21.19132,7.61299],[21.17159,7.63719],[21.13214,7.68001],[21.12463,7.70608],[21.12499,7.71653],[21.11836,7.72517],[21.11824,7.72406],[21.0966,7.68176],[21.08277,7.65793],[21.07135,7.63231],[21.04911,7.59835],[21.04189,7.58107],[21.0461,7.55425],[21.05692,7.51552],[21.0443,7.49823],[20.99801,7.46545],[20.98238,7.42969],[20.95353,7.38498],[20.91686,7.31403],[20.87538,7.27885],[20.80925,7.24307],[20.76597,7.22637],[20.71968,7.2383],[20.69563,7.24665],[20.66978,7.24605],[20.65115,7.20908],[20.63131,7.1542],[20.60967,7.11841],[20.5748,7.07904],[20.55196,7.06353],[20.51349,7.05697],[20.48644,7.04146],[20.44435,7.02356],[20.38965,7.02177],[20.32112,7.02237],[20.25439,7.02774],[20.21532,7.03549],[20.18887,7.05757],[20.154,7.07248],[20.12996,7.08501]]]},"properties":{"area_code":"CF-UK","area_name":"Ouaka","area_unit_id":"cf-adm1-2006-geoboundaries-adm1:CF-UK","source_boundary_name":"Ouaka","boundary_set_id":"cf-adm1-2006-geoboundaries-adm1","boundary_level":"adm1","boundary_vintage":"2006","boundary_source":"geoBoundaries gbOpen CAF ADM1 (CAF-ADM1-63714938); source Wikimedia","boundary_licence":"Creative Commons Attribution 2.5 Generic"}},
{"type":"Feature","geometry":{"type":"Polygon","coordinates":[[[22.39086,8.59284],[22.44617,8.58987],[22.5135,8.58571],[22.54355,8.61721],[22.57301,8.65168],[22.6205,8.68496],[22.70586,8.69863],[22.79604,8.70041],[22.86156,8.72953],[22.92168,8.75032],[22.98059,8.75805],[23.01319,8.75458],[23.06359,8.75648],[23.07475,8.82606],[23.08321,8.8922],[23.09245,8.90665],[23.1471,8.94872],[23.19099,8.97959],[23.25772,8.98791],[23.31663,9.01522],[23.33286,9.06806],[23.33526,9.13276],[23.34729,9.17193],[23.37855,9.18676],[23.42724,9.18676],[23.43205,9.17074],[23.44768,9.15293],[23.47833,9.138],[23.47857,9.13943],[23.5116,9.17366],[23.53719,9.17366],[23.58259,9.20463],[23.64946,9.27389],[23.65276,9.29915],[23.64368,9.32603],[23.64533,9.36025],[23.66185,9.39201],[23.66267,9.43762],[23.64121,9.46612],[23.63295,9.5451],[23.6635,9.60127],[23.699,9.67452],[23.67,9.89316],[23.4907,10.1726],[23.30108,10.47463],[23.18886,10.58623],[23.13339,10.64202],[23.05342,10.7016],[22.99924,10.73582],[22.95796,10.79791],[22.86896,10.93346],[22.82897,10.94612],[22.69611,10.97398],[22.51294,11.00184],[22.4549,10.98791],[22.3775,10.96512],[22.27044,10.92966],[22.22271,10.88026],[22.17369,10.84479],[22.10791,10.84479],[22.05889,10.81945],[22.03825,10.75989],[21.99052,10.73582],[21.93635,10.73201],[21.89636,10.7016],[21.85379,10.69779],[21.75566,10.65449],[21.73584,10.62772],[21.72594,10.56118],[21.72263,10.51978],[21.73006,10.48894],[21.75318,10.46296],[21.75978,10.42805],[21.75318,10.40126],[21.73502,10.34117],[21.71355,10.29893],[21.68714,10.27131],[21.64999,10.24044],[21.58724,10.21932],[21.54184,10.2177],[21.49125,10.1807],[21.459,10.13308],[21.43683,10.07355],[21.40861,10.016],[21.35621,9.97829],[21.28365,9.98623],[21.23931,9.96042],[21.20101,9.88498],[21.15466,9.86314],[21.12039,9.82541],[21.07605,9.7837],[21.02163,9.74199],[20.98132,9.67245],[20.95311,9.59098],[20.90957,9.53589],[20.87475,9.48755],[20.8038,9.42902],[20.75543,9.41427],[20.79963,9.38261],[20.84472,9.37613],[20.88605,9.37983],[20.91329,9.403],[20.93019,9.42524],[20.97904,9.43729],[21.0044,9.46601],[21.03821,9.50492],[21.06451,9.52345],[21.11335,9.53549],[21.17065,9.54753],[21.2101,9.56235],[21.27397,9.59292],[21.30591,9.62996],[21.33972,9.65959],[21.3773,9.70219],[21.42238,9.72348],[21.44962,9.74662],[21.4778,9.76051],[21.49752,9.75496],[21.5041,9.68182],[21.52476,9.58551],[21.58112,9.58643],[21.60836,9.57347],[21.62996,9.54846],[21.66096,9.51326],[21.68726,9.49102],[21.70417,9.4586],[21.72014,9.44285],[21.76053,9.40486],[21.77931,9.36501],[21.79058,9.2992],[21.80279,9.26305],[21.82346,9.22967],[21.83097,9.20186],[21.8507,9.17404],[21.87042,9.15549],[21.89109,9.13973],[21.90799,9.12025],[21.93054,9.09429],[21.96435,9.07759],[22.0085,9.01822],[22.03574,8.98483],[22.07707,8.96441],[22.07707,8.88925],[22.09585,8.83543],[22.10337,8.7788],[22.12403,8.74631],[22.20951,8.69989],[22.26774,8.68225],[22.32786,8.67482],[22.37294,8.66275],[22.38891,8.60332],[22.39086,8.59284]]]},"properties":{"area_code":"CF-VK","area_name":"Vakaga","area_unit_id":"cf-adm1-2006-geoboundaries-adm1:CF-VK","source_boundary_name":"Vakaga","boundary_set_id":"cf-adm1-2006-geoboundaries-adm1","boundary_level":"adm1","boundary_vintage":"2006","boundary_source":"geoBoundaries gbOpen CAF ADM1 (CAF-ADM1-63714938); source Wikimedia","boundary_licence":"Creative Commons Attribution 2.5 Generic"}}
]}