{"type":"FeatureCollection","attribution":"© OpenStreetMap contributors, ODbL 1.0","features":[{"type":"Feature","geometry":{"type":"Point","coordinates":[18.95161,48.06954]},"properties":{"osm_type":"way","osm_id":58817301,"name":"Kostol Panny Márie Nanebovzatej","religion":"christian","denomination":"roman_catholic","start_date":"1200","end_date":null,"start_year":1200,"end_year":null}},{"type":"Feature","geometry":{"type":"Point","coordinates":[17.20979,48.12427]},"properties":{"osm_type":"way","osm_id":238308128,"name":"Kostol svätého Mikuláša","religion":"christian","denomination":"roman_catholic","start_date":"1221","end_date":null,"start_year":1221,"end_year":null}},{"type":"Feature","geometry":{"type":"Point","coordinates":[17.84714,48.13436]},"properties":{"osm_type":"way","osm_id":105301192,"name":"Kostol Nanebovzatia Panny Márie","religion":"christian","denomination":"roman_catholic","start_date":"1228","end_date":null,"start_year":1228,"end_year":null}},{"type":"Feature","geometry":{"type":"Point","coordinates":[18.951,48.27394]},"properties":{"osm_type":"way","osm_id":59344646,"name":"Svätého Michala Archanjela","religion":"christian","denomination":"roman_catholic","start_date":"1233","end_date":null,"start_year":1233,"end_year":null}},{"type":"Feature","geometry":{"type":"Point","coordinates":[18.77438,48.29952]},"properties":{"osm_type":"way","osm_id":58555887,"name":"Kostol Narodenia Panny Márie","religion":"christian","denomination":"roman_catholic","start_date":"1240..1260","end_date":null,"start_year":1240,"end_year":null}},{"type":"Feature","geometry":{"type":"Point","coordinates":[17.20596,48.20643]},"properties":{"osm_type":"way","osm_id":26503832,"name":"Kostol Sedembolestnej Panny Márie","religion":"christian","denomination":"roman_catholic","start_date":"1270..1278","end_date":null,"start_year":1270,"end_year":null}},{"type":"Feature","geometry":{"type":"Point","coordinates":[21.16923,48.63679]},"properties":{"osm_type":"way","osm_id":49442147,"name":"Kostol Nanebovzatia Panny Márie","religion":"christian","denomination":"roman_catholic","start_date":"before 1275","end_date":null,"start_year":1274,"end_year":null}},{"type":"Feature","geometry":{"type":"Point","coordinates":[20.74074,49.00049]},"properties":{"osm_type":"way","osm_id":42226874,"name":"Katedrála svätého Martina","religion":"christian","denomination":"roman_catholic","start_date":"1275","end_date":null,"start_year":1275,"end_year":null}},{"type":"Feature","geometry":{"type":"Point","coordinates":[19.43592,49.06526]},"properties":{"osm_type":"way","osm_id":234324622,"name":"Kostol sv. Matúša","religion":"christian","denomination":"roman_catholic","start_date":"after 1281","end_date":null,"start_year":1282,"end_year":null}},{"type":"Feature","geometry":{"type":"Point","coordinates":[17.26849,48.14081]},"properties":{"osm_type":"way","osm_id":319760600,"name":"Kostol Božského Srdca Ježišovho","religion":"christian","denomination":"roman_catholic","start_date":"~1283","end_date":null,"start_year":1283,"end_year":null}},{"type":"Feature","geometry":{"type":"Point","coordinates":[21.25505,48.72076]},"properties":{"osm_type":"way","osm_id":27036582,"name":"Kostol Nanebovzatia Panny Márie","religion":"christian","denomination":"roman_catholic","start_date":"~1290","end_date":null,"start_year":1290,"end_year":null}},{"type":"Feature","geometry":{"type":"Point","coordinates":[17.10833,48.1449]},"properties":{"osm_type":"way","osm_id":38539540,"name":"Kostol Zvestovania Pána","religion":"christian","denomination":"roman_catholic","start_date":"1297","end_date":null,"start_year":1297,"end_year":null}},{"type":"Feature","geometry":{"type":"Point","coordinates":[19.57376,48.3642]},"properties":{"osm_type":"way","osm_id":141409969,"name":"Kostol sv. Juraja","religion":"christian","denomination":"roman_catholic","start_date":"1300","end_date":null,"start_year":1300,"end_year":null}},{"type":"Feature","geometry":{"type":"Point","coordinates":[17.10685,48.14442]},"properties":{"osm_type":"way","osm_id":39256664,"name":"Kaplnka sv. Kataríny","religion":"christian","denomination":"roman_catholic","start_date":"1311","end_date":null,"start_year":1311,"end_year":null}},{"type":"Feature","geometry":{"type":"Point","coordinates":[18.72219,48.35257]},"properties":{"osm_type":"way","osm_id":58433877,"name":"Kostol sv. Mikuláša","religion":"christian","denomination":"roman_catholic","start_date":"1321","end_date":null,"start_year":1321,"end_year":null}},{"type":"Feature","geometry":{"type":"Point","coordinates":[21.27543,49.29349]},"properties":{"osm_type":"way","osm_id":188074579,"name":"Bazilika svätého Egidia","religion":"christian","denomination":"roman_catholic","start_date":"1380","end_date":null,"start_year":1380,"end_year":null}},{"type":"Feature","geometry":{"type":"Point","coordinates":[21.2584,48.71991]},"properties":{"osm_type":"way","osm_id":25720528,"name":"Kaplnka sv. Michala","religion":"christian","denomination":"roman_catholic","start_date":"1380","end_date":null,"start_year":1380,"end_year":null}},{"type":"Feature","geometry":{"type":"Point","coordinates":[21.25815,48.72028]},"properties":{"osm_type":"way","osm_id":22895889,"name":"Dóm svätej Alžbety","religion":"christian","denomination":"catholic","start_date":"1508","end_date":null,"start_year":1508,"end_year":null}},{"type":"Feature","geometry":{"type":"Point","coordinates":[21.08348,49.08139]},"properties":{"osm_type":"way","osm_id":73482111,"name":"Kostol sv. Demetra","religion":"christian","denomination":"roman_catholic","start_date":"1510","end_date":null,"start_year":1510,"end_year":null}},{"type":"Feature","geometry":{"type":"Point","coordinates":[17.52983,48.53615]},"properties":{"osm_type":"way","osm_id":51379011,"name":"Kostol sv. Michala Archanjela","religion":"christian","denomination":"roman_catholic","start_date":"1594","end_date":null,"start_year":1594,"end_year":null}},{"type":"Feature","geometry":{"type":"Point","coordinates":[21.06079,49.09093]},"properties":{"osm_type":"way","osm_id":73739229,"name":"Kosotl sv. Imricha","religion":"christian","denomination":"roman_catholic","start_date":"1610","end_date":null,"start_year":1610,"end_year":null}},{"type":"Feature","geometry":{"type":"Point","coordinates":[17.58836,48.3805]},"properties":{"osm_type":"way","osm_id":164481059,"name":"Katedrála svätého Jána Krstiteľa","religion":"christian","denomination":"roman_catholic","start_date":"1629","end_date":null,"start_year":1629,"end_year":null}},{"type":"Feature","geometry":{"type":"Point","coordinates":[17.31083,48.3355]},"properties":{"osm_type":"way","osm_id":49901251,"name":"Kostol sv. Štefana kráľa","religion":"christian","denomination":"roman_catholic","start_date":"1630s","end_date":null,"start_year":1630,"end_year":null}},{"type":"Feature","geometry":{"type":"Point","coordinates":[17.48483,48.31494]},"properties":{"osm_type":"way","osm_id":189190431,"name":"Kaplnka Sedembolestnej Panny Márie","religion":"christian","denomination":"catholic","start_date":"1638","end_date":null,"start_year":1638,"end_year":null}},{"type":"Feature","geometry":{"type":"Point","coordinates":[17.20294,48.13342]},"properties":{"osm_type":"way","osm_id":266536214,"name":"Kostol svätého Jozefa","religion":"christian","denomination":"roman_catholic","start_date":"~1640","end_date":null,"start_year":1640,"end_year":null}},{"type":"Feature","geometry":{"type":"Point","coordinates":[21.68493,48.4573]},"properties":{"osm_type":"way","osm_id":149559598,"name":"Reformovaný kostol","religion":"christian","denomination":"reformed","start_date":"1656","end_date":null,"start_year":1656,"end_year":null}},{"type":"Feature","geometry":{"type":"Point","coordinates":[21.70781,49.35247]},"properties":{"osm_type":"way","osm_id":219703566,"name":"Chrám sv. Mikuláša","religion":"christian","denomination":"greek_catholic","start_date":"1658","end_date":null,"start_year":1658,"end_year":null}},{"type":"Feature","geometry":{"type":"Point","coordinates":[17.76536,48.44705]},"properties":{"osm_type":"way","osm_id":49415846,"name":"Kostol sv. Ignáca z Loyoly","religion":"christian","denomination":"roman_catholic","start_date":"1671","end_date":null,"start_year":1671,"end_year":null}},{"type":"Feature","geometry":{"type":"Point","coordinates":[17.06498,48.24782]},"properties":{"osm_type":"way","osm_id":627530293,"name":"Kaplnka sv. Anny","religion":"christian","denomination":"roman_catholic","start_date":"1691","end_date":null,"start_year":1691,"end_year":null}},{"type":"Feature","geometry":{"type":"Point","coordinates":[18.76092,49.32865]},"properties":{"osm_type":"node","osm_id":3197111911,"name":null,"religion":"christian","denomination":null,"start_date":"1703","end_date":null,"start_year":1703,"end_year":null}},{"type":"Feature","geometry":{"type":"Point","coordinates":[21.62071,49.36524]},"properties":{"osm_type":"way","osm_id":278605381,"name":"Chrám sv. Paraskevy","religion":"christian","denomination":"greek_catholic","start_date":"1705","end_date":null,"start_year":1705,"end_year":null}},{"type":"Feature","geometry":{"type":"Point","coordinates":[17.10508,48.14543]},"properties":{"osm_type":"way","osm_id":45496678,"name":"Kostol svätého Štefana","religion":"christian","denomination":"roman_catholic","start_date":"1708","end_date":null,"start_year":1708,"end_year":null}},{"type":"Feature","geometry":{"type":"Point","coordinates":[17.58486,48.37819]},"properties":{"osm_type":"way","osm_id":164481011,"name":"Kostol Najsvätejšej Trojice","religion":"christian","denomination":"roman_catholic","start_date":"after 1720","end_date":null,"start_year":1721,"end_year":null}},{"type":"Feature","geometry":{"type":"Point","coordinates":[18.23229,48.99809]},"properties":{"osm_type":"way","osm_id":58500423,"name":"Kostol Všetkých svätých","religion":"christian","denomination":"roman_catholic","start_date":"1722","end_date":null,"start_year":1722,"end_year":null}},{"type":"Feature","geometry":{"type":"Point","coordinates":[18.2548,48.58239]},"properties":{"osm_type":"way","osm_id":594157526,"name":"Kaplnka Panny Márie","religion":"christian","denomination":"roman_catholic","start_date":"1725","end_date":null,"start_year":1725,"end_year":null}},{"type":"Feature","geometry":{"type":"Point","coordinates":[19.15483,48.64897]},"properties":{"osm_type":"way","osm_id":61486475,"name":"Drevený artikulárny kostol","religion":"christian","denomination":"lutheran","start_date":"1726","end_date":null,"start_year":1726,"end_year":null}},{"type":"Feature","geometry":{"type":"Point","coordinates":[17.75687,48.33561]},"properties":{"osm_type":"way","osm_id":73769688,"name":"Kaplnka sv. Urbana","religion":"christian","denomination":"roman_catholic","start_date":"1728","end_date":null,"start_year":1728,"end_year":null}},{"type":"Feature","geometry":{"type":"Point","coordinates":[18.44294,49.10749]},"properties":{"osm_type":"way","osm_id":158783875,"name":"Kostol sv. Heleny","religion":"christian","denomination":"roman_catholic","start_date":"1728","end_date":null,"start_year":1728,"end_year":null}},{"type":"Feature","geometry":{"type":"Point","coordinates":[17.26054,48.29482]},"properties":{"osm_type":"way","osm_id":49964946,"name":"Kaplnka sv. Rozálie","religion":"christian","denomination":"roman_catholic","start_date":"1730","end_date":null,"start_year":1730,"end_year":null}},{"type":"Feature","geometry":{"type":"Point","coordinates":[17.58722,48.374]},"properties":{"osm_type":"node","osm_id":10207227802,"name":"Ukrižovanie","religion":"christian","denomination":null,"start_date":"1732","end_date":null,"start_year":1732,"end_year":null}},{"type":"Feature","geometry":{"type":"Point","coordinates":[17.80597,48.42243]},"properties":{"osm_type":"way","osm_id":59369403,"name":"Kaplnka Sedembolestnej Panny Márie","religion":"christian","denomination":null,"start_date":"1734","end_date":null,"start_year":1734,"end_year":null}},{"type":"Feature","geometry":{"type":"Point","coordinates":[18.72709,47.83149]},"properties":{"osm_type":"way","osm_id":58155034,"name":"Kostol sv. Michala archanjela","religion":"christian","denomination":"roman_catholic","start_date":"1734","end_date":null,"start_year":1734,"end_year":null}},{"type":"Feature","geometry":{"type":"Point","coordinates":[17.47872,48.31268]},"properties":{"osm_type":"way","osm_id":189190685,"name":"Kaplnka sv. Jána Nepomuckého","religion":"christian","denomination":"roman_catholic","start_date":"1735","end_date":null,"start_year":1735,"end_year":null}},{"type":"Feature","geometry":{"type":"Point","coordinates":[17.42228,48.11367]},"properties":{"osm_type":"way","osm_id":51874675,"name":"Kaplnka Panny Márie Lurdskej","religion":"christian","denomination":null,"start_date":"1740","end_date":null,"start_year":1740,"end_year":null}},{"type":"Feature","geometry":{"type":"Point","coordinates":[18.12516,47.75809]},"properties":{"osm_type":"way","osm_id":794421678,"name":"Kaplnka sv. Jozefa","religion":"christian","denomination":"roman_catholic","start_date":"1741","end_date":null,"start_year":1741,"end_year":null}},{"type":"Feature","geometry":{"type":"Point","coordinates":[20.36363,48.65968]},"properties":{"osm_type":"way","osm_id":249936147,"name":"Kostol sv. Júdu Tadeáša","religion":"christian","denomination":"roman_catholic","start_date":"1753","end_date":null,"start_year":1753,"end_year":null}},{"type":"Feature","geometry":{"type":"Point","coordinates":[18.02261,48.1333]},"properties":{"osm_type":"way","osm_id":287358387,"name":null,"religion":"christian","denomination":"roman_catholic","start_date":"1760","end_date":null,"start_year":1760,"end_year":null}},{"type":"Feature","geometry":{"type":"Point","coordinates":[20.72277,49.00628]},"properties":{"osm_type":"way","osm_id":68917120,"name":"Kaplnka svätého Kríža","religion":"christian","denomination":"roman_catholic","start_date":"1765","end_date":null,"start_year":1765,"end_year":null}},{"type":"Feature","geometry":{"type":"Point","coordinates":[19.45808,48.83675]},"properties":{"osm_type":"way","osm_id":786481772,"name":"Kostol sv. Kataríny Alexandrijskej","religion":"christian","denomination":"roman_catholic","start_date":"1765","end_date":null,"start_year":1765,"end_year":null}},{"type":"Feature","geometry":{"type":"Point","coordinates":[17.11105,48.06572]},"properties":{"osm_type":"way","osm_id":58127319,"name":"Kostol svätého Mikuláša","religion":"christian","denomination":"roman_catholic","start_date":"1765","end_date":null,"start_year":1765,"end_year":null}},{"type":"Feature","geometry":{"type":"Point","coordinates":[20.73177,49.00302]},"properties":{"osm_type":"way","osm_id":68918456,"name":"Kaplnka svätého Jána Nepomuckého","religion":"christian","denomination":"roman_catholic","start_date":"1766","end_date":null,"start_year":1766,"end_year":null}},{"type":"Feature","geometry":{"type":"Point","coordinates":[18.23658,48.55861]},"properties":{"osm_type":"way","osm_id":71539213,"name":"Kaplnka sv. Antona Paduánskeho","religion":"christian","denomination":"roman_catholic","start_date":"1768","end_date":null,"start_year":1768,"end_year":null}},{"type":"Feature","geometry":{"type":"Point","coordinates":[18.82846,47.83162]},"properties":{"osm_type":"way","osm_id":294395570,"name":"Kostol sv. Imricha","religion":"christian","denomination":"roman_catholic","start_date":"1769","end_date":null,"start_year":1769,"end_year":null}},{"type":"Feature","geometry":{"type":"Point","coordinates":[18.72725,47.83141]},"properties":{"osm_type":"node","osm_id":10695986677,"name":null,"religion":"christian","denomination":"roman_catholic","start_date":"1771","end_date":null,"start_year":1771,"end_year":null}},{"type":"Feature","geometry":{"type":"Point","coordinates":[22.10873,48.39745]},"properties":{"osm_type":"way","osm_id":73238110,"name":"Kostol Reformovanej kresťanskej cirkvi","religion":"christian","denomination":"reformed","start_date":"1772","end_date":null,"start_year":1772,"end_year":null}},{"type":"Feature","geometry":{"type":"Point","coordinates":[18.56504,48.78753]},"properties":{"osm_type":"way","osm_id":58378687,"name":"Kaplnka svätého Vendelína","religion":"christian","denomination":"roman_catholic","start_date":"1774","end_date":null,"start_year":1774,"end_year":null}},{"type":"Feature","geometry":{"type":"Point","coordinates":[17.75269,48.27175]},"properties":{"osm_type":"node","osm_id":11266671626,"name":null,"religion":"christian","denomination":"roman_catholic","start_date":"1774","end_date":null,"start_year":1774,"end_year":null}},{"type":"Feature","geometry":{"type":"Point","coordinates":[19.53271,48.44736]},"properties":{"osm_type":"way","osm_id":59631883,"name":"Kaplnka sv. Anny","religion":"christian","denomination":"roman_catholic","start_date":"1775","end_date":null,"start_year":1775,"end_year":null}},{"type":"Feature","geometry":{"type":"Point","coordinates":[17.10548,48.14758]},"properties":{"osm_type":"way","osm_id":23750172,"name":"Veľký evanjelický kostol","religion":"christian","denomination":"lutheran","start_date":"1776","end_date":null,"start_year":1776,"end_year":null}},{"type":"Feature","geometry":{"type":"Point","coordinates":[17.65358,48.12921]},"properties":{"osm_type":"way","osm_id":795598494,"name":"Kaplnka sv. Jána Nepomuckého","religion":"christian","denomination":null,"start_date":"1782","end_date":null,"start_year":1782,"end_year":null}},{"type":"Feature","geometry":{"type":"Point","coordinates":[17.20024,48.03242]},"properties":{"osm_type":"way","osm_id":49293383,"name":"Kostol svätého Michala","religion":"christian","denomination":"roman_catholic","start_date":"1783","end_date":null,"start_year":1783,"end_year":null}},{"type":"Feature","geometry":{"type":"Point","coordinates":[17.92259,48.8524]},"properties":{"osm_type":"way","osm_id":313427663,"name":"Evanjelický a. v. kostol","religion":"christian","denomination":"lutheran","start_date":"1784","end_date":null,"start_year":1784,"end_year":null}},{"type":"Feature","geometry":{"type":"Point","coordinates":[19.25965,48.56226]},"properties":{"osm_type":"way","osm_id":121117224,"name":"Evanjelický kostol a.v.","religion":"christian","denomination":"lutheran","start_date":"1784","end_date":null,"start_year":1784,"end_year":null}},{"type":"Feature","geometry":{"type":"Point","coordinates":[17.73385,48.16611]},"properties":{"osm_type":"way","osm_id":73261296,"name":"Narodenia Panny Márie","religion":"christian","denomination":"roman_catholic","start_date":"1784","end_date":null,"start_year":1784,"end_year":null}},{"type":"Feature","geometry":{"type":"Point","coordinates":[21.94786,48.39795]},"properties":{"osm_type":"way","osm_id":788804107,"name":"Reformovaný kostol","religion":"christian","denomination":"reformed","start_date":"1784","end_date":null,"start_year":1784,"end_year":null}},{"type":"Feature","geometry":{"type":"Point","coordinates":[19.25799,48.55954]},"properties":{"osm_type":"way","osm_id":121114187,"name":"Kostol Povýšenie Svätého kríža","religion":"christian","denomination":"roman_catholic","start_date":"1787","end_date":null,"start_year":1787,"end_year":null}},{"type":"Feature","geometry":{"type":"Point","coordinates":[21.9764,48.42692]},"properties":{"osm_type":"way","osm_id":114966218,"name":"Kostol Reformovanej kresťanskej cirkvi","religion":"christian","denomination":"reformed","start_date":"1787","end_date":null,"start_year":1787,"end_year":null}},{"type":"Feature","geometry":{"type":"Point","coordinates":[20.85409,48.57265]},"properties":{"osm_type":"way","osm_id":59312374,"name":null,"religion":"christian","denomination":"calvinistic_methodist","start_date":"1787","end_date":null,"start_year":1787,"end_year":null}},{"type":"Feature","geometry":{"type":"Point","coordinates":[21.80386,48.35876]},"properties":{"osm_type":"way","osm_id":551722534,"name":"Reformovaný kostol","religion":"christian","denomination":"reformed","start_date":"1789","end_date":null,"start_year":1789,"end_year":null}},{"type":"Feature","geometry":{"type":"Point","coordinates":[21.75966,48.38019]},"properties":{"osm_type":"way","osm_id":135563056,"name":"Kostol Reformovanej kresťanskej cirkvi","religion":"christian","denomination":"reformed","start_date":"1790","end_date":null,"start_year":1790,"end_year":null}},{"type":"Feature","geometry":{"type":"Point","coordinates":[17.83296,48.60193]},"properties":{"osm_type":"node","osm_id":7237132290,"name":null,"religion":"christian","denomination":"roman_catholic","start_date":"1791","end_date":null,"start_year":1791,"end_year":null}},{"type":"Feature","geometry":{"type":"Point","coordinates":[17.83838,48.13338]},"properties":{"osm_type":"way","osm_id":364381367,"name":null,"religion":"christian","denomination":"reformed","start_date":"1791","end_date":null,"start_year":1791,"end_year":null}},{"type":"Feature","geometry":{"type":"Point","coordinates":[18.41188,49.23012]},"properties":{"osm_type":"way","osm_id":50729409,"name":"Kostol sv. Ondreja","religion":"christian","denomination":"roman_catholic","start_date":"1792","end_date":null,"start_year":1792,"end_year":null}},{"type":"Feature","geometry":{"type":"Point","coordinates":[17.6758,48.35608]},"properties":{"osm_type":"node","osm_id":11822866958,"name":null,"religion":"christian","denomination":"roman_catholic","start_date":"1792","end_date":null,"start_year":1792,"end_year":null}},{"type":"Feature","geometry":{"type":"Point","coordinates":[17.21327,48.72511]},"properties":{"osm_type":"way","osm_id":152454099,"name":"Kaplnka sv. Barbory","religion":"christian","denomination":"roman_catholic","start_date":"1793","end_date":null,"start_year":1793,"end_year":null}},{"type":"Feature","geometry":{"type":"Point","coordinates":[21.73402,48.43974]},"properties":{"osm_type":"way","osm_id":50497240,"name":"Reformovaný kostol","religion":"christian","denomination":"reformed","start_date":"1793","end_date":null,"start_year":1793,"end_year":null}},{"type":"Feature","geometry":{"type":"Point","coordinates":[18.8666,48.05486]},"properties":{"osm_type":"way","osm_id":151768579,"name":"Kostol sv. Margity","religion":"christian","denomination":"roman_catholic","start_date":"1798","end_date":null,"start_year":1798,"end_year":null}},{"type":"Feature","geometry":{"type":"Point","coordinates":[21.91581,48.46348]},"properties":{"osm_type":"way","osm_id":331336995,"name":"Reformovaný kostol","religion":"christian","denomination":"reformed","start_date":"1798","end_date":null,"start_year":1798,"end_year":null}},{"type":"Feature","geometry":{"type":"Point","coordinates":[21.81266,48.4881]},"properties":{"osm_type":"way","osm_id":71540582,"name":null,"religion":"christian","denomination":"reformed","start_date":"1798","end_date":null,"start_year":1798,"end_year":null}},{"type":"Feature","geometry":{"type":"Point","coordinates":[17.7817,48.47858]},"properties":{"osm_type":"way","osm_id":51435925,"name":"Kostol Narodenia Panny Márie","religion":"christian","denomination":"roman_catholic","start_date":"1799","end_date":null,"start_year":1799,"end_year":null}},{"type":"Feature","geometry":{"type":"Point","coordinates":[17.62235,48.57069]},"properties":{"osm_type":"node","osm_id":9056996791,"name":"Kalvária","religion":"christian","denomination":null,"start_date":"1800","end_date":null,"start_year":1800,"end_year":null}},{"type":"Feature","geometry":{"type":"Point","coordinates":[21.80713,48.40377]},"properties":{"osm_type":"way","osm_id":267008823,"name":"Kalvínsky kostol","religion":"christian","denomination":"reformed","start_date":"1801","end_date":null,"start_year":1801,"end_year":null}},{"type":"Feature","geometry":{"type":"Point","coordinates":[21.73668,48.58542]},"properties":{"osm_type":"way","osm_id":110196060,"name":"Reformovaný kostol","religion":"christian","denomination":"reformed","start_date":"1801","end_date":null,"start_year":1801,"end_year":null}},{"type":"Feature","geometry":{"type":"Point","coordinates":[21.71672,48.42825]},"properties":{"osm_type":"way","osm_id":149631970,"name":"Reformovaný kostol","religion":"christian","denomination":"reformed","start_date":"1801","end_date":null,"start_year":1801,"end_year":null}},{"type":"Feature","geometry":{"type":"Point","coordinates":[17.22013,48.28979]},"properties":{"osm_type":"way","osm_id":67338559,"name":"Evanjelický a. v. kostol","religion":"christian","denomination":"lutheran","start_date":"1802","end_date":null,"start_year":1802,"end_year":null}},{"type":"Feature","geometry":{"type":"Point","coordinates":[17.73245,48.19151]},"properties":{"osm_type":"way","osm_id":59158510,"name":"Kostol sv. Štefana kráľa","religion":"christian","denomination":"roman_catholic","start_date":"1805","end_date":null,"start_year":1805,"end_year":null}},{"type":"Feature","geometry":{"type":"Point","coordinates":[17.55055,48.48277]},"properties":{"osm_type":"way","osm_id":552619598,"name":"Kostol sv. Ondreja","religion":"christian","denomination":"roman_catholic","start_date":"1807","end_date":null,"start_year":1807,"end_year":null}},{"type":"Feature","geometry":{"type":"Point","coordinates":[21.63844,48.49141]},"properties":{"osm_type":"way","osm_id":149559433,"name":"Reformovaný kostol","religion":"christian","denomination":"reformed","start_date":"1807","end_date":null,"start_year":1807,"end_year":null}},{"type":"Feature","geometry":{"type":"Point","coordinates":[20.75303,48.99943]},"properties":{"osm_type":"way","osm_id":68916561,"name":"Evanjelický a. v. kostol","religion":"christian","denomination":"lutheran","start_date":"1808","end_date":null,"start_year":1808,"end_year":null}},{"type":"Feature","geometry":{"type":"Point","coordinates":[19.44435,49.26524]},"properties":{"osm_type":"way","osm_id":166145169,"name":"Kostol sv. Ladislava","religion":"christian","denomination":"roman_catholic","start_date":"1811","end_date":null,"start_year":1811,"end_year":null}},{"type":"Feature","geometry":{"type":"Point","coordinates":[21.80839,48.35969]},"properties":{"osm_type":"way","osm_id":149559635,"name":"Farský kostol sv. Jozefa","religion":"christian","denomination":"roman_catholic","start_date":"1814","end_date":null,"start_year":1814,"end_year":null}},{"type":"Feature","geometry":{"type":"Point","coordinates":[19.51787,49.50513]},"properties":{"osm_type":"way","osm_id":264119574,"name":"Kostol Všetkých svätých","religion":"christian","denomination":"roman_catholic","start_date":"1816","end_date":null,"start_year":1816,"end_year":null}},{"type":"Feature","geometry":{"type":"Point","coordinates":[18.65403,48.8773]},"properties":{"osm_type":"node","osm_id":7702375751,"name":"Majzlanská kaplnka","religion":"christian","denomination":"catholic","start_date":"1816","end_date":null,"start_year":1816,"end_year":null}},{"type":"Feature","geometry":{"type":"Point","coordinates":[21.27458,49.2873]},"properties":{"osm_type":"way","osm_id":118629516,"name":"Kaplnka sv. Jakuba","religion":"christian","denomination":"roman_catholic","start_date":"~1820","end_date":null,"start_year":1820,"end_year":null}},{"type":"Feature","geometry":{"type":"Point","coordinates":[21.28021,49.29879]},"properties":{"osm_type":"way","osm_id":118622276,"name":"Kostol sv. Anny","religion":"christian","denomination":"roman_catholic","start_date":"1822","end_date":null,"start_year":1822,"end_year":null}},{"type":"Feature","geometry":{"type":"Point","coordinates":[18.0832,48.89378]},"properties":{"osm_type":"node","osm_id":12258503461,"name":null,"religion":"christian","denomination":"roman_catholic","start_date":"1822","end_date":null,"start_year":1822,"end_year":null}},{"type":"Feature","geometry":{"type":"Point","coordinates":[17.09766,48.1403]},"properties":{"osm_type":"node","osm_id":4698156448,"name":null,"religion":"christian","denomination":null,"start_date":"1823","end_date":null,"start_year":1823,"end_year":null}},{"type":"Feature","geometry":{"type":"Point","coordinates":[21.98581,48.4682]},"properties":{"osm_type":"way","osm_id":149559828,"name":"Reformovaný kostol","religion":"christian","denomination":null,"start_date":"1824","end_date":null,"start_year":1824,"end_year":null}},{"type":"Feature","geometry":{"type":"Point","coordinates":[17.45674,48.42679]},"properties":{"osm_type":"node","osm_id":2707967512,"name":null,"religion":"christian","denomination":"catholic","start_date":"1824","end_date":null,"start_year":1824,"end_year":null}},{"type":"Feature","geometry":{"type":"Point","coordinates":[21.80455,48.51709]},"properties":{"osm_type":"way","osm_id":149268556,"name":"Kostol Reformovanej kresťanskej cirkvi","religion":"christian","denomination":"reformed","start_date":"1827","end_date":null,"start_year":1827,"end_year":null}},{"type":"Feature","geometry":{"type":"Point","coordinates":[21.86573,48.36491]},"properties":{"osm_type":"way","osm_id":266997555,"name":"Reformovaný kostol","religion":"christian","denomination":"reformed","start_date":"1830","end_date":null,"start_year":1830,"end_year":null}},{"type":"Feature","geometry":{"type":"Point","coordinates":[22.04963,48.43929]},"properties":{"osm_type":"way","osm_id":59907282,"name":null,"religion":"christian","denomination":"reformed","start_date":"1830","end_date":null,"start_year":1830,"end_year":null}},{"type":"Feature","geometry":{"type":"Point","coordinates":[19.35823,49.26015]},"properties":{"osm_type":"way","osm_id":52584372,"name":"Kostol sv. Jána Nepomuckého","religion":"christian","denomination":"roman_catholic","start_date":"1831","end_date":null,"start_year":1831,"end_year":null}},{"type":"Feature","geometry":{"type":"Point","coordinates":[17.83267,48.60186]},"properties":{"osm_type":"way","osm_id":58385472,"name":"Kostol sv. Štefana Uhorského","religion":"christian","denomination":"roman_catholic","start_date":"1831","end_date":null,"start_year":1831,"end_year":null}},{"type":"Feature","geometry":{"type":"Point","coordinates":[16.98263,48.31976]},"properties":{"osm_type":"way","osm_id":441968967,"name":"Kaplnka svätej Rozálie","religion":"christian","denomination":"roman_catholic","start_date":"1832","end_date":null,"start_year":1832,"end_year":null}},{"type":"Feature","geometry":{"type":"Point","coordinates":[21.77945,48.41307]},"properties":{"osm_type":"way","osm_id":73049317,"name":"Reformovaný kostol","religion":"christian","denomination":"reformed","start_date":"1834","end_date":null,"start_year":1834,"end_year":null}},{"type":"Feature","geometry":{"type":"Point","coordinates":[17.7278,48.30269]},"properties":{"osm_type":"way","osm_id":61393003,"name":"Kaplnka Nanebovzatia Panny Márie","religion":"christian","denomination":"roman_catholic","start_date":"1835","end_date":null,"start_year":1835,"end_year":null}},{"type":"Feature","geometry":{"type":"Point","coordinates":[20.38213,48.86688]},"properties":{"osm_type":"way","osm_id":61613471,"name":"Kostol nanebovzatia Panny Márie","religion":"christian","denomination":"roman_catholic","start_date":"1835","end_date":null,"start_year":1835,"end_year":null}},{"type":"Feature","geometry":{"type":"Point","coordinates":[17.31237,48.33261]},"properties":{"osm_type":"way","osm_id":49901143,"name":"Slovenský evanjelický kostol","religion":"christian","denomination":"lutheran","start_date":"1835","end_date":null,"start_year":1835,"end_year":null}},{"type":"Feature","geometry":{"type":"Point","coordinates":[21.96853,48.59176]},"properties":{"osm_type":"way","osm_id":71663304,"name":"Reformovaný kostol","religion":"christian","denomination":"reformed","start_date":"1836","end_date":null,"start_year":1836,"end_year":null}},{"type":"Feature","geometry":{"type":"Point","coordinates":[17.87648,48.15163]},"properties":{"osm_type":"way","osm_id":220329120,"name":"Kostol sv. Margity Antiochijskej","religion":"christian","denomination":"roman_catholic","start_date":"1837","end_date":null,"start_year":1837,"end_year":null}},{"type":"Feature","geometry":{"type":"Point","coordinates":[21.74208,48.39526]},"properties":{"osm_type":"way","osm_id":267008834,"name":"Reformovaný kostol","religion":"christian","denomination":"reformed","start_date":"1838","end_date":null,"start_year":1838,"end_year":null}},{"type":"Feature","geometry":{"type":"Point","coordinates":[17.04645,48.24185]},"properties":{"osm_type":"way","osm_id":135758713,"name":"Kaplnka sv. Kozmu a Damiána","religion":"christian","denomination":"roman_catholic","start_date":"1839","end_date":null,"start_year":1839,"end_year":null}},{"type":"Feature","geometry":{"type":"Point","coordinates":[18.33604,48.11194]},"properties":{"osm_type":"node","osm_id":11874882291,"name":null,"religion":"christian","denomination":"roman_catholic","start_date":"1839","end_date":null,"start_year":1839,"end_year":null}},{"type":"Feature","geometry":{"type":"Point","coordinates":[17.82636,48.05995]},"properties":{"osm_type":"node","osm_id":11146696752,"name":null,"religion":"christian","denomination":"roman_catholic","start_date":"1842","end_date":null,"start_year":1842,"end_year":null}},{"type":"Feature","geometry":{"type":"Point","coordinates":[22.11058,48.42667]},"properties":{"osm_type":"way","osm_id":71616784,"name":null,"religion":"christian","denomination":"reformed","start_date":"1842","end_date":null,"start_year":1842,"end_year":null}},{"type":"Feature","geometry":{"type":"Point","coordinates":[19.44928,48.13632]},"properties":{"osm_type":"way","osm_id":725452948,"name":"Evanjelický a. v. kostol","religion":"christian","denomination":"lutheran","start_date":"1845","end_date":null,"start_year":1845,"end_year":null}},{"type":"Feature","geometry":{"type":"Point","coordinates":[18.64325,48.82356]},"properties":{"osm_type":"way","osm_id":793761884,"name":"Panny Márie","religion":"christian","denomination":null,"start_date":"1845","end_date":null,"start_year":1845,"end_year":null}},{"type":"Feature","geometry":{"type":"Point","coordinates":[19.88953,48.24875]},"properties":{"osm_type":"way","osm_id":65388449,"name":"Kostol svätých anjelov strážcov","religion":"christian","denomination":"roman_catholic","start_date":"1846","end_date":null,"start_year":1846,"end_year":null}},{"type":"Feature","geometry":{"type":"Point","coordinates":[18.8621,49.1804]},"properties":{"osm_type":"way","osm_id":336103434,"name":"Kostol sv. Žofie","religion":"christian","denomination":"roman_catholic","start_date":"1847","end_date":null,"start_year":1847,"end_year":null}},{"type":"Feature","geometry":{"type":"Point","coordinates":[17.29591,48.20283]},"properties":{"osm_type":"way","osm_id":795610454,"name":null,"religion":"christian","denomination":"roman_catholic","start_date":"1847","end_date":null,"start_year":1847,"end_year":null}},{"type":"Feature","geometry":{"type":"Point","coordinates":[21.26429,49.29298]},"properties":{"osm_type":"way","osm_id":118636337,"name":"Kaplnka sv. Michala","religion":"christian","denomination":"roman_catholic","start_date":"1848","end_date":null,"start_year":1848,"end_year":null}},{"type":"Feature","geometry":{"type":"Point","coordinates":[21.96906,48.59185]},"properties":{"osm_type":"way","osm_id":398349237,"name":"Pohrebná kaplnka","religion":"christian","denomination":"greek_catholic","start_date":"1850s","end_date":null,"start_year":1850,"end_year":null}},{"type":"Feature","geometry":{"type":"Point","coordinates":[17.502,48.45567]},"properties":{"osm_type":"node","osm_id":11075360548,"name":null,"religion":"christian","denomination":null,"start_date":"1861","end_date":null,"start_year":1861,"end_year":null}},{"type":"Feature","geometry":{"type":"Point","coordinates":[17.11391,48.78853]},"properties":{"osm_type":"way","osm_id":51494769,"name":"Kostol sv. Štefana kráľa","religion":"christian","denomination":"roman_catholic","start_date":"1862","end_date":null,"start_year":1862,"end_year":null}},{"type":"Feature","geometry":{"type":"Point","coordinates":[18.88479,48.9059]},"properties":{"osm_type":"way","osm_id":73339966,"name":"Evanjelický a. v. kostol","religion":"christian","denomination":"lutheran","start_date":"1864","end_date":null,"start_year":1864,"end_year":null}},{"type":"Feature","geometry":{"type":"Point","coordinates":[17.31226,48.33287]},"properties":{"osm_type":"way","osm_id":49901041,"name":"Nemecký evanjelický kostol","religion":"christian","denomination":"lutheran","start_date":"1866","end_date":null,"start_year":1866,"end_year":null}},{"type":"Feature","geometry":{"type":"Point","coordinates":[17.43817,48.46629]},"properties":{"osm_type":"node","osm_id":10763747485,"name":null,"religion":"christian","denomination":"roman_catholic","start_date":"1867","end_date":null,"start_year":1867,"end_year":null}},{"type":"Feature","geometry":{"type":"Point","coordinates":[21.28538,49.29323]},"properties":{"osm_type":"way","osm_id":118622595,"name":"Kalvársky kostol sv. Kríža","religion":"christian","denomination":"roman_catholic","start_date":"1869","end_date":null,"start_year":1869,"end_year":null}},{"type":"Feature","geometry":{"type":"Point","coordinates":[17.71335,48.33271]},"properties":{"osm_type":"way","osm_id":163067229,"name":"Kaplnka Sedembolestnej Panny Márie","religion":"christian","denomination":"roman_catholic","start_date":"1869","end_date":null,"start_year":1869,"end_year":null}},{"type":"Feature","geometry":{"type":"Point","coordinates":[21.28494,49.29326]},"properties":{"osm_type":"way","osm_id":118625484,"name":"Kaplnka sv. Márie Magdalény","religion":"christian","denomination":"roman_catholic","start_date":"1869","end_date":null,"start_year":1869,"end_year":null}},{"type":"Feature","geometry":{"type":"Point","coordinates":[17.70526,48.43964]},"properties":{"osm_type":"node","osm_id":11821807953,"name":null,"religion":"christian","denomination":"roman_catholic","start_date":"1872","end_date":null,"start_year":1872,"end_year":null}},{"type":"Feature","geometry":{"type":"Point","coordinates":[21.90737,48.38567]},"properties":{"osm_type":"way","osm_id":149559501,"name":"Reformovaný kostol","religion":"christian","denomination":"reformed","start_date":"1874","end_date":null,"start_year":1874,"end_year":null}},{"type":"Feature","geometry":{"type":"Point","coordinates":[17.56448,48.52057]},"properties":{"osm_type":"node","osm_id":11110441959,"name":null,"religion":"christian","denomination":null,"start_date":"1874","end_date":null,"start_year":1874,"end_year":null}},{"type":"Feature","geometry":{"type":"Point","coordinates":[19.28003,49.03921]},"properties":{"osm_type":"way","osm_id":58543192,"name":"Kostol Navštívenia Panny Márie","religion":"christian","denomination":"roman_catholic","start_date":"1875","end_date":null,"start_year":1875,"end_year":null}},{"type":"Feature","geometry":{"type":"Point","coordinates":[22.00082,48.3883]},"properties":{"osm_type":"way","osm_id":73462943,"name":"Kostol Reformovanej kresťanskej cirkvi","religion":"christian","denomination":"reformed","start_date":"1875","end_date":null,"start_year":1875,"end_year":null}},{"type":"Feature","geometry":{"type":"Point","coordinates":[17.27461,48.38383]},"properties":{"osm_type":"way","osm_id":118320889,"name":"Kaplnka sv. Márie Magdalény","religion":"christian","denomination":"roman_catholic","start_date":"1876","end_date":null,"start_year":1876,"end_year":null}},{"type":"Feature","geometry":{"type":"Point","coordinates":[18.47693,49.01751]},"properties":{"osm_type":"way","osm_id":202973027,"name":"Lurdská Panna Mária","religion":"christian","denomination":"roman_catholic","start_date":"1879","end_date":null,"start_year":1879,"end_year":null}},{"type":"Feature","geometry":{"type":"Point","coordinates":[17.43237,48.10942]},"properties":{"osm_type":"node","osm_id":12961608302,"name":null,"religion":"christian","denomination":null,"start_date":"1879","end_date":null,"start_year":1879,"end_year":null}},{"type":"Feature","geometry":{"type":"Point","coordinates":[20.79538,49.21203]},"properties":{"osm_type":"way","osm_id":783923189,"name":"Chrám sv. archanjela Michala","religion":"christian","denomination":"greek_catholic","start_date":"1880","end_date":null,"start_year":1880,"end_year":null}},{"type":"Feature","geometry":{"type":"Point","coordinates":[17.20444,48.14923]},"properties":{"osm_type":"way","osm_id":64978847,"name":"Kaplnka svätého Petra a Pavla","religion":"christian","denomination":null,"start_date":"1880","end_date":null,"start_year":1880,"end_year":null}},{"type":"Feature","geometry":{"type":"Point","coordinates":[18.52114,49.34141]},"properties":{"osm_type":"way","osm_id":1304873255,"name":null,"religion":"christian","denomination":null,"start_date":"1882","end_date":null,"start_year":1882,"end_year":null}},{"type":"Feature","geometry":{"type":"Point","coordinates":[19.43568,49.06426]},"properties":{"osm_type":"way","osm_id":234324738,"name":"Evanjelický a. v. kostol","religion":"christian","denomination":"lutheran","start_date":"1884..1887","end_date":null,"start_year":1884,"end_year":null}},{"type":"Feature","geometry":{"type":"Point","coordinates":[17.6607,47.95455]},"properties":{"osm_type":"node","osm_id":11179365482,"name":null,"religion":"christian","denomination":null,"start_date":"1885","end_date":null,"start_year":1885,"end_year":null}},{"type":"Feature","geometry":{"type":"Point","coordinates":[22.03503,48.46248]},"properties":{"osm_type":"way","osm_id":73070436,"name":"Reformovaný kostol","religion":"christian","denomination":"reformed","start_date":"1887","end_date":null,"start_year":1887,"end_year":null}},{"type":"Feature","geometry":{"type":"Point","coordinates":[17.11903,48.15298]},"properties":{"osm_type":"way","osm_id":75219636,"name":"Kostol Nanebovzatia Panny Márie","religion":"christian","denomination":"roman_catholic","start_date":"1888","end_date":null,"start_year":1888,"end_year":null}},{"type":"Feature","geometry":{"type":"Point","coordinates":[17.60175,48.3664]},"properties":{"osm_type":"way","osm_id":282266845,"name":null,"religion":"christian","denomination":"lutheran","start_date":"1893","end_date":null,"start_year":1893,"end_year":null}},{"type":"Feature","geometry":{"type":"Point","coordinates":[16.97233,48.31613]},"properties":{"osm_type":"way","osm_id":438070028,"name":"Kaplnka sv. Jána Nepomuckého","religion":"christian","denomination":"roman_catholic","start_date":"1894","end_date":null,"start_year":1894,"end_year":null}},{"type":"Feature","geometry":{"type":"Point","coordinates":[17.37516,48.42037]},"properties":{"osm_type":"node","osm_id":10701822678,"name":"Lurdská jaskyňa","religion":"christian","denomination":"roman_catholic","start_date":"1894","end_date":null,"start_year":1894,"end_year":null}},{"type":"Feature","geometry":{"type":"Point","coordinates":[19.16557,48.90938]},"properties":{"osm_type":"way","osm_id":305187011,"name":null,"religion":"christian","denomination":"roman_catholic","start_date":"1896","end_date":null,"start_year":1896,"end_year":null}},{"type":"Feature","geometry":{"type":"Point","coordinates":[17.83919,48.58881]},"properties":{"osm_type":"way","osm_id":58419866,"name":"Kaplnka Božského srdca Ježišovho","religion":"christian","denomination":"roman_catholic","start_date":"1897","end_date":null,"start_year":1897,"end_year":null}},{"type":"Feature","geometry":{"type":"Point","coordinates":[17.7837,48.18682]},"properties":{"osm_type":"way","osm_id":304266566,"name":"Evanjelický a. v. kostol","religion":"christian","denomination":"lutheran","start_date":"1898","end_date":null,"start_year":1898,"end_year":null}},{"type":"Feature","geometry":{"type":"Point","coordinates":[16.98312,48.31395]},"properties":{"osm_type":"way","osm_id":49848412,"name":"Kostol sv. Margity Antiochijskej","religion":"christian","denomination":"roman_catholic","start_date":"1898-10-02","end_date":null,"start_year":1898,"end_year":null}},{"type":"Feature","geometry":{"type":"Point","coordinates":[17.57681,48.38538]},"properties":{"osm_type":"node","osm_id":1787796026,"name":"Golgota","religion":"christian","denomination":null,"start_date":"1901","end_date":null,"start_year":1901,"end_year":null}},{"type":"Feature","geometry":{"type":"Point","coordinates":[18.63246,48.7828]},"properties":{"osm_type":"way","osm_id":49833834,"name":"Kaplnka Nepoškvrneného Srdca Panny Márie","religion":"christian","denomination":"roman_catholic","start_date":"1901","end_date":null,"start_year":1901,"end_year":null}},{"type":"Feature","geometry":{"type":"Point","coordinates":[17.69179,48.08003]},"properties":{"osm_type":"node","osm_id":13086711204,"name":null,"religion":"christian","denomination":null,"start_date":"1901","end_date":null,"start_year":1901,"end_year":null}},{"type":"Feature","geometry":{"type":"Point","coordinates":[21.27332,49.2908]},"properties":{"osm_type":"way","osm_id":113553051,"name":"sv. Petra a Pavla","religion":"christian","denomination":"greek_catholic","start_date":"1902","end_date":null,"start_year":1902,"end_year":null}},{"type":"Feature","geometry":{"type":"Point","coordinates":[19.64605,48.80494]},"properties":{"osm_type":"way","osm_id":58958199,"name":"Synagóga","religion":"jewish","denomination":null,"start_date":"1902","end_date":null,"start_year":1902,"end_year":null}},{"type":"Feature","geometry":{"type":"Point","coordinates":[18.82761,49.37869]},"properties":{"osm_type":"way","osm_id":331582187,"name":"Zvestovanie Panny Márie","religion":"christian","denomination":"roman_catholic","start_date":"1904","end_date":null,"start_year":1904,"end_year":null}},{"type":"Feature","geometry":{"type":"Point","coordinates":[21.78988,48.35339]},"properties":{"osm_type":"way","osm_id":149559920,"name":null,"religion":"christian","denomination":"reformed","start_date":"1904","end_date":null,"start_year":1904,"end_year":null}},{"type":"Feature","geometry":{"type":"Point","coordinates":[17.83417,48.59317]},"properties":{"osm_type":"way","osm_id":58420120,"name":"Evanjelický a. v. kostol","religion":"christian","denomination":"lutheran","start_date":"1905","end_date":null,"start_year":1905,"end_year":null}},{"type":"Feature","geometry":{"type":"Point","coordinates":[17.45012,48.3007]},"properties":{"osm_type":"way","osm_id":1173085985,"name":"Kaplnka sv. Apolónie","religion":"christian","denomination":"catholic","start_date":"1908","end_date":null,"start_year":1908,"end_year":null}},{"type":"Feature","geometry":{"type":"Point","coordinates":[17.96826,48.09195]},"properties":{"osm_type":"node","osm_id":9580604254,"name":null,"religion":"christian","denomination":"catholic","start_date":"1908","end_date":null,"start_year":1908,"end_year":null}},{"type":"Feature","geometry":{"type":"Point","coordinates":[18.53337,48.80361]},"properties":{"osm_type":"way","osm_id":305103334,"name":null,"religion":"christian","denomination":null,"start_date":"1908","end_date":null,"start_year":1908,"end_year":null}},{"type":"Feature","geometry":{"type":"Point","coordinates":[17.43068,48.41254]},"properties":{"osm_type":"way","osm_id":166696713,"name":"Kaplnka sv. Antona Paduánskeho","religion":"christian","denomination":"roman_catholic","start_date":"1909","end_date":null,"start_year":1909,"end_year":null}},{"type":"Feature","geometry":{"type":"Point","coordinates":[17.12302,48.11992]},"properties":{"osm_type":"way","osm_id":80965194,"name":"Kaplnka svätého Kríža","religion":"christian","denomination":"roman_catholic","start_date":"~1909","end_date":null,"start_year":1909,"end_year":null}},{"type":"Feature","geometry":{"type":"Point","coordinates":[18.67981,49.1276]},"properties":{"osm_type":"way","osm_id":297392454,"name":"Nanebovzatia Panny Márie","religion":"christian","denomination":"roman_catholic","start_date":"1909","end_date":null,"start_year":1909,"end_year":null}},{"type":"Feature","geometry":{"type":"Point","coordinates":[17.68911,48.10206]},"properties":{"osm_type":"node","osm_id":10929616427,"name":"Veľký kríž","religion":"christian","denomination":null,"start_date":"1909","end_date":null,"start_year":1909,"end_year":null}},{"type":"Feature","geometry":{"type":"Point","coordinates":[19.52254,48.19227]},"properties":{"osm_type":"way","osm_id":249265495,"name":"Kostol sv. Alžbety","religion":"christian","denomination":"roman_catholic","start_date":"1910","end_date":null,"start_year":1910,"end_year":null}},{"type":"Feature","geometry":{"type":"Point","coordinates":[18.88674,48.91132]},"properties":{"osm_type":"way","osm_id":73340336,"name":"Kostol Najsvätejšej Trojice","religion":"christian","denomination":"roman_catholic","start_date":"1912..1913","end_date":null,"start_year":1912,"end_year":null}},{"type":"Feature","geometry":{"type":"Point","coordinates":[17.10926,48.14617]},"properties":{"osm_type":"way","osm_id":77918828,"name":"Kalvínsky kostol","religion":"christian","denomination":"reformed","start_date":"1913","end_date":null,"start_year":1913,"end_year":null}},{"type":"Feature","geometry":{"type":"Point","coordinates":[17.11674,48.14335]},"properties":{"osm_type":"way","osm_id":39962221,"name":"Kostol svätej Alžbety","religion":"christian","denomination":"roman_catholic","start_date":"1913","end_date":null,"start_year":1913,"end_year":null}},{"type":"Feature","geometry":{"type":"Point","coordinates":[18.16575,47.99152]},"properties":{"osm_type":"way","osm_id":57974675,"name":"svätého Antona Paduánskeho","religion":"christian","denomination":"catholic","start_date":"1913","end_date":null,"start_year":1913,"end_year":null}},{"type":"Feature","geometry":{"type":"Point","coordinates":[17.33098,48.01873]},"properties":{"osm_type":"way","osm_id":266536210,"name":"svätej Margity","religion":"christian","denomination":null,"start_date":"1913","end_date":null,"start_year":1913,"end_year":null}},{"type":"Feature","geometry":{"type":"Point","coordinates":[21.53999,48.5303]},"properties":{"osm_type":"way","osm_id":71592357,"name":null,"religion":"christian","denomination":"reformed","start_date":"1913","end_date":null,"start_year":1913,"end_year":null}},{"type":"Feature","geometry":{"type":"Point","coordinates":[18.86007,49.36406]},"properties":{"osm_type":"way","osm_id":980956973,"name":"Kaplnka Panny Márie","religion":"christian","denomination":"roman_catholic","start_date":"1915","end_date":null,"start_year":1915,"end_year":null}},{"type":"Feature","geometry":{"type":"Point","coordinates":[19.60139,48.84239]},"properties":{"osm_type":"way","osm_id":73342059,"name":"Kostol sv. Floriána","religion":"christian","denomination":"roman_catholic","start_date":"1915","end_date":null,"start_year":1915,"end_year":null}},{"type":"Feature","geometry":{"type":"Point","coordinates":[18.63874,49.04078]},"properties":{"osm_type":"way","osm_id":787538031,"name":"Kaplnka Lurdskej Panny Márie","religion":null,"denomination":"roman_catholic","start_date":"1921","end_date":null,"start_year":1921,"end_year":null}},{"type":"Feature","geometry":{"type":"Point","coordinates":[18.20099,48.06815]},"properties":{"osm_type":"way","osm_id":1289394631,"name":"Kaplnka Lurdskej Panny Márie","religion":"christian","denomination":"roman_catholic","start_date":"1921","end_date":null,"start_year":1921,"end_year":null}},{"type":"Feature","geometry":{"type":"Point","coordinates":[17.31908,48.50387]},"properties":{"osm_type":"way","osm_id":665069635,"name":"Lurdská jaskyňa","religion":"christian","denomination":"roman_catholic","start_date":"1923","end_date":null,"start_year":1923,"end_year":null}},{"type":"Feature","geometry":{"type":"Point","coordinates":[18.33671,48.05989]},"properties":{"osm_type":"node","osm_id":11873907089,"name":null,"religion":"christian","denomination":"roman_catholic","start_date":"1923","end_date":null,"start_year":1923,"end_year":null}},{"type":"Feature","geometry":{"type":"Point","coordinates":[18.62891,49.40672]},"properties":{"osm_type":"node","osm_id":6567243223,"name":"Panny Márie ustavičnej pomoci","religion":"christian","denomination":"catholic","start_date":"1924","end_date":null,"start_year":1924,"end_year":null}},{"type":"Feature","geometry":{"type":"Point","coordinates":[17.67745,48.36355]},"properties":{"osm_type":"node","osm_id":11822722790,"name":null,"religion":"christian","denomination":"roman_catholic","start_date":"1925","end_date":null,"start_year":1925,"end_year":null}},{"type":"Feature","geometry":{"type":"Point","coordinates":[17.69181,48.07993]},"properties":{"osm_type":"node","osm_id":13087255604,"name":null,"religion":"christian","denomination":null,"start_date":"1925","end_date":null,"start_year":1925,"end_year":null}},{"type":"Feature","geometry":{"type":"Point","coordinates":[17.69184,48.0799]},"properties":{"osm_type":"node","osm_id":13087255605,"name":null,"religion":"christian","denomination":null,"start_date":"1925","end_date":null,"start_year":1925,"end_year":null}},{"type":"Feature","geometry":{"type":"Point","coordinates":[17.69172,48.07985]},"properties":{"osm_type":"node","osm_id":13087255606,"name":null,"religion":"christian","denomination":null,"start_date":"1925","end_date":null,"start_year":1925,"end_year":null}},{"type":"Feature","geometry":{"type":"Point","coordinates":[17.69169,48.07988]},"properties":{"osm_type":"node","osm_id":13087255607,"name":null,"religion":"christian","denomination":null,"start_date":"1925","end_date":null,"start_year":1925,"end_year":null}},{"type":"Feature","geometry":{"type":"Point","coordinates":[17.69161,48.0798]},"properties":{"osm_type":"node","osm_id":13087255608,"name":null,"religion":"christian","denomination":null,"start_date":"1925","end_date":null,"start_year":1925,"end_year":null}},{"type":"Feature","geometry":{"type":"Point","coordinates":[17.69159,48.07984]},"properties":{"osm_type":"node","osm_id":13087255609,"name":null,"religion":"christian","denomination":null,"start_date":"1925","end_date":null,"start_year":1925,"end_year":null}},{"type":"Feature","geometry":{"type":"Point","coordinates":[17.69111,48.07959]},"properties":{"osm_type":"node","osm_id":13087255610,"name":null,"religion":"christian","denomination":null,"start_date":"1925","end_date":null,"start_year":1925,"end_year":null}},{"type":"Feature","geometry":{"type":"Point","coordinates":[17.69108,48.07963]},"properties":{"osm_type":"node","osm_id":13087255611,"name":null,"religion":"christian","denomination":null,"start_date":"1925","end_date":null,"start_year":1925,"end_year":null}},{"type":"Feature","geometry":{"type":"Point","coordinates":[17.69125,48.07965]},"properties":{"osm_type":"node","osm_id":13087255612,"name":null,"religion":"christian","denomination":null,"start_date":"1925","end_date":null,"start_year":1925,"end_year":null}},{"type":"Feature","geometry":{"type":"Point","coordinates":[17.69122,48.07968]},"properties":{"osm_type":"node","osm_id":13087255613,"name":null,"religion":"christian","denomination":null,"start_date":"1925","end_date":null,"start_year":1925,"end_year":null}},{"type":"Feature","geometry":{"type":"Point","coordinates":[17.69139,48.07971]},"properties":{"osm_type":"node","osm_id":13087255614,"name":null,"religion":"christian","denomination":null,"start_date":"1925","end_date":null,"start_year":1925,"end_year":null}},{"type":"Feature","geometry":{"type":"Point","coordinates":[17.69136,48.07974]},"properties":{"osm_type":"node","osm_id":13087255615,"name":null,"religion":"christian","denomination":null,"start_date":"1925","end_date":null,"start_year":1925,"end_year":null}},{"type":"Feature","geometry":{"type":"Point","coordinates":[17.6915,48.07975]},"properties":{"osm_type":"node","osm_id":13087255616,"name":null,"religion":"christian","denomination":null,"start_date":"1925","end_date":null,"start_year":1925,"end_year":null}},{"type":"Feature","geometry":{"type":"Point","coordinates":[17.69148,48.07979]},"properties":{"osm_type":"node","osm_id":13087255617,"name":null,"religion":"christian","denomination":null,"start_date":"1925","end_date":null,"start_year":1925,"end_year":null}},{"type":"Feature","geometry":{"type":"Point","coordinates":[17.69164,48.07995]},"properties":{"osm_type":"node","osm_id":13087255618,"name":null,"religion":"christian","denomination":null,"start_date":"1925","end_date":null,"start_year":1925,"end_year":null}},{"type":"Feature","geometry":{"type":"Point","coordinates":[17.69166,48.07994]},"properties":{"osm_type":"node","osm_id":13087255619,"name":null,"religion":"christian","denomination":null,"start_date":"1925","end_date":null,"start_year":1925,"end_year":null}},{"type":"Feature","geometry":{"type":"Point","coordinates":[17.69167,48.07993]},"properties":{"osm_type":"node","osm_id":13087255620,"name":null,"religion":"christian","denomination":null,"start_date":"1925","end_date":null,"start_year":1925,"end_year":null}},{"type":"Feature","geometry":{"type":"Point","coordinates":[17.83279,48.60198]},"properties":{"osm_type":"node","osm_id":11007321979,"name":null,"religion":"christian","denomination":"roman_catholic","start_date":"1927","end_date":null,"start_year":1927,"end_year":null}},{"type":"Feature","geometry":{"type":"Point","coordinates":[17.68982,48.036]},"properties":{"osm_type":"way","osm_id":71724677,"name":null,"religion":"christian","denomination":"roman_catholic","start_date":"1927","end_date":null,"start_year":1927,"end_year":null}},{"type":"Feature","geometry":{"type":"Point","coordinates":[18.10802,47.99838]},"properties":{"osm_type":"way","osm_id":679106143,"name":null,"religion":"christian","denomination":null,"start_date":"1928","end_date":null,"start_year":1928,"end_year":null}},{"type":"Feature","geometry":{"type":"Point","coordinates":[17.17148,48.14947]},"properties":{"osm_type":"way","osm_id":60898127,"name":"Evanjelický a. v. kostol","religion":"christian","denomination":"lutheran","start_date":"1929","end_date":null,"start_year":1929,"end_year":null}},{"type":"Feature","geometry":{"type":"Point","coordinates":[21.27368,49.29207]},"properties":{"osm_type":"way","osm_id":113552845,"name":"Synagóga Chevra Bikur Cholim","religion":"jewish","denomination":null,"start_date":"1929","end_date":null,"start_year":1929,"end_year":null}},{"type":"Feature","geometry":{"type":"Point","coordinates":[17.96913,48.08948]},"properties":{"osm_type":"node","osm_id":11196400771,"name":null,"religion":"christian","denomination":"roman_catholic","start_date":"1929","end_date":null,"start_year":1929,"end_year":null}},{"type":"Feature","geometry":{"type":"Point","coordinates":[17.43812,48.46625]},"properties":{"osm_type":"node","osm_id":10763729255,"name":"Lurdská jaskyňa","religion":"christian","denomination":"roman_catholic","start_date":"1930","end_date":null,"start_year":1930,"end_year":null}},{"type":"Feature","geometry":{"type":"Point","coordinates":[17.24448,48.26887]},"properties":{"osm_type":"way","osm_id":168858049,"name":"Evanjelický a. v. kostol","religion":"christian","denomination":"lutheran","start_date":"~1931","end_date":null,"start_year":1931,"end_year":null}},{"type":"Feature","geometry":{"type":"Point","coordinates":[18.48755,49.40189]},"properties":{"osm_type":"way","osm_id":390313048,"name":"Filiálny kostol Božského srdca Ježišovho","religion":"christian","denomination":"roman_catholic","start_date":"1931-08-30","end_date":null,"start_year":1931,"end_year":null}},{"type":"Feature","geometry":{"type":"Point","coordinates":[17.09876,48.12804]},"properties":{"osm_type":"way","osm_id":24863931,"name":"Kostol Povýšenia Svätého kríža","religion":"christian","denomination":"roman_catholic","start_date":"1931..1932","end_date":null,"start_year":1931,"end_year":null}},{"type":"Feature","geometry":{"type":"Point","coordinates":[21.66906,48.40348]},"properties":{"osm_type":"way","osm_id":149559855,"name":"Kostol sv. Cyrila a Metoda","religion":"christian","denomination":"roman_catholic","start_date":"1931","end_date":null,"start_year":1931,"end_year":null}},{"type":"Feature","geometry":{"type":"Point","coordinates":[17.27501,48.17032]},"properties":{"osm_type":"way","osm_id":255131738,"name":"svätej Trojice","religion":"christian","denomination":"roman_catholic","start_date":"1932","end_date":null,"start_year":1932,"end_year":null}},{"type":"Feature","geometry":{"type":"Point","coordinates":[17.16727,48.14479]},"properties":{"osm_type":"node","osm_id":3828200631,"name":"Kaplnka Najsvätejšieho Srdca Ježišovho","religion":"christian","denomination":"catholic","start_date":"1933","end_date":null,"start_year":1933,"end_year":null}},{"type":"Feature","geometry":{"type":"Point","coordinates":[17.60925,47.83676]},"properties":{"osm_type":"way","osm_id":73720382,"name":"Kostol Narodenia Panny Márie","religion":"christian","denomination":"roman_catholic","start_date":"1933","end_date":null,"start_year":1933,"end_year":null}},{"type":"Feature","geometry":{"type":"Point","coordinates":[17.12211,48.15632]},"properties":{"osm_type":"way","osm_id":77937306,"name":"Nový evanjelický kostol","religion":"christian","denomination":"lutheran","start_date":"1933","end_date":null,"start_year":1933,"end_year":null}},{"type":"Feature","geometry":{"type":"Point","coordinates":[17.17062,48.1492]},"properties":{"osm_type":"node","osm_id":5328766340,"name":null,"religion":"christian","denomination":null,"start_date":"1934","end_date":null,"start_year":1934,"end_year":null}},{"type":"Feature","geometry":{"type":"Point","coordinates":[18.85602,49.39676]},"properties":{"osm_type":"way","osm_id":330916323,"name":null,"religion":"christian","denomination":null,"start_date":"1934-05-06","end_date":null,"start_year":1934,"end_year":null}},{"type":"Feature","geometry":{"type":"Point","coordinates":[18.72061,48.35266]},"properties":{"osm_type":"way","osm_id":58433838,"name":"Evanjelický a. v. kostol","religion":"christian","denomination":"lutheran","start_date":"1935","end_date":null,"start_year":1935,"end_year":null}},{"type":"Feature","geometry":{"type":"Point","coordinates":[17.77138,48.4269]},"properties":{"osm_type":"way","osm_id":49476730,"name":"Kostol Krista Kráľa","religion":"christian","denomination":"roman_catholic","start_date":"1935-10-26","end_date":null,"start_year":1935,"end_year":null}},{"type":"Feature","geometry":{"type":"Point","coordinates":[18.16704,48.89976]},"properties":{"osm_type":"node","osm_id":11007814918,"name":"Lurdská jaskyňa","religion":"christian","denomination":"roman_catholic","start_date":"1935","end_date":null,"start_year":1935,"end_year":null}},{"type":"Feature","geometry":{"type":"Point","coordinates":[18.83486,49.39479]},"properties":{"osm_type":"way","osm_id":325298820,"name":null,"religion":"christian","denomination":"roman_catholic","start_date":"1935","end_date":null,"start_year":1935,"end_year":null}},{"type":"Feature","geometry":{"type":"Point","coordinates":[18.83664,49.38989]},"properties":{"osm_type":"way","osm_id":1425639724,"name":null,"religion":"christian","denomination":"roman_catholic","start_date":"1935","end_date":null,"start_year":1935,"end_year":null}},{"type":"Feature","geometry":{"type":"Point","coordinates":[17.38604,48.03181]},"properties":{"osm_type":"way","osm_id":152486040,"name":"Kaplnka Mena Panny Márie","religion":"christian","denomination":null,"start_date":"1936","end_date":null,"start_year":1936,"end_year":null}},{"type":"Feature","geometry":{"type":"Point","coordinates":[21.70353,48.39586]},"properties":{"osm_type":"way","osm_id":50494728,"name":"Kostol Nanebovzatia Panny Márie","religion":"christian","denomination":"roman_catholic","start_date":"1936","end_date":null,"start_year":1936,"end_year":null}},{"type":"Feature","geometry":{"type":"Point","coordinates":[18.56388,48.87917]},"properties":{"osm_type":"way","osm_id":52062493,"name":"Kostol Povýšenia Svätého kríža","religion":"christian","denomination":"roman_catholic","start_date":"1936","end_date":null,"start_year":1936,"end_year":null}},{"type":"Feature","geometry":{"type":"Point","coordinates":[22.05453,48.41005]},"properties":{"osm_type":"way","osm_id":266997869,"name":"Kostol Reformovanej kresťanskej cirkvi","religion":"christian","denomination":"reformed","start_date":"1936","end_date":null,"start_year":1936,"end_year":null}},{"type":"Feature","geometry":{"type":"Point","coordinates":[17.16466,48.16665]},"properties":{"osm_type":"way","osm_id":264155687,"name":"Kostol sv. Don Bosca","religion":"christian","denomination":"roman_catholic","start_date":"1938","end_date":null,"start_year":1938,"end_year":null}},{"type":"Feature","geometry":{"type":"Point","coordinates":[18.02739,48.34739]},"properties":{"osm_type":"way","osm_id":58837849,"name":"Narodenia Panny Márie","religion":"christian","denomination":"roman_catholic","start_date":"1938","end_date":null,"start_year":1938,"end_year":null}},{"type":"Feature","geometry":{"type":"Point","coordinates":[16.9804,48.30821]},"properties":{"osm_type":"way","osm_id":438070027,"name":"Kaplnka sv. Izidora","religion":"christian","denomination":"roman_catholic","start_date":"~1945","end_date":null,"start_year":1945,"end_year":null}},{"type":"Feature","geometry":{"type":"Point","coordinates":[19.44204,49.26583]},"properties":{"osm_type":"way","osm_id":166145894,"name":"Kaplnka Panny Márie Fatimskej","religion":"christian","denomination":null,"start_date":"1946","end_date":null,"start_year":1946,"end_year":null}},{"type":"Feature","geometry":{"type":"Point","coordinates":[18.77826,49.39091]},"properties":{"osm_type":"way","osm_id":813808298,"name":"Ružencovej Panny Márie","religion":"christian","denomination":"catholic","start_date":"1946","end_date":null,"start_year":1946,"end_year":null}},{"type":"Feature","geometry":{"type":"Point","coordinates":[18.1216,47.92757]},"properties":{"osm_type":"way","osm_id":787643818,"name":null,"religion":"christian","denomination":null,"start_date":"1946","end_date":null,"start_year":1946,"end_year":null}},{"type":"Feature","geometry":{"type":"Point","coordinates":[18.92566,49.42501]},"properties":{"osm_type":"way","osm_id":178944615,"name":"Kaplnka Nepoškvrneného počatia Panny Márie","religion":"christian","denomination":"roman_catholic","start_date":"1948","end_date":null,"start_year":1948,"end_year":null}},{"type":"Feature","geometry":{"type":"Point","coordinates":[17.26681,48.28872]},"properties":{"osm_type":"node","osm_id":10199479204,"name":"Lurdská jaskyňa","religion":"christian","denomination":"roman_catholic","start_date":"1948","end_date":null,"start_year":1948,"end_year":null}},{"type":"Feature","geometry":{"type":"Point","coordinates":[18.07396,48.97643]},"properties":{"osm_type":"node","osm_id":11418090087,"name":"Kaplnka Fatimskej Panny Márie","religion":"christian","denomination":"roman_catholic","start_date":"1949","end_date":null,"start_year":1949,"end_year":null}},{"type":"Feature","geometry":{"type":"Point","coordinates":[18.37944,48.62276]},"properties":{"osm_type":"way","osm_id":51970207,"name":"Kostol Božského Srdca Ježišovho","religion":"christian","denomination":"roman_catholic","start_date":"1949","end_date":null,"start_year":1949,"end_year":null}},{"type":"Feature","geometry":{"type":"Point","coordinates":[19.53756,49.22719]},"properties":{"osm_type":"node","osm_id":10970488970,"name":"Sväté misie","religion":"christian","denomination":"roman_catholic","start_date":"1949","end_date":null,"start_year":1949,"end_year":null}},{"type":"Feature","geometry":{"type":"Point","coordinates":[18.81926,49.40181]},"properties":{"osm_type":"way","osm_id":390910343,"name":"Kaplnka Sedembolestnej Panny Márie","religion":"christian","denomination":"roman_catholic","start_date":"1950","end_date":null,"start_year":1950,"end_year":null}},{"type":"Feature","geometry":{"type":"Point","coordinates":[18.43648,49.2398]},"properties":{"osm_type":"node","osm_id":1371387921,"name":"Kaplnka Panny Márie","religion":"christian","denomination":"catholic","start_date":"1956","end_date":null,"start_year":1956,"end_year":null}},{"type":"Feature","geometry":{"type":"Point","coordinates":[22.02848,48.80902]},"properties":{"osm_type":"node","osm_id":10816773778,"name":null,"religion":"christian","denomination":null,"start_date":"1956","end_date":null,"start_year":1956,"end_year":null}},{"type":"Feature","geometry":{"type":"Point","coordinates":[17.81454,48.58795]},"properties":{"osm_type":"node","osm_id":11338939514,"name":null,"religion":"christian","denomination":"roman_catholic","start_date":"1958","end_date":null,"start_year":1958,"end_year":null}},{"type":"Feature","geometry":{"type":"Point","coordinates":[21.81487,48.42403]},"properties":{"osm_type":"way","osm_id":73633236,"name":null,"religion":"christian","denomination":"roman_catholic","start_date":"1968","end_date":null,"start_year":1968,"end_year":null}},{"type":"Feature","geometry":{"type":"Point","coordinates":[21.61823,48.51265]},"properties":{"osm_type":"way","osm_id":151377520,"name":null,"religion":"christian","denomination":"reformed","start_date":"1969","end_date":null,"start_year":1969,"end_year":null}},{"type":"Feature","geometry":{"type":"Point","coordinates":[17.57654,48.16465]},"properties":{"osm_type":"node","osm_id":12875864429,"name":null,"religion":"christian","denomination":null,"start_date":"1970","end_date":null,"start_year":1970,"end_year":null}},{"type":"Feature","geometry":{"type":"Point","coordinates":[21.94007,48.47442]},"properties":{"osm_type":"way","osm_id":71537481,"name":null,"religion":"christian","denomination":"reformed","start_date":"1971","end_date":null,"start_year":1971,"end_year":null}},{"type":"Feature","geometry":{"type":"Point","coordinates":[18.77732,49.32167]},"properties":{"osm_type":"node","osm_id":1750799849,"name":"XII.","religion":"christian","denomination":null,"start_date":"1972","end_date":null,"start_year":1972,"end_year":null}},{"type":"Feature","geometry":{"type":"Point","coordinates":[17.92514,48.52523]},"properties":{"osm_type":"way","osm_id":259330513,"name":"Kostol Narodenia Panny Márie","religion":"christian","denomination":"roman_catholic","start_date":"1974","end_date":null,"start_year":1974,"end_year":null}},{"type":"Feature","geometry":{"type":"Point","coordinates":[17.44644,48.09379]},"properties":{"osm_type":"way","osm_id":73803766,"name":null,"religion":"christian","denomination":null,"start_date":"1978","end_date":null,"start_year":1978,"end_year":null}},{"type":"Feature","geometry":{"type":"Point","coordinates":[18.85934,49.40537]},"properties":{"osm_type":"way","osm_id":962009395,"name":null,"religion":"christian","denomination":"roman_catholic","start_date":"1978","end_date":null,"start_year":1978,"end_year":null}},{"type":"Feature","geometry":{"type":"Point","coordinates":[17.68266,48.78285]},"properties":{"osm_type":"way","osm_id":964920270,"name":"Zborový dom Cirkvi bratskej","religion":"christian","denomination":"brethren","start_date":"1983","end_date":null,"start_year":1983,"end_year":null}},{"type":"Feature","geometry":{"type":"Point","coordinates":[18.06851,47.86774]},"properties":{"osm_type":"node","osm_id":11971396632,"name":null,"religion":"christian","denomination":"roman_catholic","start_date":"1983","end_date":null,"start_year":1983,"end_year":null}},{"type":"Feature","geometry":{"type":"Point","coordinates":[17.19304,48.14266]},"properties":{"osm_type":"node","osm_id":8593058691,"name":null,"religion":"christian","denomination":null,"start_date":"1990","end_date":null,"start_year":1990,"end_year":null}},{"type":"Feature","geometry":{"type":"Point","coordinates":[17.53707,48.01675]},"properties":{"osm_type":"way","osm_id":69994228,"name":"Kostol Ružencovej Panny Márie","religion":"christian","denomination":"roman_catholic","start_date":"1992","end_date":null,"start_year":1992,"end_year":null}},{"type":"Feature","geometry":{"type":"Point","coordinates":[17.60694,48.57895]},"properties":{"osm_type":"node","osm_id":11034763946,"name":"Lurdská jaskyňa","religion":"christian","denomination":"roman_catholic","start_date":"1993","end_date":null,"start_year":1993,"end_year":null}},{"type":"Feature","geometry":{"type":"Point","coordinates":[21.88413,48.45757]},"properties":{"osm_type":"way","osm_id":789155480,"name":"Reformovaný kostol","religion":"christian","denomination":"reformed","start_date":"1993","end_date":null,"start_year":1993,"end_year":null}},{"type":"Feature","geometry":{"type":"Point","coordinates":[19.48651,48.58623]},"properties":{"osm_type":"way","osm_id":787485981,"name":"Kostol Panny Márie Fatimskej","religion":"christian","denomination":"roman_catholic","start_date":"1994","end_date":null,"start_year":1994,"end_year":null}},{"type":"Feature","geometry":{"type":"Point","coordinates":[17.10529,48.10417]},"properties":{"osm_type":"way","osm_id":31018450,"name":"Kostol svätej Trojice","religion":"christian","denomination":"lutheran","start_date":"1994","end_date":null,"start_year":1994,"end_year":null}},{"type":"Feature","geometry":{"type":"Point","coordinates":[17.69085,47.91663]},"properties":{"osm_type":"way","osm_id":682841389,"name":"Reformovaný kostol","religion":"christian","denomination":"reformed","start_date":"1995","end_date":null,"start_year":1995,"end_year":null}},{"type":"Feature","geometry":{"type":"Point","coordinates":[21.80903,48.40137]},"properties":{"osm_type":"way","osm_id":73636128,"name":"Kostol mučeníckej smrti sv. Jána Krstiteľa","religion":"christian","denomination":"roman_catholic","start_date":"1996","end_date":null,"start_year":1996,"end_year":null}},{"type":"Feature","geometry":{"type":"Point","coordinates":[18.91216,49.22596]},"properties":{"osm_type":"way","osm_id":73663552,"name":"Kostol sv. Gorazda","religion":"christian","denomination":"roman_catholic","start_date":"1996","end_date":null,"start_year":1996,"end_year":null}},{"type":"Feature","geometry":{"type":"Point","coordinates":[20.79284,49.20798]},"properties":{"osm_type":"way","osm_id":61636907,"name":"Chrám sv. proroka Eliáša","religion":"christian","denomination":"orthodox","start_date":"1997","end_date":null,"start_year":1997,"end_year":null}},{"type":"Feature","geometry":{"type":"Point","coordinates":[22.08673,48.4167]},"properties":{"osm_type":"way","osm_id":61612567,"name":"Reformovaný kostol","religion":"christian","denomination":"reformed","start_date":"1997","end_date":null,"start_year":1997,"end_year":null}},{"type":"Feature","geometry":{"type":"Point","coordinates":[18.67936,49.12789]},"properties":{"osm_type":"way","osm_id":297392249,"name":"Božského Srdca Ježišovho","religion":"christian","denomination":"roman_catholic","start_date":"1998","end_date":null,"start_year":1998,"end_year":null}},{"type":"Feature","geometry":{"type":"Point","coordinates":[21.70312,48.39586]},"properties":{"osm_type":"way","osm_id":50494781,"name":"Chrám proroka Eliáša","religion":"christian","denomination":"greek_catholic","start_date":"1998","end_date":null,"start_year":1998,"end_year":null}},{"type":"Feature","geometry":{"type":"Point","coordinates":[16.97429,48.20726]},"properties":{"osm_type":"way","osm_id":1186297071,"name":"Kaplnka s Pietou","religion":"christian","denomination":"roman_catholic","start_date":"1998","end_date":null,"start_year":1998,"end_year":null}},{"type":"Feature","geometry":{"type":"Point","coordinates":[17.13483,48.15529]},"properties":{"osm_type":"way","osm_id":75801329,"name":"Kostol Panny Márie Pomocnice kresťanov","religion":"christian","denomination":"roman_catholic","start_date":"1998","end_date":null,"start_year":1998,"end_year":null}},{"type":"Feature","geometry":{"type":"Point","coordinates":[21.54622,49.37496]},"properties":{"osm_type":"way","osm_id":1218858549,"name":"Chrám sv. Michala archanjela","religion":"christian","denomination":"orthodox","start_date":"1999","end_date":null,"start_year":1999,"end_year":null}},{"type":"Feature","geometry":{"type":"Point","coordinates":[17.16481,48.15265]},"properties":{"osm_type":"way","osm_id":144869922,"name":"Kostol sv. Vincenta de Paul","religion":"christian","denomination":"roman_catholic","start_date":"2000","end_date":null,"start_year":2000,"end_year":null}},{"type":"Feature","geometry":{"type":"Point","coordinates":[17.05194,48.15946]},"properties":{"osm_type":"way","osm_id":25298070,"name":"Kostol svätého Františka z Assisi","religion":"christian","denomination":"roman_catholic","start_date":"2002-03-09","end_date":null,"start_year":2002,"end_year":null}},{"type":"Feature","geometry":{"type":"Point","coordinates":[19.601,48.84224]},"properties":{"osm_type":"way","osm_id":977346315,"name":"Lurdská jaskyňa","religion":null,"denomination":null,"start_date":"2002","end_date":null,"start_year":2002,"end_year":null}},{"type":"Feature","geometry":{"type":"Point","coordinates":[17.43791,48.46635]},"properties":{"osm_type":"node","osm_id":10763772705,"name":"Misijný kríž","religion":"christian","denomination":"roman_catholic","start_date":"2002","end_date":null,"start_year":2002,"end_year":null}},{"type":"Feature","geometry":{"type":"Point","coordinates":[18.87287,49.40625]},"properties":{"osm_type":"way","osm_id":796891293,"name":"Kaplnka Panny Márie","religion":"christian","denomination":null,"start_date":"2003","end_date":null,"start_year":2003,"end_year":null}},{"type":"Feature","geometry":{"type":"Point","coordinates":[18.87665,49.39262]},"properties":{"osm_type":"way","osm_id":962332963,"name":"Kaplnka Panny Márie","religion":"christian","denomination":"roman_catholic","start_date":"2003","end_date":null,"start_year":2003,"end_year":null}},{"type":"Feature","geometry":{"type":"Point","coordinates":[21.83696,48.43604]},"properties":{"osm_type":"way","osm_id":73809156,"name":"Reformovaný kostol","religion":"christian","denomination":"reformed","start_date":"2003","end_date":null,"start_year":2003,"end_year":null}},{"type":"Feature","geometry":{"type":"Point","coordinates":[17.08521,48.1926]},"properties":{"osm_type":"node","osm_id":3547556735,"name":"Kaplnka pokoja","religion":"christian","denomination":"roman_catholic","start_date":"2004","end_date":null,"start_year":2004,"end_year":null}},{"type":"Feature","geometry":{"type":"Point","coordinates":[17.10724,48.11267]},"properties":{"osm_type":"way","osm_id":27789019,"name":"Kostol Svätej rodiny","religion":"christian","denomination":"roman_catholic","start_date":"2005","end_date":null,"start_year":2005,"end_year":null}},{"type":"Feature","geometry":{"type":"Point","coordinates":[17.08553,48.26268]},"properties":{"osm_type":"node","osm_id":7756788827,"name":"Lurdská jaskyňa","religion":"christian","denomination":"roman_catholic","start_date":"2005","end_date":null,"start_year":2005,"end_year":null}},{"type":"Feature","geometry":{"type":"Point","coordinates":[18.03491,48.53653]},"properties":{"osm_type":"way","osm_id":787118577,"name":"Kostol sv. Bystríka","religion":"christian","denomination":"roman_catholic","start_date":"2006","end_date":null,"start_year":2006,"end_year":null}},{"type":"Feature","geometry":{"type":"Point","coordinates":[17.23841,48.30557]},"properties":{"osm_type":"node","osm_id":13069663833,"name":"I. / X.","religion":"christian","denomination":null,"start_date":"2008","end_date":null,"start_year":2008,"end_year":null}},{"type":"Feature","geometry":{"type":"Point","coordinates":[17.23845,48.30555]},"properties":{"osm_type":"node","osm_id":13069663834,"name":"II. / IX.","religion":"christian","denomination":null,"start_date":"2008","end_date":null,"start_year":2008,"end_year":null}},{"type":"Feature","geometry":{"type":"Point","coordinates":[17.23851,48.30551]},"properties":{"osm_type":"node","osm_id":13069663835,"name":"III. / VIII.","religion":"christian","denomination":null,"start_date":"2008","end_date":null,"start_year":2008,"end_year":null}},{"type":"Feature","geometry":{"type":"Point","coordinates":[17.23856,48.30548]},"properties":{"osm_type":"node","osm_id":13069663836,"name":"IV. / VII.","religion":"christian","denomination":null,"start_date":"2008","end_date":null,"start_year":2008,"end_year":null}},{"type":"Feature","geometry":{"type":"Point","coordinates":[17.23862,48.30545]},"properties":{"osm_type":"node","osm_id":13069663837,"name":"V. / VI.","religion":"christian","denomination":null,"start_date":"2008","end_date":null,"start_year":2008,"end_year":null}},{"type":"Feature","geometry":{"type":"Point","coordinates":[17.23837,48.3056]},"properties":{"osm_type":"node","osm_id":13069663832,"name":"XI.","religion":"christian","denomination":null,"start_date":"2008","end_date":null,"start_year":2008,"end_year":null}},{"type":"Feature","geometry":{"type":"Point","coordinates":[17.69609,48.03323]},"properties":{"osm_type":"way","osm_id":1199951130,"name":"Kaplnka svätého Štefana","religion":"christian","denomination":null,"start_date":"2009-10-11","end_date":null,"start_year":2009,"end_year":null}},{"type":"Feature","geometry":{"type":"Point","coordinates":[18.83609,49.38106]},"properties":{"osm_type":"way","osm_id":1099386639,"name":"Panny Márie Kráľovnej","religion":"christian","denomination":"catholic","start_date":"2009-08-22","end_date":null,"start_year":2009,"end_year":null}},{"type":"Feature","geometry":{"type":"Point","coordinates":[21.66927,48.40248]},"properties":{"osm_type":"way","osm_id":267008826,"name":"Reformovaný kostol","religion":"christian","denomination":"reformed","start_date":"2009","end_date":null,"start_year":2009,"end_year":null}},{"type":"Feature","geometry":{"type":"Point","coordinates":[18.86846,49.3987]},"properties":{"osm_type":"way","osm_id":962330984,"name":"Kaplnka Panny Márie","religion":"christian","denomination":"roman_catholic","start_date":"2012","end_date":null,"start_year":2012,"end_year":null}},{"type":"Feature","geometry":{"type":"Point","coordinates":[19.54917,48.46725]},"properties":{"osm_type":"way","osm_id":787115200,"name":"Kostol sv. Cyrila a Metoda","religion":"christian","denomination":"roman_catholic","start_date":"2012-07-05","end_date":null,"start_year":2012,"end_year":null}},{"type":"Feature","geometry":{"type":"Point","coordinates":[21.03922,48.54055]},"properties":{"osm_type":"way","osm_id":586705564,"name":"Rózsafüzér Királynője templom","religion":"christian","denomination":"roman_catholic","start_date":"2012-10-06","end_date":null,"start_year":2012,"end_year":null}},{"type":"Feature","geometry":{"type":"Point","coordinates":[17.15283,48.16436]},"properties":{"osm_type":"way","osm_id":112206527,"name":"Chrám svätého Rastislava","religion":"christian","denomination":"orthodox","start_date":"2013","end_date":null,"start_year":2013,"end_year":null}},{"type":"Feature","geometry":{"type":"Point","coordinates":[17.20626,48.25768]},"properties":{"osm_type":"node","osm_id":11046793650,"name":"Sväté misie","religion":"christian","denomination":null,"start_date":"2015","end_date":null,"start_year":2015,"end_year":null}},{"type":"Feature","geometry":{"type":"Point","coordinates":[18.86698,49.41297]},"properties":{"osm_type":"way","osm_id":962005166,"name":"Kaplnka Panny Márie","religion":"christian","denomination":"roman_catholic","start_date":"2016","end_date":null,"start_year":2016,"end_year":null}},{"type":"Feature","geometry":{"type":"Point","coordinates":[19.16575,49.3627]},"properties":{"osm_type":"way","osm_id":961675607,"name":"Kaplnka Ružencovej Panny Márie","religion":"christian","denomination":"roman_catholic","start_date":"2017","end_date":null,"start_year":2017,"end_year":null}},{"type":"Feature","geometry":{"type":"Point","coordinates":[21.90262,48.47552]},"properties":{"osm_type":"way","osm_id":1064683856,"name":"Reformovaný kostol","religion":"christian","denomination":"reformed","start_date":"2017","end_date":null,"start_year":2017,"end_year":null}},{"type":"Feature","geometry":{"type":"Point","coordinates":[18.44287,49.10701]},"properties":{"osm_type":"way","osm_id":886315331,"name":"Kostol Panny Márie Lasaletskej","religion":"christian","denomination":"roman_catholic","start_date":"2018","end_date":null,"start_year":2018,"end_year":null}},{"type":"Feature","geometry":{"type":"Point","coordinates":[17.73239,48.28866]},"properties":{"osm_type":"way","osm_id":758834833,"name":"Evanjelický A.V. kostol v Seredi","religion":"christian","denomination":"lutheran","start_date":"2019","end_date":null,"start_year":2019,"end_year":null}},{"type":"Feature","geometry":{"type":"Point","coordinates":[17.25802,48.18949]},"properties":{"osm_type":"node","osm_id":10961581671,"name":"Kalvária","religion":"christian","denomination":null,"start_date":"2019","end_date":null,"start_year":2019,"end_year":null}},{"type":"Feature","geometry":{"type":"Point","coordinates":[18.41744,49.30313]},"properties":{"osm_type":"way","osm_id":825288149,"name":"Kaplnka Lurdskej Panny Márie","religion":"christian","denomination":"roman_catholic","start_date":"2019-08-15","end_date":null,"start_year":2019,"end_year":null}},{"type":"Feature","geometry":{"type":"Point","coordinates":[20.36487,48.65806]},"properties":{"osm_type":"way","osm_id":249936050,"name":"Evanjelický a. v. kostol","religion":"christian","denomination":"lutheran","start_date":"C13","end_date":null,"start_year":null,"end_year":null}},{"type":"Feature","geometry":{"type":"Point","coordinates":[18.23558,48.99737]},"properties":{"osm_type":"way","osm_id":58500957,"name":"Kaplnka Najsvätejšej Trojice","religion":"christian","denomination":"roman_catholic","start_date":"C18","end_date":null,"start_year":null,"end_year":null}},{"type":"Feature","geometry":{"type":"Point","coordinates":[21.74034,48.39897]},"properties":{"osm_type":"way","osm_id":267008832,"name":"Kaplnka sv. Jozefa","religion":"christian","denomination":"roman_catholic","start_date":"C19","end_date":null,"start_year":null,"end_year":null}},{"type":"Feature","geometry":{"type":"Point","coordinates":[17.31337,48.3292]},"properties":{"osm_type":"way","osm_id":49900913,"name":"Kostol Narodenia sv. Jána Krstiteľa","religion":"christian","denomination":"roman_catholic","start_date":"C13..C14","end_date":null,"start_year":null,"end_year":null}},{"type":"Feature","geometry":{"type":"Point","coordinates":[20.95302,49.13489]},"properties":{"osm_type":"way","osm_id":71667416,"name":"Kostol Obetovania Pána","religion":"christian","denomination":"roman_catholic","start_date":"C14","end_date":null,"start_year":null,"end_year":null}},{"type":"Feature","geometry":{"type":"Point","coordinates":[21.75237,48.36765]},"properties":{"osm_type":"way","osm_id":135562496,"name":"Kostol Panny Márie Karmelskej","religion":"christian","denomination":"roman_catholic","start_date":"C14","end_date":null,"start_year":null,"end_year":null}},{"type":"Feature","geometry":{"type":"Point","coordinates":[20.52472,48.55504]},"properties":{"osm_type":"way","osm_id":397695219,"name":"Kostol Reformovanej kresťanskej cirkvi","religion":"christian","denomination":"reformed","start_date":"late C13","end_date":null,"start_year":null,"end_year":null}},{"type":"Feature","geometry":{"type":"Point","coordinates":[17.43382,48.1864]},"properties":{"osm_type":"way","osm_id":230357468,"name":"Kostol Ružencovej Panny Márie","religion":"christian","denomination":"roman_catholic","start_date":"early C12..mid C12","end_date":null,"start_year":null,"end_year":null}},{"type":"Feature","geometry":{"type":"Point","coordinates":[17.58737,48.37401]},"properties":{"osm_type":"way","osm_id":164482157,"name":"Kostol sv. Heleny","religion":"christian","denomination":"greek_catholic;roman_catholic","start_date":"mid C14","end_date":null,"start_year":null,"end_year":null}},{"type":"Feature","geometry":{"type":"Point","coordinates":[18.81225,48.11184]},"properties":{"osm_type":"way","osm_id":267301209,"name":"Kostol sv. Heleny","religion":"christian","denomination":"roman_catholic","start_date":"early C13..mid C13","end_date":null,"start_year":null,"end_year":null}},{"type":"Feature","geometry":{"type":"Point","coordinates":[21.19381,49.03951]},"properties":{"osm_type":"way","osm_id":61521021,"name":"Kostol sv. Jakuba","religion":"christian","denomination":"roman_catholic","start_date":"mid C13","end_date":null,"start_year":null,"end_year":null}},{"type":"Feature","geometry":{"type":"Point","coordinates":[17.10875,48.79621]},"properties":{"osm_type":"way","osm_id":232424954,"name":"Kostol sv. Margity Antiochijskej","religion":"christian","denomination":"roman_catholic","start_date":"~C10","end_date":null,"start_year":null,"end_year":null}},{"type":"Feature","geometry":{"type":"Point","coordinates":[17.2147,48.72865]},"properties":{"osm_type":"way","osm_id":54277480,"name":"Kostol sv. Martina","religion":"christian","denomination":"roman_catholic","start_date":"C14","end_date":null,"start_year":null,"end_year":null}},{"type":"Feature","geometry":{"type":"Point","coordinates":[18.94628,48.951]},"properties":{"osm_type":"way","osm_id":953806063,"name":"Kostol sv. Ondreja","religion":"christian","denomination":"roman_catholic","start_date":"C14","end_date":null,"start_year":null,"end_year":null}},{"type":"Feature","geometry":{"type":"Point","coordinates":[17.21477,48.2913]},"properties":{"osm_type":"way","osm_id":311874184,"name":"Kostol sv. Teobalda","religion":"christian","denomination":"roman_catholic","start_date":"late C14","end_date":null,"start_year":null,"end_year":null}},{"type":"Feature","geometry":{"type":"Point","coordinates":[17.25002,48.0352]},"properties":{"osm_type":"way","osm_id":51192221,"name":"Kostol Svätého kríža","religion":"christian","denomination":"roman_catholic","start_date":"early C13","end_date":null,"start_year":null,"end_year":null}},{"type":"Feature","geometry":{"type":"Point","coordinates":[20.43326,48.71149]},"properties":{"osm_type":"way","osm_id":71686673,"name":"Kostol Všetkých svätých","religion":"christian","denomination":"roman_catholic","start_date":"mid C13..late C13","end_date":null,"start_year":null,"end_year":null}},{"type":"Feature","geometry":{"type":"Point","coordinates":[20.46778,48.58675]},"properties":{"osm_type":"way","osm_id":73598317,"name":"Reformed church in Slavec","religion":"christian","denomination":"reformed","start_date":"C15","end_date":null,"start_year":null,"end_year":null}},{"type":"Feature","geometry":{"type":"Point","coordinates":[21.70736,48.39047]},"properties":{"osm_type":"way","osm_id":50494576,"name":"Reformovaný kostol","religion":"christian","denomination":"reformed","start_date":"C13","end_date":null,"start_year":null,"end_year":null}},{"type":"Feature","geometry":{"type":"Point","coordinates":[21.73104,48.42127]},"properties":{"osm_type":"way","osm_id":50497010,"name":"Reformovaný kostol","religion":"christian","denomination":"reformed","start_date":"C13","end_date":null,"start_year":null,"end_year":null}},{"type":"Feature","geometry":{"type":"Point","coordinates":[20.95096,48.57974]},"properties":{"osm_type":"way","osm_id":73408577,"name":"Reformovaný kostol","religion":"christian","denomination":"reformed","start_date":"C13","end_date":null,"start_year":null,"end_year":null}},{"type":"Feature","geometry":{"type":"Point","coordinates":[21.92411,48.42926]},"properties":{"osm_type":"way","osm_id":73420273,"name":"Reformovaný kostol","religion":"christian","denomination":"reformed","start_date":"C13","end_date":null,"start_year":null,"end_year":null}},{"type":"Feature","geometry":{"type":"Point","coordinates":[21.68379,48.46957]},"properties":{"osm_type":"way","osm_id":149567360,"name":"Reformovaný kostol","religion":"christian","denomination":"reformed","start_date":"C13","end_date":null,"start_year":null,"end_year":null}},{"type":"Feature","geometry":{"type":"Point","coordinates":[21.81393,48.44097]},"properties":{"osm_type":"way","osm_id":151377524,"name":"Reformovaný kostol","religion":"christian","denomination":"reformed","start_date":"C13","end_date":null,"start_year":null,"end_year":null}}]}
