{"type":"FeatureCollection","attribution":"© OpenStreetMap contributors, ODbL 1.0","features":[{"type":"Feature","geometry":{"type":"Point","coordinates":[150.92348,-33.92066]},"properties":{"osm_type":"way","osm_id":982363331,"name":"St Lukes","religion":"christian","denomination":null,"start_date":"1818","end_date":null,"start_year":1818,"end_year":null}},{"type":"Feature","geometry":{"type":"Point","coordinates":[150.65559,-33.82969]},"properties":{"osm_type":"way","osm_id":627698667,"name":"St Thomas' Church","religion":"christian","denomination":"anglican","start_date":"1831","end_date":null,"start_year":1831,"end_year":null}},{"type":"Feature","geometry":{"type":"Point","coordinates":[147.2008,-42.5284]},"properties":{"osm_type":"way","osm_id":435781421,"name":"St Marys","religion":"christian","denomination":"anglican","start_date":"1839","end_date":null,"start_year":1839,"end_year":null}},{"type":"Feature","geometry":{"type":"Point","coordinates":[150.91682,-33.8041]},"properties":{"osm_type":"way","osm_id":589351070,"name":"St Bartholomew's Church","religion":"christian","denomination":null,"start_date":"1841","end_date":null,"start_year":1841,"end_year":null}},{"type":"Feature","geometry":{"type":"Point","coordinates":[150.68812,-34.01595]},"properties":{"osm_type":"way","osm_id":1333651241,"name":"St Paul's Anglican Church, Cobbity","religion":"christian","denomination":"anglican","start_date":"1842","end_date":null,"start_year":1842,"end_year":null}},{"type":"Feature","geometry":{"type":"Point","coordinates":[151.55912,-32.73377]},"properties":{"osm_type":"way","osm_id":408668431,"name":"St John the Baptist","religion":"christian","denomination":"catholic","start_date":"1846","end_date":null,"start_year":1846,"end_year":null}},{"type":"Feature","geometry":{"type":"Point","coordinates":[151.14051,-32.93756]},"properties":{"osm_type":"way","osm_id":621349763,"name":"St. John's Wollombi","religion":"christian","denomination":"anglican","start_date":"1849","end_date":null,"start_year":1849,"end_year":null}},{"type":"Feature","geometry":{"type":"Point","coordinates":[138.60521,-34.92164]},"properties":{"osm_type":"way","osm_id":256787700,"name":"Scots Church","religion":"christian","denomination":"uniting_church","start_date":"1851-07-06","end_date":null,"start_year":1851,"end_year":null}},{"type":"Feature","geometry":{"type":"Point","coordinates":[152.75809,-27.61429]},"properties":{"osm_type":"way","osm_id":890937240,"name":"St. Paul's Church","religion":"christian","denomination":"anglican","start_date":"1855","end_date":null,"start_year":1855,"end_year":null}},{"type":"Feature","geometry":{"type":"Point","coordinates":[151.55234,-32.73458]},"properties":{"osm_type":"way","osm_id":1272641549,"name":"Saint Mary's","religion":"anglican","denomination":"anglican","start_date":"1860","end_date":null,"start_year":1860,"end_year":null}},{"type":"Feature","geometry":{"type":"Point","coordinates":[116.21582,-30.9703]},"properties":{"osm_type":"way","osm_id":481561060,"name":"Abby Church","religion":"christian","denomination":"catholic","start_date":"1861","end_date":null,"start_year":1861,"end_year":null}},{"type":"Feature","geometry":{"type":"Point","coordinates":[148.72464,-34.43996]},"properties":{"osm_type":"way","osm_id":743736131,"name":"St John the Baptist Anglican Church","religion":"christian","denomination":"anglican","start_date":"1862","end_date":null,"start_year":1862,"end_year":null}},{"type":"Feature","geometry":{"type":"Point","coordinates":[146.45915,-36.0565]},"properties":{"osm_type":"node","osm_id":3142855945,"name":"St Stephen's Church","religion":"christian","denomination":null,"start_date":"1865","end_date":null,"start_year":1865,"end_year":null}},{"type":"Feature","geometry":{"type":"Point","coordinates":[149.42813,-34.91427]},"properties":{"osm_type":"way","osm_id":616485102,"name":"Uniting Church","religion":"christian","denomination":"uniting","start_date":"1865","end_date":null,"start_year":1865,"end_year":null}},{"type":"Feature","geometry":{"type":"Point","coordinates":[150.69168,-33.88283]},"properties":{"osm_type":"way","osm_id":422898958,"name":"St James Anglican Church","religion":"christian","denomination":"anglican","start_date":"1871","end_date":null,"start_year":1871,"end_year":null}},{"type":"Feature","geometry":{"type":"Point","coordinates":[151.15015,-33.91562]},"properties":{"osm_type":"way","osm_id":595526197,"name":"Hepisipa Uniting Church","religion":"christian","denomination":"uniting","start_date":"1883-09-29","end_date":null,"start_year":1883,"end_year":null}},{"type":"Feature","geometry":{"type":"Point","coordinates":[146.38756,-35.99881]},"properties":{"osm_type":"way","osm_id":439837943,"name":"St John's Anglican Church","religion":"christian","denomination":"anglican","start_date":"1883","end_date":null,"start_year":1883,"end_year":null}},{"type":"Feature","geometry":{"type":"Point","coordinates":[150.86213,-32.05034]},"properties":{"osm_type":"way","osm_id":1280451438,"name":"St Lukes","religion":"christian","denomination":"anglican","start_date":"1884","end_date":null,"start_year":1884,"end_year":null}},{"type":"Feature","geometry":{"type":"Point","coordinates":[147.49126,-42.03228]},"properties":{"osm_type":"way","osm_id":325851091,"name":"Ross Uniting Church","religion":"christian","denomination":"uniting","start_date":"1885","end_date":null,"start_year":1885,"end_year":null}},{"type":"Feature","geometry":{"type":"Point","coordinates":[151.98888,-28.0364]},"properties":{"osm_type":"way","osm_id":371688791,"name":"St. David's","religion":"christian","denomination":"anglican","start_date":"1888","end_date":null,"start_year":1888,"end_year":null}},{"type":"Feature","geometry":{"type":"Point","coordinates":[152.76229,-27.60398]},"properties":{"osm_type":"way","osm_id":890919200,"name":"St. Thomas' Chapel","religion":"christian","denomination":"anglican","start_date":"1889","end_date":null,"start_year":1889,"end_year":null}},{"type":"Feature","geometry":{"type":"Point","coordinates":[146.7163,-42.6192]},"properties":{"osm_type":"way","osm_id":348538635,"name":"St Colman's Catholic Church 1890-1990","religion":"christian","denomination":"roman_catholic","start_date":"1890","end_date":null,"start_year":1890,"end_year":null}},{"type":"Feature","geometry":{"type":"Point","coordinates":[117.88395,-35.0248]},"properties":{"osm_type":"way","osm_id":316657066,"name":"Scots Church","religion":"christian","denomination":"uniting","start_date":"1892","end_date":null,"start_year":1892,"end_year":null}},{"type":"Feature","geometry":{"type":"Point","coordinates":[115.8256,-31.94906]},"properties":{"osm_type":"way","osm_id":760904763,"name":"St Andrew's Anglican Church","religion":"christian","denomination":"anglican","start_date":"1906","end_date":null,"start_year":1906,"end_year":null}},{"type":"Feature","geometry":{"type":"Point","coordinates":[145.58221,-17.26865]},"properties":{"osm_type":"way","osm_id":401119942,"name":"St Mark's Anglican Church","religion":"christian","denomination":"anglican","start_date":"1911","end_date":null,"start_year":1911,"end_year":null}},{"type":"Feature","geometry":{"type":"Point","coordinates":[145.58063,-17.26863]},"properties":{"osm_type":"way","osm_id":400567326,"name":"St Patrick's Catholic Church","religion":"christian","denomination":"catholic","start_date":"1913","end_date":null,"start_year":1913,"end_year":null}},{"type":"Feature","geometry":{"type":"Point","coordinates":[146.38828,-35.99797]},"properties":{"osm_type":"way","osm_id":439820699,"name":"St Mary's Catholic Church","religion":"christian","denomination":"roman_catholic","start_date":"1921","end_date":null,"start_year":1921,"end_year":null}},{"type":"Feature","geometry":{"type":"Point","coordinates":[153.05521,-27.57566]},"properties":{"osm_type":"way","osm_id":1338257399,"name":"Sunnybank Church of Christ","religion":"christian","denomination":"nondenominational","start_date":"1922","end_date":null,"start_year":1922,"end_year":null}},{"type":"Feature","geometry":{"type":"Point","coordinates":[148.73879,-33.28852]},"properties":{"osm_type":"way","osm_id":680784694,"name":"Cudal Uniting Church","religion":"christian","denomination":"uniting","start_date":"1923","end_date":null,"start_year":1923,"end_year":null}},{"type":"Feature","geometry":{"type":"Point","coordinates":[152.9365,-29.68783]},"properties":{"osm_type":"way","osm_id":806293469,"name":"Grafton Uniting Church","religion":"christian","denomination":"uniting","start_date":"1925","end_date":null,"start_year":1925,"end_year":null}},{"type":"Feature","geometry":{"type":"Point","coordinates":[152.98021,-27.45834]},"properties":{"osm_type":"way","osm_id":807743967,"name":"St Mary Magdalene's Catholic Church","religion":"christian","denomination":"catholic","start_date":"1926","end_date":null,"start_year":1926,"end_year":null}},{"type":"Feature","geometry":{"type":"Point","coordinates":[146.02981,-17.52204]},"properties":{"osm_type":"way","osm_id":576359681,"name":"Mother of Good Counsel Catholic Church","religion":"christian","denomination":"catholic","start_date":"1928","end_date":null,"start_year":1928,"end_year":null}},{"type":"Feature","geometry":{"type":"Point","coordinates":[146.03008,-17.52042]},"properties":{"osm_type":"way","osm_id":416543000,"name":"St Alban's Anglican Church","religion":"christian","denomination":"anglican","start_date":"1928","end_date":null,"start_year":1928,"end_year":null}},{"type":"Feature","geometry":{"type":"Point","coordinates":[151.19574,-27.53133]},"properties":{"osm_type":"way","osm_id":584875458,"name":"Our Lady of Lourdes","religion":"christian","denomination":"catholic","start_date":"1930-12-21","end_date":null,"start_year":1930,"end_year":null}},{"type":"Feature","geometry":{"type":"Point","coordinates":[115.82151,-31.97339]},"properties":{"osm_type":"way","osm_id":540004834,"name":"St George's College Chapel","religion":"christian","denomination":"anglican","start_date":"1931","end_date":null,"start_year":1931,"end_year":null}},{"type":"Feature","geometry":{"type":"Point","coordinates":[146.38955,-35.99665]},"properties":{"osm_type":"way","osm_id":439837942,"name":"St Andrews","religion":"christian","denomination":"presbyterian","start_date":"1934","end_date":null,"start_year":1934,"end_year":null}},{"type":"Feature","geometry":{"type":"Point","coordinates":[151.19246,-27.53097]},"properties":{"osm_type":"way","osm_id":584875456,"name":"Cecil Plains Presbyterian Church","religion":"christian","denomination":"presbyterian","start_date":"1938","end_date":null,"start_year":1938,"end_year":null}},{"type":"Feature","geometry":{"type":"Point","coordinates":[153.02871,-27.38309]},"properties":{"osm_type":"way","osm_id":1183826361,"name":"The Sanctuary","religion":"christian","denomination":"uniting","start_date":"1940-03-05","end_date":null,"start_year":1940,"end_year":null}},{"type":"Feature","geometry":{"type":"Point","coordinates":[153.06617,-27.45084]},"properties":{"osm_type":"way","osm_id":1137204055,"name":"Brethren's Meeting Room","religion":"christian","denomination":"brethren","start_date":"1942","end_date":null,"start_year":1942,"end_year":null}},{"type":"Feature","geometry":{"type":"Point","coordinates":[115.89172,-33.07991]},"properties":{"osm_type":"node","osm_id":4662863934,"name":"Harvey Methodist Church","religion":"christian","denomination":null,"start_date":"1954","end_date":null,"start_year":1954,"end_year":null}},{"type":"Feature","geometry":{"type":"Point","coordinates":[113.53425,-25.92648]},"properties":{"osm_type":"way","osm_id":718192425,"name":"Saint Andrew by the Sea","religion":"christian","denomination":"anglican","start_date":"1954","end_date":null,"start_year":1954,"end_year":null}},{"type":"Feature","geometry":{"type":"Point","coordinates":[153.00452,-28.6227]},"properties":{"osm_type":"way","osm_id":995217966,"name":"Our Lady of Sorrows","religion":"christian","denomination":"catholic","start_date":"1956","end_date":null,"start_year":1956,"end_year":null}},{"type":"Feature","geometry":{"type":"Point","coordinates":[146.38967,-35.9978]},"properties":{"osm_type":"way","osm_id":439820692,"name":"Uniting Church","religion":"christian","denomination":"united","start_date":"1967","end_date":null,"start_year":1967,"end_year":null}},{"type":"Feature","geometry":{"type":"Point","coordinates":[145.0318,-37.94632]},"properties":{"osm_type":"way","osm_id":800603023,"name":"St Agnes' Catholic Church","religion":"christian","denomination":"catholic","start_date":"1969","end_date":null,"start_year":1969,"end_year":null}},{"type":"Feature","geometry":{"type":"Point","coordinates":[151.32712,-33.63609]},"properties":{"osm_type":"node","osm_id":7066254317,"name":"Avalon Beach Village Church","religion":"christian","denomination":"united","start_date":"1975","end_date":null,"start_year":1975,"end_year":null}},{"type":"Feature","geometry":{"type":"Point","coordinates":[145.23703,-38.44994]},"properties":{"osm_type":"way","osm_id":909263634,"name":"St Johns Uniting Church","religion":"christian","denomination":"uniting","start_date":"1975","end_date":null,"start_year":1975,"end_year":null}},{"type":"Feature","geometry":{"type":"Point","coordinates":[144.34104,-38.20567]},"properties":{"osm_type":"way","osm_id":266652378,"name":null,"religion":"christian","denomination":"united","start_date":"1984","end_date":null,"start_year":1984,"end_year":null}},{"type":"Feature","geometry":{"type":"Point","coordinates":[151.22401,-33.90872]},"properties":{"osm_type":"way","osm_id":409347595,"name":"St George Coptic Orthodox Church","religion":"christian","denomination":"coptic_orthodox","start_date":"1989","end_date":null,"start_year":1989,"end_year":null}},{"type":"Feature","geometry":{"type":"Point","coordinates":[153.26201,-27.79594]},"properties":{"osm_type":"way","osm_id":512987299,"name":"Highway Church","religion":"christian","denomination":null,"start_date":"1995","end_date":null,"start_year":1995,"end_year":null}},{"type":"Feature","geometry":{"type":"Point","coordinates":[153.11929,-27.63513]},"properties":{"osm_type":"node","osm_id":10901090089,"name":"Logan Community Church of The Nazarene","religion":"christian","denomination":"nondenominational","start_date":"1997","end_date":null,"start_year":1997,"end_year":null}},{"type":"Feature","geometry":{"type":"Point","coordinates":[152.86048,-26.3581]},"properties":{"osm_type":"way","osm_id":1346009104,"name":"The Windmill Of Tolerance","religion":"jewish","denomination":"orthodox","start_date":"1997","end_date":null,"start_year":1997,"end_year":null}},{"type":"Feature","geometry":{"type":"Point","coordinates":[115.63705,-33.32896]},"properties":{"osm_type":"way","osm_id":1060230744,"name":"St Patrick’s Cathedral","religion":"christian","denomination":"roman_catholic","start_date":"2011","end_date":null,"start_year":2011,"end_year":null}},{"type":"Feature","geometry":{"type":"Point","coordinates":[153.43262,-28.10107]},"properties":{"osm_type":"way","osm_id":572285809,"name":"Mary, Mother of Mercy Church","religion":"christian","denomination":"catholic","start_date":"2017-03-10","end_date":null,"start_year":2017,"end_year":null}},{"type":"Feature","geometry":{"type":"Point","coordinates":[116.01207,-31.87432]},"properties":{"osm_type":"way","osm_id":158582962,"name":"Destiny Christian Centre","religion":"christian","denomination":null,"start_date":"Dec 2018","end_date":null,"start_year":2018,"end_year":null}},{"type":"Feature","geometry":{"type":"Point","coordinates":[117.4857,-30.82646]},"properties":{"osm_type":"node","osm_id":10296837296,"name":"The Lady of Assumptions","religion":"christian","denomination":null,"start_date":null,"end_date":"2025-09-01","start_year":null,"end_year":2025}},{"type":"Feature","geometry":{"type":"Point","coordinates":[151.1815,-31.25276]},"properties":{"osm_type":"node","osm_id":2142181645,"name":null,"religion":"christian","denomination":null,"start_date":null,"end_date":"2025-09-01","start_year":null,"end_year":2025}},{"type":"Feature","geometry":{"type":"Point","coordinates":[116.02154,-29.87746]},"properties":{"osm_type":"way","osm_id":388991344,"name":null,"religion":"christian","denomination":null,"start_date":null,"end_date":"2025-09-01","start_year":null,"end_year":2025}},{"type":"Feature","geometry":{"type":"Point","coordinates":[150.57685,-30.23175]},"properties":{"osm_type":"way","osm_id":1023944754,"name":null,"religion":"christian","denomination":null,"start_date":null,"end_date":"2025-09-01","start_year":null,"end_year":2025}}]}
