{"type":"FeatureCollection", "features": [
{"type":"Feature","geometry":{"type":"Polygon","coordinates":[[[-169.84493,-18.953],[-169.84738,-18.95291],[-169.848,-18.95275],[-169.84836,-18.953],[-169.84877,-18.9531],[-169.84959,-18.95296],[-169.84998,-18.95309],[-169.85103,-18.9532],[-169.85133,-18.95336],[-169.85187,-18.95345],[-169.85232,-18.95354],[-169.85286,-18.95363],[-169.85366,-18.95399],[-169.85442,-18.9542],[-169.85465,-18.95444],[-169.8551,-18.95462],[-169.85528,-18.95471],[-169.85554,-18.95483],[-169.85632,-18.95498],[-169.85716,-18.95549],[-169.85807,-18.9556],[-169.85887,-18.95632],[-169.85932,-18.95641],[-169.85959,-18.9565],[-169.86009,-18.95667],[-169.86058,-18.95641],[-169.86108,-18.95623],[-169.86148,-18.9565],[-169.8617,-18.95661],[-169.86307,-18.95658],[-169.86337,-18.95668],[-169.86409,-18.95677],[-169.86453,-18.95723],[-169.86524,-18.95721],[-169.86552,-18.9574],[-169.86572,-18.95749],[-169.86637,-18.95727],[-169.86678,-18.95758],[-169.867,-18.95758],[-169.86741,-18.95759],[-169.86777,-18.95758],[-169.86813,-18.95786],[-169.86866,-18.95784],[-169.86892,-18.95812],[-169.86922,-18.95821],[-169.86952,-18.95821],[-169.86975,-18.95821],[-169.87002,-18.95812],[-169.87075,-18.95813],[-169.87141,-18.95857],[-169.87207,-18.95856],[-169.87244,-18.95884],[-169.87334,-18.95893],[-169.87363,-18.95903],[-169.87424,-18.95901],[-169.87503,-18.95903],[-169.87542,-18.95883],[-169.87597,-18.95884],[-169.87704,-18.95902],[-169.87752,-18.95952],[-169.87829,-18.95965],[-169.87879,-18.9599],[-169.87891,-18.96029],[-169.87918,-18.96055],[-169.87958,-18.96054],[-169.87977,-18.96055],[-169.88016,-18.96082],[-169.88044,-18.96099],[-169.88106,-18.96153],[-169.88162,-18.962],[-169.88199,-18.96217],[-169.88275,-18.96297],[-169.88304,-18.96306],[-169.88376,-18.96369],[-169.88389,-18.96373],[-169.88398,-18.96373],[-169.88398,-18.96382],[-169.88407,-18.96382],[-169.88407,-18.96391],[-169.88416,-18.96391],[-169.88416,-18.964],[-169.88452,-18.96463],[-169.88461,-18.96463],[-169.88461,-18.96472],[-169.88466,-18.96485],[-169.88475,-18.96524],[-169.88498,-18.96543],[-169.88531,-18.96582],[-169.8856,-18.96595],[-169.8861,-18.96653],[-169.88637,-18.96665],[-169.88654,-18.96675],[-169.887,-18.96683],[-169.88726,-18.96693],[-169.88775,-18.96679],[-169.88789,-18.96692],[-169.88816,-18.96735],[-169.88883,-18.96765],[-169.8892,-18.96824],[-169.88997,-18.96868],[-169.89054,-18.96917],[-169.89082,-18.96962],[-169.89171,-18.97026],[-169.892,-18.97061],[-169.89249,-18.97075],[-169.89265,-18.97105],[-169.89275,-18.9718],[-169.89333,-18.97221],[-169.89432,-18.97234],[-169.89445,-18.97258],[-169.89455,-18.97292],[-169.89508,-18.97337],[-169.8952,-18.97378],[-169.89566,-18.97399],[-169.89587,-18.97491],[-169.89603,-18.97505],[-169.89616,-18.97527],[-169.89625,-18.97632],[-169.89707,-18.97663],[-169.89719,-18.97676],[-169.89728,-18.97676],[-169.89728,-18.97685],[-169.8974,-18.97691],[-169.89746,-18.97703],[-169.89776,-18.97731],[-169.89786,-18.97753],[-169.89828,-18.97791],[-169.8986,-18.97846],[-169.89881,-18.97913],[-169.8993,-18.97977],[-169.89939,-18.98031],[-169.89957,-18.98058],[-169.8997,-18.98085],[-169.89984,-18.98112],[-169.89993,-18.9813],[-169.90002,-18.98138],[-169.90033,-18.98172],[-169.90063,-18.98236],[-169.90074,-18.98303],[-169.90136,-18.98421],[-169.90118,-18.98471],[-169.90103,-18.98568],[-169.90192,-18.9858],[-169.9019,-18.98633],[-169.90191,-18.98652],[-169.90227,-18.98669],[-169.90226,-18.98704],[-169.90235,-18.98713],[-169.90249,-18.98736],[-169.90291,-18.9877],[-169.90334,-18.9884],[-169.90385,-18.98899],[-169.90399,-18.98977],[-169.90415,-18.99036],[-169.90426,-18.99086],[-169.90464,-18.99116],[-169.90498,-18.99131],[-169.90527,-18.99185],[-169.90557,-18.99194],[-169.90567,-18.99217],[-169.90578,-18.99236],[-169.90637,-18.99254],[-169.90649,-18.99319],[-169.90685,-18.99351],[-169.90704,-18.99414],[-169.90784,-18.99423],[-169.90797,-18.99482],[-169.90881,-18.99521],[-169.90913,-18.99556],[-169.90952,-18.99574],[-169.90964,-18.99625],[-169.91003,-18.9965],[-169.91066,-18.99669],[-169.91095,-18.99745],[-169.91177,-18.9976],[-169.91214,-18.99802],[-169.9126,-18.99881],[-169.91323,-18.99917],[-169.91334,-18.9993],[-169.9135,-18.99966],[-169.91403,-19.00007],[-169.91439,-19.00047],[-169.91482,-19.00074],[-169.91493,-19.00097],[-169.91545,-19.00159],[-169.91599,-19.00207],[-169.91618,-19.0025],[-169.91629,-19.00269],[-169.91685,-19.00286],[-169.91728,-19.00345],[-169.91754,-19.00357],[-169.91805,-19.00393],[-169.91816,-19.0043],[-169.91836,-19.00458],[-169.9187,-19.00474],[-169.91933,-19.00525],[-169.92024,-19.00628],[-169.92044,-19.0067],[-169.92088,-19.0069],[-169.92104,-19.00708],[-169.92137,-19.00738],[-169.92149,-19.00793],[-169.92192,-19.0082],[-169.92216,-19.00883],[-169.92211,-19.00976],[-169.92228,-19.01038],[-169.92267,-19.01087],[-169.9229,-19.01136],[-169.92314,-19.01171],[-169.9233,-19.01185],[-169.92328,-19.01229],[-169.92345,-19.01244],[-169.92351,-19.01287],[-169.92357,-19.0129],[-169.92363,-19.01317],[-169.92351,-19.01341],[-169.92346,-19.01382],[-169.92363,-19.01397],[-169.92366,-19.01431],[-169.92356,-19.01454],[-169.92345,-19.01472],[-169.92349,-19.01513],[-169.92324,-19.01622],[-169.9231,-19.0166],[-169.92297,-19.01709],[-169.92291,-19.01721],[-169.92288,-19.01736],[-169.92288,-19.01745],[-169.92279,-19.01745],[-169.92279,-19.01763],[-169.92279,-19.01772],[-169.92275,-19.01867],[-169.92256,-19.01893],[-169.92248,-19.01939],[-169.92233,-19.01952],[-169.92207,-19.01998],[-169.92202,-19.0206],[-169.92204,-19.02087],[-169.92166,-19.02172],[-169.92182,-19.02214],[-169.92166,-19.02349],[-169.92142,-19.02405],[-169.92123,-19.02421],[-169.92112,-19.02459],[-169.92104,-19.02514],[-169.92077,-19.02585],[-169.92059,-19.02684],[-169.9205,-19.0272],[-169.92035,-19.02784],[-169.92023,-19.0281],[-169.91992,-19.02866],[-169.91968,-19.02971],[-169.91937,-19.03046],[-169.91898,-19.03197],[-169.91882,-19.0321],[-169.91865,-19.03284],[-169.91832,-19.03395],[-169.91835,-19.0344],[-169.91815,-19.03506],[-169.91798,-19.03537],[-169.91786,-19.03614],[-169.91771,-19.03627],[-169.91763,-19.03664],[-169.91753,-19.03699],[-169.91749,-19.03758],[-169.91749,-19.03767],[-169.9174,-19.03767],[-169.91743,-19.03782],[-169.91749,-19.03794],[-169.91745,-19.03836],[-169.91727,-19.03862],[-169.91722,-19.03865],[-169.91737,-19.03948],[-169.91724,-19.04079],[-169.91736,-19.04121],[-169.9174,-19.04144],[-169.91734,-19.04156],[-169.91731,-19.04198],[-169.91731,-19.04207],[-169.91731,-19.04297],[-169.91734,-19.04356],[-169.9174,-19.04368],[-169.9174,-19.04377],[-169.9174,-19.04386],[-169.9174,-19.04404],[-169.91743,-19.04428],[-169.91749,-19.0444],[-169.91749,-19.04467],[-169.91753,-19.04589],[-169.91767,-19.04611],[-169.91776,-19.04611],[-169.91776,-19.0462],[-169.91785,-19.0462],[-169.91785,-19.04629],[-169.91785,-19.04674],[-169.91797,-19.04683],[-169.91776,-19.04737],[-169.91781,-19.0474],[-169.918,-19.04767],[-169.91826,-19.04785],[-169.91843,-19.04834],[-169.91848,-19.04863],[-169.91857,-19.04863],[-169.91857,-19.04872],[-169.91866,-19.04889],[-169.91875,-19.04889],[-169.91875,-19.04907],[-169.91878,-19.04922],[-169.91884,-19.04934],[-169.91884,-19.04943],[-169.91884,-19.04961],[-169.91884,-19.04979],[-169.91884,-19.04988],[-169.91893,-19.04988],[-169.91893,-19.05006],[-169.91906,-19.05017],[-169.91915,-19.05038],[-169.91924,-19.05055],[-169.91933,-19.05092],[-169.9195,-19.05107],[-169.91956,-19.05159],[-169.91972,-19.05186],[-169.92005,-19.05257],[-169.92051,-19.05286],[-169.92048,-19.0534],[-169.92067,-19.05362],[-169.92094,-19.05386],[-169.92111,-19.05422],[-169.92139,-19.05442],[-169.92158,-19.05451],[-169.92169,-19.05563],[-169.92234,-19.05599],[-169.92243,-19.05599],[-169.92243,-19.05608],[-169.92258,-19.05629],[-169.92284,-19.05648],[-169.92288,-19.05653],[-169.92306,-19.05653],[-169.92315,-19.05653],[-169.92315,-19.05662],[-169.92315,-19.0568],[-169.92306,-19.0568],[-169.92319,-19.05703],[-169.92338,-19.05711],[-169.92337,-19.05721],[-169.92347,-19.05729],[-169.92401,-19.05797],[-169.92432,-19.05806],[-169.92568,-19.05797],[-169.92575,-19.05806],[-169.92636,-19.05829],[-169.92664,-19.05861],[-169.92703,-19.05895],[-169.9271,-19.0595],[-169.92786,-19.06017],[-169.92809,-19.06021],[-169.92818,-19.06021],[-169.92818,-19.06012],[-169.92836,-19.06012],[-169.92845,-19.06012],[-169.92845,-19.06021],[-169.92854,-19.06021],[-169.92872,-19.06021],[-169.92872,-19.0603],[-169.92954,-19.06034],[-169.92971,-19.06066],[-169.92971,-19.06084],[-169.92974,-19.06099],[-169.9298,-19.06111],[-169.92997,-19.06117],[-169.93065,-19.06113],[-169.93107,-19.0616],[-169.93191,-19.06178],[-169.93235,-19.06206],[-169.93303,-19.06234],[-169.93336,-19.06285],[-169.93399,-19.06295],[-169.93474,-19.06348],[-169.93496,-19.06358],[-169.93523,-19.06376],[-169.93568,-19.06403],[-169.93591,-19.06428],[-169.93675,-19.06475],[-169.93743,-19.06494],[-169.93761,-19.06524],[-169.93761,-19.06533],[-169.93811,-19.06565],[-169.93815,-19.06569],[-169.93838,-19.06576],[-169.93873,-19.06601],[-169.93901,-19.06618],[-169.93909,-19.06628],[-169.93924,-19.06641],[-169.93966,-19.0669],[-169.94056,-19.06701],[-169.94086,-19.06736],[-169.94143,-19.06753],[-169.94176,-19.06765],[-169.94193,-19.06841],[-169.94244,-19.06852],[-169.94267,-19.06879],[-169.94314,-19.06897],[-169.94344,-19.06918],[-169.94377,-19.06933],[-169.94424,-19.06959],[-169.94467,-19.06969],[-169.94517,-19.07005],[-169.94605,-19.07028],[-169.94673,-19.07085],[-169.94699,-19.07127],[-169.94743,-19.07146],[-169.94821,-19.07211],[-169.94875,-19.07281],[-169.94897,-19.07329],[-169.94933,-19.07395],[-169.94945,-19.07513],[-169.94937,-19.07618],[-169.94906,-19.07692],[-169.94873,-19.0775],[-169.94852,-19.07768],[-169.94826,-19.07805],[-169.94798,-19.0784],[-169.9479,-19.07859],[-169.94736,-19.07921],[-169.94722,-19.07944],[-169.94722,-19.07953],[-169.94704,-19.07953],[-169.94673,-19.07993],[-169.94588,-19.08125],[-169.94545,-19.08164],[-169.94511,-19.08209],[-169.94463,-19.08274],[-169.9444,-19.08299],[-169.94406,-19.0833],[-169.94358,-19.08397],[-169.94332,-19.08425],[-169.94327,-19.08429],[-169.94321,-19.08441],[-169.94309,-19.08447],[-169.94291,-19.08474],[-169.94291,-19.08483],[-169.94273,-19.08483],[-169.94273,-19.08492],[-169.94264,-19.08492],[-169.9426,-19.08507],[-169.94222,-19.08557],[-169.94201,-19.08573],[-169.94201,-19.08582],[-169.94192,-19.08582],[-169.94156,-19.0863],[-169.94129,-19.08653],[-169.94038,-19.08759],[-169.94004,-19.08788],[-169.94004,-19.08797],[-169.93995,-19.08797],[-169.93991,-19.08802],[-169.93941,-19.08842],[-169.93911,-19.0888],[-169.93887,-19.08887],[-169.93858,-19.08925],[-169.93833,-19.08932],[-169.93833,-19.08941],[-169.93824,-19.08941],[-169.93824,-19.0895],[-169.93815,-19.0895],[-169.93815,-19.08959],[-169.93806,-19.08959],[-169.93806,-19.08968],[-169.93797,-19.08968],[-169.93788,-19.08968],[-169.93759,-19.09006],[-169.93734,-19.09013],[-169.93649,-19.09062],[-169.93583,-19.09094],[-169.93546,-19.09121],[-169.93541,-19.09125],[-169.93522,-19.09142],[-169.93499,-19.09169],[-169.93447,-19.09192],[-169.93393,-19.09228],[-169.93393,-19.09237],[-169.93375,-19.09237],[-169.93343,-19.09259],[-169.93339,-19.09264],[-169.93339,-19.09273],[-169.9333,-19.09273],[-169.9333,-19.09282],[-169.93321,-19.09282],[-169.9328,-19.09304],[-169.93237,-19.09332],[-169.93222,-19.09336],[-169.93222,-19.09345],[-169.93213,-19.09345],[-169.93213,-19.09354],[-169.93204,-19.09354],[-169.93204,-19.09363],[-169.93186,-19.09363],[-169.93186,-19.09372],[-169.93177,-19.09372],[-169.93177,-19.09381],[-169.93168,-19.09381],[-169.93168,-19.0939],[-169.93159,-19.0939],[-169.93132,-19.09408],[-169.93132,-19.09417],[-169.93123,-19.09417],[-169.93074,-19.09439],[-169.93034,-19.09471],[-169.93034,-19.0948],[-169.93025,-19.0948],[-169.93025,-19.09489],[-169.93016,-19.09489],[-169.9295,-19.09543],[-169.92908,-19.09561],[-169.92908,-19.0957],[-169.92899,-19.0957],[-169.92889,-19.09578],[-169.92839,-19.09633],[-169.92768,-19.09673],[-169.92668,-19.09762],[-169.92599,-19.09806],[-169.92582,-19.09824],[-169.92538,-19.09857],[-169.92487,-19.09911],[-169.92443,-19.09944],[-169.92375,-19.10017],[-169.92248,-19.10131],[-169.92161,-19.10195],[-169.9205,-19.10293],[-169.92023,-19.10311],[-169.91961,-19.10377],[-169.91882,-19.10424],[-169.91861,-19.10446],[-169.91857,-19.1045],[-169.91852,-19.10466],[-169.91781,-19.10527],[-169.91767,-19.10531],[-169.91761,-19.10543],[-169.91749,-19.10549],[-169.91736,-19.10572],[-169.91723,-19.10582],[-169.91708,-19.10607],[-169.91697,-19.10634],[-169.91682,-19.10653],[-169.91642,-19.10684],[-169.91602,-19.10735],[-169.91582,-19.1075],[-169.91556,-19.10797],[-169.91542,-19.10818],[-169.91542,-19.10827],[-169.91533,-19.10827],[-169.91533,-19.10836],[-169.91487,-19.10906],[-169.9147,-19.10972],[-169.91438,-19.10984],[-169.91435,-19.10998],[-169.91435,-19.11007],[-169.91426,-19.11007],[-169.91408,-19.11123],[-169.91394,-19.11138],[-169.9139,-19.11142],[-169.91332,-19.11228],[-169.91327,-19.11232],[-169.91323,-19.11245],[-169.91313,-19.11254],[-169.91296,-19.11299],[-169.91257,-19.11346],[-169.91263,-19.11417],[-169.91241,-19.11496],[-169.91244,-19.11532],[-169.91233,-19.11569],[-169.91223,-19.11595],[-169.91215,-19.11695],[-169.91197,-19.1171],[-169.91187,-19.11811],[-169.91183,-19.11824],[-169.91193,-19.11865],[-169.91183,-19.11905],[-169.91177,-19.11952],[-169.91194,-19.12011],[-169.912,-19.12063],[-169.91196,-19.12099],[-169.91212,-19.12127],[-169.91192,-19.12181],[-169.91215,-19.1222],[-169.91223,-19.12301],[-169.91259,-19.12329],[-169.91251,-19.12359],[-169.91235,-19.12386],[-169.91252,-19.12414],[-169.91246,-19.12462],[-169.91249,-19.12486],[-169.9126,-19.1252],[-169.91264,-19.12543],[-169.91264,-19.12552],[-169.91269,-19.12574],[-169.91277,-19.12635],[-169.913,-19.12674],[-169.91323,-19.12691],[-169.91327,-19.12705],[-169.91349,-19.12713],[-169.91388,-19.12699],[-169.91416,-19.12701],[-169.91437,-19.1277],[-169.91466,-19.12817],[-169.91475,-19.12853],[-169.91487,-19.12876],[-169.9161,-19.12889],[-169.91646,-19.12929],[-169.91693,-19.12943],[-169.9173,-19.12984],[-169.91824,-19.13068],[-169.91888,-19.13104],[-169.91944,-19.13152],[-169.9196,-19.13186],[-169.91998,-19.13232],[-169.92049,-19.13256],[-169.92059,-19.13267],[-169.92078,-19.13284],[-169.92134,-19.13346],[-169.92194,-19.13374],[-169.92198,-19.13379],[-169.92221,-19.13383],[-169.92233,-19.13411],[-169.92261,-19.1346],[-169.92255,-19.13527],[-169.92183,-19.13579],[-169.92119,-19.13608],[-169.92088,-19.13643],[-169.92065,-19.13653],[-169.9205,-19.13652],[-169.92038,-19.13653],[-169.91987,-19.13689],[-169.91937,-19.13718],[-169.9187,-19.13733],[-169.91834,-19.13743],[-169.91817,-19.13741],[-169.91797,-19.13752],[-169.9178,-19.13751],[-169.91763,-19.13752],[-169.91674,-19.13802],[-169.91582,-19.13823],[-169.9149,-19.13848],[-169.91474,-19.13831],[-169.9142,-19.13814],[-169.91304,-19.13797],[-169.913,-19.13792],[-169.91288,-19.13786],[-169.91273,-19.13783],[-169.91264,-19.13795],[-169.91255,-19.13783],[-169.91194,-19.13777],[-169.9112,-19.13756],[-169.91111,-19.13768],[-169.91102,-19.13756],[-169.9108,-19.13751],[-169.91027,-19.13734],[-169.91003,-19.13733],[-169.90718,-19.13739],[-169.90689,-19.13729],[-169.90684,-19.1374],[-169.9068,-19.13729],[-169.90648,-19.13741],[-169.9055,-19.13752],[-169.90536,-19.13756],[-169.90533,-19.13761],[-169.90497,-19.13774],[-169.90491,-19.13765],[-169.90476,-19.13759],[-169.9041,-19.13785],[-169.90401,-19.13774],[-169.90366,-19.13783],[-169.90357,-19.13783],[-169.90357,-19.13792],[-169.90339,-19.13792],[-169.90321,-19.13801],[-169.90316,-19.13812],[-169.90312,-19.13801],[-169.90297,-19.13804],[-169.90267,-19.13819],[-169.90267,-19.13828],[-169.9024,-19.13828],[-169.90235,-19.13839],[-169.90231,-19.13828],[-169.90195,-19.13846],[-169.90187,-19.13857],[-169.90141,-19.13867],[-169.90132,-19.13855],[-169.90082,-19.13877],[-169.90063,-19.13898],[-169.8998,-19.13927],[-169.89928,-19.13943],[-169.89885,-19.13976],[-169.89822,-19.14003],[-169.89787,-19.14021],[-169.8977,-19.1402],[-169.89714,-19.14066],[-169.89665,-19.14075],[-169.89544,-19.14174],[-169.89512,-19.14189],[-169.89464,-19.14224],[-169.89382,-19.14291],[-169.89334,-19.14322],[-169.89238,-19.14407],[-169.89212,-19.1442],[-169.89126,-19.145],[-169.89093,-19.14544],[-169.89072,-19.14564],[-169.89028,-19.14611],[-169.88986,-19.1465],[-169.88961,-19.14677],[-169.88905,-19.14729],[-169.88866,-19.14771],[-169.88838,-19.14797],[-169.88808,-19.14829],[-169.88772,-19.14846],[-169.88762,-19.14865],[-169.88738,-19.14916],[-169.88722,-19.14933],[-169.88708,-19.14946],[-169.88665,-19.14993],[-169.88614,-19.1503],[-169.88577,-19.1507],[-169.88541,-19.15093],[-169.88519,-19.15128],[-169.88501,-19.15144],[-169.88484,-19.15163],[-169.88358,-19.15279],[-169.88337,-19.15289],[-169.88263,-19.1534],[-169.88214,-19.1536],[-169.88176,-19.15372],[-169.88129,-19.15409],[-169.88107,-19.15441],[-169.88075,-19.15463],[-169.8802,-19.15484],[-169.88012,-19.15472],[-169.87989,-19.15475],[-169.87967,-19.15481],[-169.87927,-19.15526],[-169.87883,-19.15548],[-169.87792,-19.15521],[-169.87676,-19.15494],[-169.87653,-19.15495],[-169.87626,-19.15494],[-169.87564,-19.1546],[-169.87479,-19.15447],[-169.87406,-19.15404],[-169.87378,-19.15391],[-169.87318,-19.15345],[-169.87253,-19.15315],[-169.87235,-19.15305],[-169.87201,-19.15295],[-169.87112,-19.15246],[-169.871,-19.15233],[-169.87071,-19.15214],[-169.8706,-19.15202],[-169.87048,-19.15196],[-169.87033,-19.15193],[-169.87028,-19.15205],[-169.87024,-19.15193],[-169.87009,-19.1519],[-169.86997,-19.15184],[-169.86979,-19.15184],[-169.86979,-19.15175],[-169.86964,-19.15172],[-169.86952,-19.15166],[-169.86947,-19.15178],[-169.86943,-19.15166],[-169.86915,-19.15159],[-169.86876,-19.15134],[-169.86848,-19.15127],[-169.86826,-19.15112],[-169.86822,-19.15124],[-169.86817,-19.15112],[-169.86799,-19.15112],[-169.86799,-19.15103],[-169.86772,-19.15095],[-169.86732,-19.15081],[-169.86705,-19.15072],[-169.86627,-19.1504],[-169.86552,-19.15018],[-169.86504,-19.15007],[-169.86462,-19.14987],[-169.86404,-19.14956],[-169.86301,-19.14936],[-169.86192,-19.14897],[-169.86023,-19.14862],[-169.85996,-19.14847],[-169.85941,-19.14839],[-169.85897,-19.14829],[-169.85851,-19.14821],[-169.85807,-19.14802],[-169.85779,-19.14794],[-169.85704,-19.14767],[-169.85564,-19.14756],[-169.85483,-19.14739],[-169.85437,-19.14731],[-169.85312,-19.14704],[-169.85278,-19.14692],[-169.85222,-19.14695],[-169.85022,-19.14681],[-169.84932,-19.14667],[-169.84895,-19.14654],[-169.84895,-19.14663],[-169.8485,-19.14663],[-169.8485,-19.14654],[-169.84824,-19.14664],[-169.84697,-19.14656],[-169.84524,-19.14666],[-169.84491,-19.14654],[-169.84486,-19.1466],[-169.84419,-19.14669],[-169.84354,-19.14645],[-169.84316,-19.14622],[-169.8427,-19.14603],[-169.84235,-19.14541],[-169.8423,-19.14537],[-169.84226,-19.14549],[-169.84221,-19.14537],[-169.84213,-19.14527],[-169.84193,-19.14511],[-169.84154,-19.1446],[-169.84149,-19.14457],[-169.8414,-19.14457],[-169.8414,-19.14448],[-169.84113,-19.14412],[-169.84099,-19.14405],[-169.84095,-19.14385],[-169.84086,-19.14385],[-169.84086,-19.14376],[-169.84077,-19.14376],[-169.84077,-19.14367],[-169.84068,-19.14367],[-169.84068,-19.14358],[-169.84059,-19.14358],[-169.84059,-19.14349],[-169.8405,-19.14349],[-169.8405,-19.1434],[-169.84027,-19.14309],[-169.84019,-19.14252],[-169.84,-19.14237],[-169.83987,-19.14219],[-169.84005,-19.14214],[-169.84002,-19.14208],[-169.83991,-19.14202],[-169.83985,-19.14172],[-169.83979,-19.1416],[-169.8397,-19.1416],[-169.8397,-19.14151],[-169.83938,-19.14102],[-169.83925,-19.14074],[-169.83911,-19.14048],[-169.83894,-19.13979],[-169.83821,-19.13877],[-169.83795,-19.13832],[-169.83785,-19.13823],[-169.83769,-19.13789],[-169.83749,-19.13761],[-169.83721,-19.13712],[-169.83705,-19.13661],[-169.83695,-19.13635],[-169.83691,-19.13621],[-169.83682,-19.13621],[-169.83682,-19.13612],[-169.83673,-19.13612],[-169.83673,-19.13594],[-169.83642,-19.13527],[-169.83591,-19.13431],[-169.83555,-19.13397],[-169.83534,-19.13365],[-169.83507,-19.13329],[-169.83489,-19.13302],[-169.83467,-19.1327],[-169.83392,-19.13141],[-169.83347,-19.131],[-169.83335,-19.13074],[-169.83296,-19.1301],[-169.83282,-19.13003],[-169.83278,-19.12983],[-169.83245,-19.12953],[-169.832,-19.12895],[-169.83183,-19.1288],[-169.83104,-19.12794],[-169.83098,-19.12777],[-169.83089,-19.12768],[-169.83062,-19.12723],[-169.83053,-19.12723],[-169.83053,-19.12714],[-169.83044,-19.12714],[-169.83044,-19.12705],[-169.83029,-19.12693],[-169.8301,-19.12668],[-169.82964,-19.12633],[-169.82936,-19.12597],[-169.82928,-19.12597],[-169.82928,-19.12588],[-169.82922,-19.12585],[-169.8291,-19.12561],[-169.82901,-19.12561],[-169.82901,-19.12552],[-169.82892,-19.12552],[-169.82892,-19.12543],[-169.82883,-19.12543],[-169.82883,-19.12534],[-169.82865,-19.12525],[-169.82856,-19.12525],[-169.82856,-19.12516],[-169.82847,-19.12516],[-169.82847,-19.12507],[-169.82815,-19.12485],[-169.82788,-19.12467],[-169.82734,-19.12422],[-169.82682,-19.1238],[-169.82622,-19.12318],[-169.82595,-19.12292],[-169.82566,-19.12262],[-169.82519,-19.12238],[-169.82492,-19.12224],[-169.82465,-19.12211],[-169.82438,-19.12197],[-169.82374,-19.12149],[-169.82339,-19.12125],[-169.82312,-19.12108],[-169.82285,-19.12089],[-169.82253,-19.12073],[-169.82199,-19.12038],[-169.82168,-19.12009],[-169.82135,-19.11974],[-169.82073,-19.11928],[-169.81996,-19.11868],[-169.81954,-19.11803],[-169.81917,-19.11784],[-169.81881,-19.11767],[-169.8172,-19.11615],[-169.81624,-19.11547],[-169.81599,-19.1151],[-169.81553,-19.11465],[-169.81535,-19.11465],[-169.81535,-19.11456],[-169.8142,-19.11355],[-169.81355,-19.11314],[-169.81324,-19.11272],[-169.81282,-19.11241],[-169.81253,-19.11208],[-169.81209,-19.11169],[-169.81199,-19.11146],[-169.81166,-19.11131],[-169.81136,-19.11104],[-169.81122,-19.1106],[-169.81113,-19.11052],[-169.81089,-19.11035],[-169.81064,-19.10993],[-169.81054,-19.10985],[-169.81032,-19.10954],[-169.81005,-19.10935],[-169.80989,-19.10933],[-169.80963,-19.10906],[-169.8096,-19.1089],[-169.80946,-19.10883],[-169.80942,-19.10863],[-169.80933,-19.10863],[-169.80933,-19.10854],[-169.80875,-19.10787],[-169.80839,-19.10738],[-169.80839,-19.10724],[-169.80839,-19.10712],[-169.8079,-19.10676],[-169.80776,-19.10634],[-169.80709,-19.10549],[-169.80686,-19.10527],[-169.80605,-19.10482],[-169.80593,-19.10468],[-169.80578,-19.10406],[-169.80443,-19.10294],[-169.8037,-19.10247],[-169.80345,-19.10221],[-169.803,-19.10185],[-169.80295,-19.10181],[-169.80286,-19.10181],[-169.80286,-19.10172],[-169.80277,-19.10172],[-169.80277,-19.10163],[-169.8026,-19.10163],[-169.8026,-19.10154],[-169.80251,-19.10154],[-169.80251,-19.10145],[-169.80229,-19.10139],[-169.80224,-19.10118],[-169.80176,-19.10109],[-169.80076,-19.1005],[-169.80057,-19.10042],[-169.80013,-19.10014],[-169.79968,-19.10001],[-169.79899,-19.09921],[-169.79866,-19.09906],[-169.79843,-19.09879],[-169.79781,-19.09825],[-169.79693,-19.0977],[-169.79658,-19.09713],[-169.7964,-19.09704],[-169.79616,-19.09657],[-169.79613,-19.09642],[-169.79604,-19.09642],[-169.79604,-19.09633],[-169.79577,-19.09587],[-169.79568,-19.09579],[-169.79554,-19.09572],[-169.7955,-19.09552],[-169.79541,-19.09552],[-169.79541,-19.09543],[-169.79537,-19.09538],[-169.79509,-19.09521],[-169.7951,-19.09511],[-169.79489,-19.09495],[-169.79433,-19.0942],[-169.79411,-19.09367],[-169.79338,-19.09287],[-169.79334,-19.09273],[-169.79326,-19.09264],[-169.79303,-19.09244],[-169.79257,-19.09144],[-169.79213,-19.09071],[-169.79181,-19.08996],[-169.79168,-19.08954],[-169.79155,-19.08918],[-169.79096,-19.08865],[-169.79087,-19.08855],[-169.79054,-19.08826],[-169.78976,-19.08738],[-169.78938,-19.08685],[-169.78903,-19.08654],[-169.78887,-19.08636],[-169.78872,-19.08604],[-169.78804,-19.08508],[-169.78755,-19.08424],[-169.78731,-19.0839],[-169.78691,-19.08354],[-169.78652,-19.08311],[-169.78638,-19.08279],[-169.7858,-19.08228],[-169.78537,-19.08151],[-169.78487,-19.08106],[-169.78468,-19.08056],[-169.7844,-19.0802],[-169.78382,-19.07935],[-169.78373,-19.07935],[-169.78373,-19.07926],[-169.78364,-19.07926],[-169.78364,-19.07917],[-169.78355,-19.07917],[-169.78355,-19.07899],[-169.78346,-19.07899],[-169.78346,-19.0789],[-169.78333,-19.07883],[-169.78325,-19.07857],[-169.78305,-19.07847],[-169.78301,-19.07827],[-169.78292,-19.07827],[-169.78292,-19.07809],[-169.78278,-19.07802],[-169.78274,-19.07782],[-169.78265,-19.07782],[-169.78265,-19.07764],[-169.78244,-19.07723],[-169.78211,-19.07674],[-169.78191,-19.07668],[-169.78141,-19.0761],[-169.78117,-19.07589],[-169.78057,-19.07518],[-169.7805,-19.07477],[-169.78036,-19.0747],[-169.78032,-19.0745],[-169.78013,-19.07445],[-169.77992,-19.07408],[-169.77966,-19.07375],[-169.7796,-19.07351],[-169.77927,-19.07285],[-169.77903,-19.07273],[-169.77879,-19.07225],[-169.7787,-19.07225],[-169.7787,-19.07216],[-169.77852,-19.07171],[-169.77839,-19.07163],[-169.77828,-19.0713],[-169.77834,-19.07126],[-169.7783,-19.07121],[-169.7782,-19.07113],[-169.77793,-19.07069],[-169.77785,-19.0704],[-169.77775,-19.07024],[-169.77771,-19.07001],[-169.77761,-19.06993],[-169.77748,-19.06945],[-169.77753,-19.06911],[-169.77741,-19.06902],[-169.77753,-19.06893],[-169.77742,-19.06864],[-169.77731,-19.06785],[-169.77704,-19.0674],[-169.77676,-19.06718],[-169.77654,-19.06691],[-169.77645,-19.06659],[-169.77636,-19.06659],[-169.77636,-19.0665],[-169.77627,-19.0665],[-169.77627,-19.06641],[-169.77627,-19.06632],[-169.77597,-19.06607],[-169.7756,-19.06522],[-169.77543,-19.06457],[-169.77538,-19.06444],[-169.77529,-19.06444],[-169.77529,-19.06435],[-169.77508,-19.06419],[-169.77482,-19.06385],[-169.77502,-19.06336],[-169.77487,-19.06326],[-169.77471,-19.06255],[-169.77484,-19.06246],[-169.77453,-19.06169],[-169.77438,-19.06157],[-169.77448,-19.06091],[-169.77457,-19.06084],[-169.7744,-19.06041],[-169.77454,-19.05968],[-169.77466,-19.05959],[-169.7746,-19.05943],[-169.77481,-19.05869],[-169.77525,-19.05775],[-169.77535,-19.05689],[-169.77552,-19.05676],[-169.77574,-19.05644],[-169.77561,-19.05617],[-169.7758,-19.05576],[-169.77601,-19.05563],[-169.77632,-19.05523],[-169.77659,-19.05478],[-169.77707,-19.05442],[-169.77748,-19.05378],[-169.77814,-19.05284],[-169.77872,-19.0525],[-169.77883,-19.05226],[-169.77911,-19.05175],[-169.77962,-19.05152],[-169.77973,-19.05127],[-169.77983,-19.05119],[-169.77991,-19.051],[-169.7802,-19.05059],[-169.7806,-19.0504],[-169.78072,-19.04966],[-169.78082,-19.04946],[-169.78122,-19.04928],[-169.78154,-19.04892],[-169.78171,-19.04804],[-169.78242,-19.04723],[-169.78252,-19.04715],[-169.78271,-19.04546],[-169.78306,-19.0449],[-169.78348,-19.04414],[-169.7836,-19.04354],[-169.78378,-19.04337],[-169.78455,-19.04198],[-169.78467,-19.04148],[-169.78482,-19.04107],[-169.78531,-19.04092],[-169.78582,-19.04056],[-169.78602,-19.04013],[-169.78615,-19.03989],[-169.78681,-19.03977],[-169.78693,-19.03895],[-169.78739,-19.03794],[-169.78755,-19.03744],[-169.78765,-19.03715],[-169.78782,-19.03699],[-169.78791,-19.03681],[-169.78804,-19.03659],[-169.78796,-19.03652],[-169.78817,-19.03483],[-169.78832,-19.03417],[-169.78872,-19.03367],[-169.78883,-19.03342],[-169.78911,-19.0333],[-169.7893,-19.03306],[-169.78966,-19.03282],[-169.79002,-19.03255],[-169.79006,-19.0324],[-169.79017,-19.03214],[-169.78998,-19.03186],[-169.79011,-19.03156],[-169.79027,-19.03124],[-169.79047,-19.0312],[-169.79043,-19.03115],[-169.79032,-19.03106],[-169.79046,-19.03095],[-169.79061,-19.03008],[-169.79088,-19.02972],[-169.79101,-19.02939],[-169.79117,-19.02866],[-169.79154,-19.02837],[-169.79182,-19.02832],[-169.79182,-19.02823],[-169.79191,-19.02823],[-169.79226,-19.02796],[-169.79281,-19.02725],[-169.79321,-19.02694],[-169.79325,-19.02689],[-169.79329,-19.0266],[-169.79343,-19.02653],[-169.79352,-19.02635],[-169.79346,-19.02631],[-169.79373,-19.02548],[-169.79379,-19.02545],[-169.79374,-19.02532],[-169.79378,-19.02478],[-169.79373,-19.02408],[-169.79392,-19.02355],[-169.79402,-19.02282],[-169.79459,-19.02268],[-169.79489,-19.02203],[-169.79504,-19.02059],[-169.79493,-19.01886],[-169.79468,-19.0184],[-169.79454,-19.01809],[-169.79456,-19.01781],[-169.79478,-19.01745],[-169.79468,-19.01712],[-169.79423,-19.01604],[-169.79355,-19.01509],[-169.7933,-19.01453],[-169.7932,-19.01444],[-169.79322,-19.01418],[-169.79311,-19.01409],[-169.79296,-19.01342],[-169.79283,-19.01305],[-169.79286,-19.01269],[-169.79283,-19.01241],[-169.79302,-19.0119],[-169.79282,-19.01174],[-169.79286,-19.01131],[-169.7933,-19.00982],[-169.79357,-19.00886],[-169.7937,-19.00874],[-169.79374,-19.0086],[-169.79396,-19.0082],[-169.79411,-19.00807],[-169.79437,-19.00761],[-169.79465,-19.00717],[-169.79481,-19.00681],[-169.79491,-19.00614],[-169.79469,-19.00553],[-169.79483,-19.00528],[-169.79495,-19.00501],[-169.79514,-19.00467],[-169.79537,-19.00457],[-169.79558,-19.00424],[-169.7965,-19.00344],[-169.79662,-19.00293],[-169.79698,-19.00261],[-169.79707,-19.00222],[-169.79727,-19.00193],[-169.79743,-19.0016],[-169.79754,-19.00139],[-169.79777,-19.00064],[-169.7979,-19.0004],[-169.79816,-19.00017],[-169.79833,-18.9998],[-169.79845,-18.99957],[-169.79836,-18.99802],[-169.79853,-18.9977],[-169.79914,-18.99747],[-169.79946,-18.99729],[-169.79972,-18.99662],[-169.79994,-18.99567],[-169.80013,-18.99522],[-169.80023,-18.99477],[-169.80018,-18.99392],[-169.80035,-18.99361],[-169.80048,-18.99333],[-169.80058,-18.99325],[-169.80079,-18.99291],[-169.80073,-18.99199],[-169.80077,-18.99142],[-169.80124,-18.99018],[-169.80143,-18.98985],[-169.80181,-18.98951],[-169.80192,-18.98902],[-169.80201,-18.98867],[-169.80211,-18.98825],[-169.80228,-18.98777],[-169.80237,-18.98722],[-169.80246,-18.98669],[-169.80255,-18.98606],[-169.80264,-18.9857],[-169.80273,-18.9848],[-169.80286,-18.98404],[-169.80282,-18.98326],[-169.80246,-18.9831],[-169.80214,-18.98288],[-169.80234,-18.9803],[-169.80242,-18.98008],[-169.8023,-18.98004],[-169.80242,-18.97999],[-169.80232,-18.97938],[-169.80238,-18.97784],[-169.80235,-18.97696],[-169.80247,-18.97591],[-169.80272,-18.97473],[-169.80286,-18.97384],[-169.80306,-18.97347],[-169.80329,-18.9725],[-169.80326,-18.97195],[-169.80327,-18.97172],[-169.80386,-18.97061],[-169.80408,-18.97014],[-169.80429,-18.96995],[-169.80461,-18.96908],[-169.8048,-18.96863],[-169.80488,-18.968],[-169.80516,-18.96764],[-169.80534,-18.96682],[-169.80555,-18.96663],[-169.80578,-18.96602],[-169.80589,-18.96582],[-169.80614,-18.96559],[-169.8064,-18.96504],[-169.80662,-18.96484],[-169.80706,-18.96463],[-169.80751,-18.96403],[-169.80767,-18.96351],[-169.80778,-18.96329],[-169.80805,-18.96305],[-169.8086,-18.96288],[-169.80893,-18.9627],[-169.80928,-18.96254],[-169.80982,-18.96207],[-169.81116,-18.96104],[-169.81156,-18.96085],[-169.81263,-18.96051],[-169.81324,-18.96037],[-169.81405,-18.96],[-169.81476,-18.95981],[-169.81577,-18.95927],[-169.81643,-18.95906],[-169.81646,-18.959],[-169.8167,-18.95888],[-169.81754,-18.95846],[-169.81787,-18.95843],[-169.81823,-18.95843],[-169.81847,-18.9584],[-169.81859,-18.95834],[-169.81871,-18.95829],[-169.81885,-18.95826],[-169.81894,-18.95816],[-169.81952,-18.95798],[-169.82016,-18.95785],[-169.82091,-18.95766],[-169.82195,-18.95768],[-169.82299,-18.95766],[-169.82449,-18.95769],[-169.82492,-18.95758],[-169.82537,-18.95749],[-169.82582,-18.9574],[-169.82654,-18.95731],[-169.8268,-18.95713],[-169.82806,-18.95704],[-169.8284,-18.95687],[-169.82914,-18.95659],[-169.82932,-18.9565],[-169.83013,-18.9562],[-169.83115,-18.95604],[-169.83215,-18.95606],[-169.83233,-18.95605],[-169.83247,-18.95578],[-169.83266,-18.95559],[-169.83408,-18.95525],[-169.83435,-18.95515],[-169.8348,-18.95507],[-169.83552,-18.9548],[-169.83637,-18.95452],[-169.83686,-18.95453],[-169.83713,-18.95444],[-169.83741,-18.95435],[-169.83804,-18.95396],[-169.83946,-18.95399],[-169.84,-18.95381],[-169.84082,-18.95372],[-169.84114,-18.95339],[-169.84167,-18.95326],[-169.84306,-18.95329],[-169.84416,-18.95327],[-169.84493,-18.953]]]},"properties":{"area_code":"niue","area_name":"Niue"}}
]}