{"type":"FeatureCollection", "features": [
{"type":"Feature","geometry":{"type":"Polygon","coordinates":[[[103.85811,1.39111],[103.85805,1.39317],[103.85782,1.39474],[103.85766,1.3956],[103.85749,1.39616],[103.85721,1.39654],[103.85675,1.39695],[103.85625,1.39728],[103.85518,1.3977],[103.85448,1.39774],[103.85363,1.39761],[103.85239,1.39709],[103.85192,1.39685],[103.85104,1.3966],[103.85007,1.39647],[103.84663,1.39661],[103.84494,1.39661],[103.84268,1.39644],[103.84047,1.39599],[103.83897,1.39559],[103.83654,1.39499],[103.83504,1.39454],[103.83236,1.39391],[103.83152,1.39368],[103.82973,1.39327],[103.82737,1.39295],[103.82661,1.39291],[103.82473,1.39297],[103.8234,1.39314],[103.81882,1.39434],[103.81875,1.39345],[103.81802,1.39046],[103.81796,1.38993],[103.81799,1.3894],[103.81838,1.38862],[103.81807,1.38826],[103.81706,1.38772],[103.81689,1.38751],[103.81674,1.38692],[103.8169,1.38659],[103.81736,1.38639],[103.81805,1.38669],[103.81868,1.38678],[103.81885,1.38669],[103.8191,1.38622],[103.81945,1.38537],[103.81947,1.38516],[103.81934,1.38338],[103.81813,1.38128],[103.81779,1.38064],[103.81782,1.38024],[103.81806,1.38016],[103.81905,1.3804],[103.81989,1.38055],[103.82047,1.38054],[103.82087,1.38037],[103.82121,1.37983],[103.82164,1.37959],[103.82276,1.37972],[103.82351,1.37887],[103.82372,1.37872],[103.82416,1.37866],[103.82464,1.3792],[103.82525,1.37961],[103.82571,1.37976],[103.82605,1.37969],[103.82728,1.37909],[103.82771,1.37836],[103.82783,1.37741],[103.82705,1.37705],[103.82673,1.37684],[103.82636,1.37641],[103.82632,1.37596],[103.82646,1.37538],[103.82659,1.37442],[103.8263,1.37351],[103.82656,1.37323],[103.82726,1.37307],[103.82776,1.37243],[103.82793,1.37186],[103.828,1.37128],[103.82795,1.37044],[103.8278,1.37013],[103.82739,1.3696],[103.82739,1.36903],[103.8283,1.36747],[103.82833,1.36799],[103.8306,1.36784],[103.83194,1.36767],[103.83358,1.36727],[103.83694,1.3661],[103.83927,1.36527],[103.84101,1.36461],[103.84228,1.36435],[103.84327,1.36426],[103.84435,1.36422],[103.84554,1.36411],[103.84655,1.36393],[103.84762,1.36359],[103.84919,1.36279],[103.84992,1.36226],[103.85194,1.36065],[103.8531,1.35961],[103.85339,1.3593],[103.85393,1.35844],[103.85444,1.35737],[103.85489,1.35665],[103.85575,1.35593],[103.85633,1.35565],[103.85686,1.35551],[103.85694,1.35636],[103.85709,1.35716],[103.85739,1.35816],[103.86039,1.36656],[103.86071,1.36752],[103.86087,1.36826],[103.86093,1.36916],[103.86083,1.37009],[103.86054,1.37105],[103.85942,1.37362],[103.85891,1.37507],[103.85853,1.3766],[103.85829,1.3782],[103.85826,1.37919],[103.85838,1.3828],[103.85836,1.38504],[103.85825,1.38757],[103.85815,1.39047],[103.85811,1.39111]]]},"properties":{"area_code":"AM","area_name":"Ang Mo Kio","area_unit_id":"sg-pa-2019-ura-mp2019:AM","boundary_set_id":"sg-pa-2019-ura-mp2019","boundary_level":"planning_area","region_name":"North-East Region","region_code":"NER","land_area_sq_km":13.942584768246984}},
{"type":"Feature","geometry":{"type":"Polygon","coordinates":[[[103.91951,1.30199],[103.91981,1.30183],[103.9206,1.30234],[103.92109,1.30257],[103.92184,1.30258],[103.9232,1.30318],[103.9235,1.30324],[103.92381,1.30306],[103.92502,1.30354],[103.92549,1.30363],[103.9259,1.30353],[103.92616,1.30327],[103.92637,1.30352],[103.92688,1.30368],[103.92727,1.30366],[103.92765,1.30377],[103.92811,1.30366],[103.92876,1.30414],[103.92938,1.30448],[103.9296,1.30432],[103.93039,1.30484],[103.93122,1.30493],[103.93169,1.30515],[103.93219,1.3056],[103.93262,1.30528],[103.93309,1.30538],[103.93368,1.30504],[103.9346,1.3057],[103.93506,1.30573],[103.93583,1.30617],[103.93646,1.30646],[103.93687,1.30624],[103.93795,1.30685],[103.93877,1.30717],[103.93885,1.30703],[103.93933,1.30732],[103.94007,1.30749],[103.94134,1.30815],[103.9419,1.30851],[103.94259,1.30871],[103.94307,1.30851],[103.94335,1.30879],[103.94398,1.30916],[103.94453,1.30913],[103.94541,1.30945],[103.94698,1.30988],[103.94756,1.30999],[103.94874,1.31041],[103.94928,1.31034],[103.95059,1.31081],[103.95105,1.31078],[103.95136,1.31062],[103.95192,1.3107],[103.95285,1.31106],[103.95368,1.31107],[103.95482,1.31157],[103.95532,1.31163],[103.95592,1.31138],[103.95676,1.31184],[103.9578,1.31251],[103.95833,1.31251],[103.95844,1.31241],[103.95929,1.31298],[103.96066,1.31381],[103.96103,1.31387],[103.96121,1.31372],[103.96209,1.31429],[103.96263,1.31457],[103.96283,1.31451],[103.96316,1.31468],[103.96363,1.31442],[103.96197,1.31811],[103.96066,1.3209],[103.96014,1.32168],[103.95904,1.32255],[103.95417,1.3266],[103.94946,1.33363],[103.94898,1.33433],[103.9437,1.33537],[103.94009,1.33606],[103.93915,1.33627],[103.93877,1.33642],[103.93833,1.33674],[103.93782,1.33726],[103.93193,1.34309],[103.93041,1.34466],[103.92976,1.34525],[103.92935,1.34555],[103.9263,1.34744],[103.92497,1.34859],[103.92422,1.34804],[103.92303,1.3475],[103.92009,1.34624],[103.91925,1.34572],[103.91817,1.34486],[103.91693,1.34376],[103.91644,1.34318],[103.9159,1.34229],[103.91546,1.3426],[103.913,1.34446],[103.90991,1.34175],[103.9088,1.34089],[103.90844,1.34004],[103.90759,1.33916],[103.90233,1.3392],[103.9021,1.3387],[103.90076,1.33902],[103.89992,1.33931],[103.89933,1.33957],[103.89794,1.34036],[103.89684,1.33866],[103.89618,1.3378],[103.90147,1.33268],[103.90482,1.32945],[103.90547,1.32849],[103.90566,1.32802],[103.90584,1.32719],[103.90585,1.3266],[103.90532,1.32245],[103.90506,1.32052],[103.90494,1.3193],[103.90509,1.3176],[103.90523,1.31687],[103.90609,1.31471],[103.90671,1.31332],[103.90766,1.31107],[103.90802,1.31006],[103.90822,1.30911],[103.90843,1.3085],[103.90906,1.30723],[103.90998,1.30555],[103.91055,1.30574],[103.91188,1.30601],[103.91598,1.30703],[103.91695,1.30724],[103.91826,1.30747],[103.91859,1.30656],[103.91908,1.30425],[103.91951,1.30199]]]},"properties":{"area_code":"BD","area_name":"Bedok","area_unit_id":"sg-pa-2019-ura-mp2019:BD","boundary_set_id":"sg-pa-2019-ura-mp2019","boundary_level":"planning_area","region_name":"East Region","region_code":"ER","land_area_sq_km":21.733966967250876}},
{"type":"Feature","geometry":{"type":"Polygon","coordinates":[[[103.8283,1.36747],[103.82824,1.36646],[103.82767,1.3647],[103.82757,1.36406],[103.82719,1.36363],[103.8271,1.36269],[103.8267,1.36259],[103.8254,1.36331],[103.82524,1.36316],[103.82472,1.36201],[103.82453,1.36168],[103.82434,1.36178],[103.82069,1.3612],[103.81991,1.35925],[103.81916,1.35745],[103.81854,1.35487],[103.81904,1.35418],[103.82252,1.35278],[103.82355,1.35232],[103.82658,1.35411],[103.82675,1.35419],[103.82982,1.35312],[103.83098,1.35196],[103.83207,1.35082],[103.83207,1.35009],[103.83235,1.3498],[103.8332,1.34963],[103.83328,1.34941],[103.83384,1.34957],[103.83399,1.34914],[103.83561,1.34739],[103.83525,1.34732],[103.83514,1.34708],[103.83578,1.34629],[103.83678,1.34636],[103.83708,1.34346],[103.83592,1.34271],[103.83598,1.3425],[103.83652,1.342],[103.83826,1.34296],[103.8391,1.34349],[103.83949,1.34385],[103.84015,1.34459],[103.84069,1.34493],[103.8412,1.34507],[103.84193,1.34503],[103.84237,1.34489],[103.84402,1.34406],[103.8445,1.34395],[103.84556,1.34394],[103.84697,1.34402],[103.84883,1.34395],[103.85259,1.34343],[103.85349,1.34328],[103.8543,1.34321],[103.85623,1.34325],[103.85989,1.34336],[103.86044,1.3434],[103.85901,1.34739],[103.85833,1.34925],[103.85755,1.3515],[103.85717,1.35266],[103.85694,1.35378],[103.85686,1.35455],[103.85686,1.35551],[103.85633,1.35565],[103.85575,1.35593],[103.85489,1.35665],[103.85444,1.35737],[103.85393,1.35844],[103.85339,1.3593],[103.8531,1.35961],[103.85194,1.36065],[103.84992,1.36226],[103.84919,1.36279],[103.84762,1.36359],[103.84655,1.36393],[103.84554,1.36411],[103.84435,1.36422],[103.84327,1.36426],[103.84228,1.36435],[103.84101,1.36461],[103.83927,1.36527],[103.83694,1.3661],[103.83358,1.36727],[103.83194,1.36767],[103.8306,1.36784],[103.82833,1.36799],[103.8283,1.36747]]]},"properties":{"area_code":"BS","area_name":"Bishan","area_unit_id":"sg-pa-2019-ura-mp2019:BS","boundary_set_id":"sg-pa-2019-ura-mp2019","boundary_level":"planning_area","region_name":"Central Region","region_code":"CR","land_area_sq_km":7.608112816880314}},
{"type":"Feature","geometry":{"type":"Polygon","coordinates":[[[103.77038,1.34902],[103.77022,1.34948],[103.77006,1.35049],[103.7698,1.35244],[103.76967,1.35299],[103.7693,1.35411],[103.76876,1.35559],[103.7684,1.35619],[103.76781,1.35702],[103.76746,1.35787],[103.76709,1.36054],[103.76715,1.36159],[103.76761,1.36318],[103.76765,1.36406],[103.76745,1.3648],[103.76672,1.36605],[103.76539,1.36796],[103.76385,1.37036],[103.76328,1.37161],[103.76283,1.3736],[103.76233,1.37671],[103.76209,1.37781],[103.76189,1.37842],[103.76124,1.37967],[103.75944,1.37888],[103.7579,1.37825],[103.75705,1.37783],[103.75575,1.37711],[103.75429,1.37663],[103.75381,1.37628],[103.75297,1.37521],[103.75271,1.37479],[103.75227,1.37346],[103.75195,1.37269],[103.75168,1.37222],[103.75128,1.37173],[103.74849,1.36905],[103.74704,1.36776],[103.74464,1.36569],[103.74392,1.36492],[103.74309,1.36388],[103.73998,1.36004],[103.73965,1.35965],[103.73818,1.35809],[103.73767,1.35761],[103.73695,1.35662],[103.73664,1.35581],[103.73651,1.35492],[103.73662,1.35385],[103.73764,1.35117],[103.73804,1.34988],[103.73826,1.34881],[103.73829,1.34818],[103.73814,1.34756],[103.7378,1.3469],[103.73726,1.346],[103.73781,1.3457],[103.73854,1.34539],[103.73974,1.34509],[103.741,1.34504],[103.74242,1.34484],[103.7435,1.34451],[103.74401,1.3443],[103.7453,1.34364],[103.74942,1.34127],[103.75011,1.34089],[103.75284,1.33927],[103.75452,1.33832],[103.75674,1.33712],[103.76092,1.33474],[103.76461,1.33282],[103.76564,1.33245],[103.7656,1.33578],[103.76533,1.33545],[103.7645,1.33661],[103.76416,1.33857],[103.76415,1.33936],[103.76469,1.33958],[103.76512,1.34211],[103.7669,1.34222],[103.76686,1.34267],[103.76713,1.34279],[103.76649,1.34331],[103.76575,1.34369],[103.76537,1.34462],[103.7642,1.34502],[103.76382,1.34575],[103.76318,1.34671],[103.7649,1.34715],[103.76583,1.34727],[103.76655,1.34721],[103.76731,1.34734],[103.76842,1.34792],[103.77038,1.34902]]]},"properties":{"area_code":"BK","area_name":"Bukit Batok","area_unit_id":"sg-pa-2019-ura-mp2019:BK","boundary_set_id":"sg-pa-2019-ura-mp2019","boundary_level":"planning_area","region_name":"West Region","region_code":"WR","land_area_sq_km":11.140177371927567}},
{"type":"Feature","geometry":{"type":"Polygon","coordinates":[[[103.82361,1.26018],[103.82368,1.26018],[103.82364,1.25842],[103.82401,1.25823],[103.82402,1.26016],[103.82421,1.26012],[103.82439,1.25962],[103.82484,1.25901],[103.82534,1.25855],[103.82618,1.25794],[103.82681,1.25766],[103.82788,1.2575],[103.82868,1.25715],[103.82875,1.25702],[103.82932,1.25679],[103.82971,1.25685],[103.8305,1.25675],[103.8306,1.25703],[103.83089,1.25693],[103.83106,1.25744],[103.8319,1.25716],[103.83173,1.25665],[103.83126,1.25642],[103.83507,1.25521],[103.83637,1.25481],[103.8392,1.2562],[103.83927,1.25604],[103.84014,1.2565],[103.84007,1.25663],[103.84241,1.25779],[103.84248,1.2579],[103.83619,1.26381],[103.83588,1.26384],[103.83049,1.26365],[103.83042,1.26363],[103.82443,1.26021],[103.82421,1.26076],[103.82411,1.26128],[103.82412,1.26308],[103.82469,1.26319],[103.82565,1.26373],[103.83208,1.26741],[103.83296,1.26745],[103.83892,1.26766],[103.83945,1.26762],[103.8452,1.2622],[103.8459,1.26156],[103.84599,1.26156],[103.84673,1.26236],[103.84672,1.26245],[103.84428,1.26554],[103.8457,1.26684],[103.84788,1.2644],[103.85117,1.26074],[103.85126,1.26073],[103.85207,1.26147],[103.85067,1.26304],[103.85122,1.26354],[103.85176,1.26354],[103.85175,1.26386],[103.85157,1.26414],[103.85156,1.26926],[103.85016,1.27008],[103.84885,1.27098],[103.84776,1.27169],[103.84728,1.27193],[103.84661,1.27215],[103.84557,1.27236],[103.84568,1.27256],[103.84514,1.27262],[103.84409,1.27263],[103.84215,1.27259],[103.84137,1.27415],[103.84113,1.27472],[103.84089,1.27573],[103.8406,1.27755],[103.84046,1.27798],[103.83983,1.27917],[103.83924,1.28079],[103.83897,1.28115],[103.83859,1.28147],[103.83676,1.28261],[103.83641,1.28287],[103.83549,1.28382],[103.83534,1.28407],[103.83491,1.28515],[103.83476,1.28585],[103.8348,1.28637],[103.835,1.28727],[103.83506,1.28846],[103.83501,1.28922],[103.83492,1.28958],[103.83343,1.29237],[103.83181,1.29215],[103.83114,1.29207],[103.83072,1.29215],[103.8286,1.29272],[103.82611,1.29243],[103.82506,1.2922],[103.82439,1.29193],[103.82162,1.29357],[103.8191,1.29381],[103.81887,1.29393],[103.81787,1.29393],[103.8174,1.29433],[103.81706,1.29436],[103.81677,1.29422],[103.81598,1.29411],[103.81536,1.29152],[103.81394,1.29177],[103.81196,1.29208],[103.80958,1.29248],[103.80887,1.29239],[103.80813,1.29161],[103.80507,1.288],[103.80488,1.28785],[103.80319,1.28677],[103.80274,1.28619],[103.8019,1.28469],[103.80139,1.28367],[103.80126,1.28321],[103.8013,1.28278],[103.80192,1.2815],[103.80275,1.27991],[103.80313,1.27893],[103.80289,1.27795],[103.80218,1.27607],[103.80196,1.27493],[103.80221,1.27269],[103.80185,1.27271],[103.80186,1.27246],[103.80073,1.27061],[103.80028,1.27008],[103.79921,1.2682],[103.79972,1.26763],[103.80059,1.26696],[103.80091,1.2668],[103.8013,1.26645],[103.801,1.26589],[103.80243,1.26481],[103.80413,1.2631],[103.80514,1.2623],[103.80537,1.26252],[103.80544,1.26293],[103.80538,1.26374],[103.80553,1.26376],[103.80653,1.26469],[103.80628,1.26501],[103.80722,1.26588],[103.80758,1.26548],[103.80827,1.2651],[103.80887,1.26501],[103.80989,1.26523],[103.81019,1.26499],[103.81119,1.2664],[103.8124,1.26642],[103.81301,1.2662],[103.81336,1.26595],[103.81494,1.26451],[103.81475,1.26439],[103.81313,1.26369],[103.81277,1.26425],[103.81245,1.26426],[103.81226,1.26476],[103.81192,1.26495],[103.81133,1.26468],[103.81108,1.26406],[103.81047,1.26388],[103.81027,1.26363],[103.81033,1.26321],[103.81063,1.26296],[103.8112,1.26295],[103.81131,1.26258],[103.81154,1.26272],[103.81342,1.26298],[103.81311,1.26353],[103.81341,1.26363],[103.81488,1.26428],[103.81505,1.26441],[103.81576,1.26384],[103.81957,1.26324],[103.81972,1.26294],[103.81971,1.26225],[103.81963,1.26217],[103.81806,1.26218],[103.81806,1.26196],[103.81986,1.26195],[103.81991,1.26309],[103.82326,1.26307],[103.82342,1.26213],[103.82336,1.26059],[103.82319,1.26024],[103.82323,1.25961],[103.82335,1.25946],[103.8232,1.25864],[103.82347,1.25851],[103.82348,1.25905],[103.82361,1.26018]]]},"properties":{"area_code":"BM","area_name":"Bukit Merah","area_unit_id":"sg-pa-2019-ura-mp2019:BM","boundary_set_id":"sg-pa-2019-ura-mp2019","boundary_level":"planning_area","region_name":"Central Region","region_code":"CR","land_area_sq_km":14.461199257726749}},
{"type":"Feature","geometry":{"type":"Polygon","coordinates":[[[103.77038,1.34902],[103.77104,1.34791],[103.77188,1.3466],[103.77223,1.34623],[103.77263,1.34598],[103.77553,1.34434],[103.77621,1.34377],[103.77783,1.34186],[103.77836,1.34217],[103.77947,1.34249],[103.77995,1.34249],[103.78113,1.34227],[103.78192,1.3425],[103.78377,1.3431],[103.78657,1.3443],[103.78737,1.34471],[103.78793,1.34519],[103.78831,1.34569],[103.78621,1.34853],[103.78676,1.34866],[103.78771,1.34937],[103.78777,1.34894],[103.78927,1.34912],[103.78938,1.34907],[103.78945,1.34801],[103.78982,1.34846],[103.7904,1.34886],[103.79166,1.34927],[103.7905,1.35111],[103.78939,1.35229],[103.78893,1.3527],[103.7884,1.35306],[103.78557,1.35486],[103.78445,1.35574],[103.78366,1.35648],[103.78246,1.35786],[103.78158,1.3591],[103.78123,1.35975],[103.78064,1.36107],[103.78026,1.36216],[103.77987,1.36378],[103.77951,1.3661],[103.77918,1.36799],[103.77851,1.37074],[103.77718,1.37548],[103.77598,1.37983],[103.77536,1.38311],[103.77445,1.39029],[103.77181,1.39037],[103.76937,1.3906],[103.76587,1.39081],[103.76496,1.39077],[103.76221,1.39037],[103.76148,1.39018],[103.75893,1.38923],[103.7581,1.38903],[103.75733,1.38892],[103.75513,1.38887],[103.7554,1.38826],[103.756,1.38719],[103.75682,1.38603],[103.75738,1.38531],[103.75831,1.38428],[103.75888,1.38373],[103.75943,1.38304],[103.76021,1.38165],[103.76124,1.37967],[103.76189,1.37842],[103.76209,1.37781],[103.76233,1.37671],[103.76283,1.3736],[103.76328,1.37161],[103.76385,1.37036],[103.76539,1.36796],[103.76672,1.36605],[103.76745,1.3648],[103.76765,1.36406],[103.76761,1.36318],[103.76715,1.36159],[103.76709,1.36054],[103.76746,1.35787],[103.76781,1.35702],[103.7684,1.35619],[103.76876,1.35559],[103.7693,1.35411],[103.76967,1.35299],[103.7698,1.35244],[103.77006,1.35049],[103.77022,1.34948],[103.77038,1.34902]]]},"properties":{"area_code":"BP","area_name":"Bukit Panjang","area_unit_id":"sg-pa-2019-ura-mp2019:BP","boundary_set_id":"sg-pa-2019-ura-mp2019","boundary_level":"planning_area","region_name":"West Region","region_code":"WR","land_area_sq_km":9.019939837464863}},
{"type":"Feature","geometry":{"type":"Polygon","coordinates":[[[103.76461,1.33282],[103.76505,1.3321],[103.76571,1.33167],[103.76608,1.33167],[103.76708,1.33119],[103.76763,1.33144],[103.76815,1.3312],[103.76879,1.33052],[103.76912,1.32999],[103.77054,1.32943],[103.77565,1.32643],[103.77531,1.32586],[103.77462,1.32524],[103.77419,1.32505],[103.77327,1.32477],[103.77267,1.32428],[103.7711,1.32189],[103.77085,1.32127],[103.77078,1.32052],[103.7712,1.31873],[103.7719,1.31818],[103.77599,1.3153],[103.77763,1.31413],[103.77868,1.31309],[103.77927,1.31286],[103.78165,1.31229],[103.78388,1.3114],[103.7846,1.31109],[103.78488,1.31127],[103.78534,1.31115],[103.78528,1.31195],[103.78566,1.31294],[103.78564,1.31335],[103.78581,1.31362],[103.78559,1.31444],[103.78505,1.31448],[103.78479,1.31501],[103.78668,1.3158],[103.78719,1.31511],[103.7877,1.31459],[103.7896,1.31328],[103.79053,1.31192],[103.79086,1.31082],[103.79109,1.31104],[103.79132,1.31149],[103.79313,1.31339],[103.79481,1.3123],[103.79534,1.31211],[103.79611,1.31208],[103.79579,1.31059],[103.79553,1.30992],[103.79604,1.30993],[103.7968,1.30965],[103.7975,1.30878],[103.79684,1.30797],[103.7977,1.30725],[103.79842,1.30692],[103.79934,1.3085],[103.79976,1.30965],[103.80032,1.30874],[103.80211,1.30731],[103.80228,1.30724],[103.80335,1.31019],[103.80405,1.31256],[103.80464,1.31437],[103.80519,1.31522],[103.80679,1.31669],[103.80801,1.31776],[103.80899,1.3187],[103.80955,1.31907],[103.81126,1.31991],[103.81159,1.32014],[103.81276,1.3214],[103.81303,1.32183],[103.81336,1.32329],[103.81369,1.32501],[103.81383,1.32654],[103.81387,1.3275],[103.81396,1.32824],[103.81414,1.32877],[103.816,1.33184],[103.81661,1.33275],[103.81807,1.33459],[103.81827,1.33493],[103.81862,1.33579],[103.81807,1.33588],[103.81673,1.33636],[103.81605,1.33727],[103.81519,1.33779],[103.81499,1.33813],[103.81458,1.33835],[103.81391,1.33821],[103.81355,1.33821],[103.81241,1.33892],[103.81165,1.33957],[103.81169,1.34045],[103.80986,1.34091],[103.8099,1.34174],[103.80858,1.34181],[103.80737,1.34103],[103.80681,1.34133],[103.80585,1.34109],[103.80514,1.34134],[103.80421,1.34135],[103.79966,1.34613],[103.7985,1.34738],[103.79766,1.34813],[103.79708,1.34854],[103.79644,1.34888],[103.79527,1.3493],[103.79403,1.34953],[103.79342,1.34954],[103.79244,1.34946],[103.79166,1.34927],[103.7904,1.34886],[103.78982,1.34846],[103.78945,1.34801],[103.78938,1.34907],[103.78927,1.34912],[103.78777,1.34894],[103.78771,1.34937],[103.78676,1.34866],[103.78621,1.34853],[103.78831,1.34569],[103.78793,1.34519],[103.78737,1.34471],[103.78657,1.3443],[103.78377,1.3431],[103.78192,1.3425],[103.78113,1.34227],[103.77995,1.34249],[103.77947,1.34249],[103.77836,1.34217],[103.77783,1.34186],[103.77621,1.34377],[103.77553,1.34434],[103.77263,1.34598],[103.77223,1.34623],[103.77188,1.3466],[103.77104,1.34791],[103.77038,1.34902],[103.76842,1.34792],[103.76731,1.34734],[103.76655,1.34721],[103.76583,1.34727],[103.7649,1.34715],[103.76318,1.34671],[103.76382,1.34575],[103.7642,1.34502],[103.76537,1.34462],[103.76575,1.34369],[103.76649,1.34331],[103.76713,1.34279],[103.76686,1.34267],[103.7669,1.34222],[103.76512,1.34211],[103.76469,1.33958],[103.76415,1.33936],[103.76416,1.33857],[103.7645,1.33661],[103.76533,1.33545],[103.7656,1.33578],[103.76564,1.33245],[103.76461,1.33282]]]},"properties":{"area_code":"BT","area_name":"Bukit Timah","area_unit_id":"sg-pa-2019-ura-mp2019:BT","boundary_set_id":"sg-pa-2019-ura-mp2019","boundary_level":"planning_area","region_name":"Central Region","region_code":"CR","land_area_sq_km":17.514947115618302}},
{"type":"Feature","geometry":{"type":"Polygon","coordinates":[[[103.76124,1.37967],[103.76021,1.38165],[103.75943,1.38304],[103.75888,1.38373],[103.75831,1.38428],[103.75738,1.38531],[103.75682,1.38603],[103.756,1.38719],[103.7554,1.38826],[103.75513,1.38887],[103.75332,1.389],[103.7532,1.39028],[103.7524,1.39555],[103.75211,1.3973],[103.75199,1.39837],[103.75198,1.39911],[103.75213,1.40031],[103.75232,1.4012],[103.75285,1.40281],[103.75265,1.40352],[103.75234,1.40405],[103.75167,1.40467],[103.75126,1.40486],[103.75049,1.40507],[103.74911,1.40534],[103.74824,1.40543],[103.74691,1.4054],[103.74602,1.40549],[103.74521,1.40461],[103.74454,1.40382],[103.74391,1.40273],[103.74365,1.4021],[103.74339,1.40105],[103.74311,1.39876],[103.74283,1.39677],[103.74254,1.39572],[103.74207,1.39471],[103.74072,1.39253],[103.74047,1.39204],[103.7402,1.39108],[103.74016,1.39035],[103.74022,1.3898],[103.74041,1.38912],[103.74157,1.38661],[103.73771,1.3833],[103.73469,1.38073],[103.73373,1.37985],[103.73267,1.37893],[103.73354,1.37798],[103.73441,1.37696],[103.7354,1.37604],[103.7376,1.37432],[103.73837,1.37383],[103.73926,1.37341],[103.74015,1.37306],[103.74182,1.37256],[103.74262,1.37241],[103.74509,1.37188],[103.74571,1.37156],[103.74849,1.36905],[103.75128,1.37173],[103.75168,1.37222],[103.75195,1.37269],[103.75227,1.37346],[103.75271,1.37479],[103.75297,1.37521],[103.75381,1.37628],[103.75429,1.37663],[103.75575,1.37711],[103.75705,1.37783],[103.7579,1.37825],[103.75944,1.37888],[103.76124,1.37967]]]},"properties":{"area_code":"CK","area_name":"Choa Chu Kang","area_unit_id":"sg-pa-2019-ura-mp2019:CK","boundary_set_id":"sg-pa-2019-ura-mp2019","boundary_level":"planning_area","region_name":"West Region","region_code":"WR","land_area_sq_km":6.1172940961133255}},
{"type":"Feature","geometry":{"type":"Polygon","coordinates":[[[103.74942,1.34127],[103.74867,1.33991],[103.74866,1.33907],[103.7494,1.33231],[103.7497,1.3295],[103.74978,1.32901],[103.74999,1.32708],[103.75019,1.32632],[103.75218,1.3229],[103.75161,1.32096],[103.75125,1.32016],[103.74945,1.31708],[103.74763,1.31375],[103.74747,1.31275],[103.74749,1.3117],[103.74769,1.30993],[103.7478,1.30948],[103.7482,1.3093],[103.74881,1.30944],[103.74914,1.30943],[103.75023,1.30916],[103.75112,1.30873],[103.75275,1.30761],[103.75343,1.30678],[103.75532,1.30225],[103.75728,1.29837],[103.75857,1.29929],[103.75867,1.29922],[103.76102,1.30103],[103.76214,1.30134],[103.76233,1.30133],[103.76368,1.29844],[103.7661,1.29316],[103.76645,1.29257],[103.76695,1.29199],[103.76737,1.29165],[103.76833,1.29285],[103.7691,1.29387],[103.76945,1.29463],[103.76963,1.2955],[103.76958,1.2962],[103.76965,1.29753],[103.76978,1.29822],[103.76982,1.30012],[103.76993,1.30063],[103.77061,1.3018],[103.77102,1.30286],[103.77117,1.30349],[103.77128,1.30656],[103.77151,1.30815],[103.77195,1.31011],[103.77217,1.31136],[103.77227,1.31258],[103.77194,1.31512],[103.77175,1.31644],[103.77139,1.31804],[103.7712,1.31873],[103.77078,1.32052],[103.77085,1.32127],[103.7711,1.32189],[103.77267,1.32428],[103.77327,1.32477],[103.77419,1.32505],[103.77462,1.32524],[103.77531,1.32586],[103.77565,1.32643],[103.77054,1.32943],[103.76912,1.32999],[103.76879,1.33052],[103.76815,1.3312],[103.76763,1.33144],[103.76708,1.33119],[103.76608,1.33167],[103.76571,1.33167],[103.76505,1.3321],[103.76461,1.33282],[103.76092,1.33474],[103.75674,1.33712],[103.75452,1.33832],[103.75284,1.33927],[103.75011,1.34089],[103.74942,1.34127]]]},"properties":{"area_code":"CL","area_name":"Clementi","area_unit_id":"sg-pa-2019-ura-mp2019:CL","boundary_set_id":"sg-pa-2019-ura-mp2019","boundary_level":"planning_area","region_name":"West Region","region_code":"WR","land_area_sq_km":9.521328117868102}},
{"type":"Feature","geometry":{"type":"Polygon","coordinates":[[[103.85156,1.26926],[103.85249,1.26872],[103.85453,1.27195],[103.85699,1.2758],[103.85743,1.27644],[103.85843,1.27804],[103.85998,1.28043],[103.86068,1.2817],[103.86103,1.28258],[103.86131,1.28347],[103.86147,1.28441],[103.86153,1.2851],[103.86161,1.28856],[103.86377,1.28845],[103.86429,1.28854],[103.86473,1.28885],[103.86498,1.28931],[103.86502,1.28976],[103.86473,1.29203],[103.86445,1.29401],[103.86532,1.29417],[103.86523,1.29607],[103.86525,1.29701],[103.86535,1.29766],[103.86557,1.29839],[103.86608,1.29903],[103.86781,1.30063],[103.8682,1.3011],[103.86858,1.3017],[103.86901,1.30264],[103.86908,1.3032],[103.86888,1.30377],[103.86851,1.30433],[103.86696,1.30333],[103.86615,1.30436],[103.86488,1.30325],[103.86425,1.30278],[103.86252,1.30169],[103.86228,1.30158],[103.86166,1.30126],[103.86036,1.3005],[103.85942,1.29978],[103.85877,1.30051],[103.85789,1.30125],[103.85619,1.30248],[103.85548,1.30276],[103.8549,1.30288],[103.85446,1.30309],[103.85407,1.30292],[103.85403,1.30271],[103.85464,1.30182],[103.85585,1.30063],[103.85439,1.29893],[103.8526,1.29671],[103.85079,1.29479],[103.8505,1.29439],[103.84957,1.29251],[103.84934,1.29191],[103.84868,1.29062],[103.84806,1.28982],[103.84938,1.28903],[103.84984,1.28822],[103.85041,1.28688],[103.85082,1.2863],[103.85013,1.28579],[103.84954,1.28557],[103.84777,1.28641],[103.84718,1.28543],[103.84913,1.28432],[103.84966,1.2838],[103.84928,1.28344],[103.84852,1.28221],[103.84919,1.28181],[103.84872,1.28105],[103.84858,1.28113],[103.84758,1.27953],[103.84697,1.27982],[103.84649,1.27994],[103.84621,1.28019],[103.84593,1.28075],[103.84539,1.28017],[103.8452,1.28088],[103.84477,1.28134],[103.84433,1.28076],[103.84405,1.28061],[103.84519,1.27916],[103.84452,1.27551],[103.8433,1.27569],[103.84306,1.27456],[103.84189,1.27482],[103.84137,1.27415],[103.84215,1.27259],[103.84409,1.27263],[103.84514,1.27262],[103.84568,1.27256],[103.84557,1.27236],[103.84661,1.27215],[103.84728,1.27193],[103.84776,1.27169],[103.84885,1.27098],[103.85016,1.27008],[103.85156,1.26926]]]},"properties":{"area_code":"DT","area_name":"Downtown Core","area_unit_id":"sg-pa-2019-ura-mp2019:DT","boundary_set_id":"sg-pa-2019-ura-mp2019","boundary_level":"planning_area","region_name":"Central Region","region_code":"CR","land_area_sq_km":5.0836369551958205}},
{"type":"Feature","geometry":{"type":"Polygon","coordinates":[[[103.89618,1.3378],[103.89538,1.3369],[103.89441,1.33608],[103.89324,1.33528],[103.8924,1.33482],[103.8915,1.33439],[103.89061,1.33405],[103.88887,1.33356],[103.88766,1.33326],[103.88526,1.33271],[103.8798,1.33153],[103.87849,1.33115],[103.87589,1.33028],[103.86891,1.32789],[103.86874,1.32782],[103.86994,1.32699],[103.87059,1.3264],[103.87115,1.32576],[103.87198,1.32471],[103.87271,1.32372],[103.87452,1.32119],[103.87508,1.32061],[103.87592,1.32007],[103.87552,1.31961],[103.87508,1.31875],[103.87483,1.31743],[103.87471,1.31658],[103.87471,1.31615],[103.87489,1.31408],[103.87502,1.31318],[103.87528,1.31178],[103.87563,1.31042],[103.876,1.3088],[103.8775,1.30825],[103.87822,1.30793],[103.88082,1.30693],[103.88108,1.30678],[103.88319,1.30512],[103.8838,1.30454],[103.88435,1.30515],[103.88474,1.30536],[103.88532,1.30552],[103.88742,1.30588],[103.88856,1.30605],[103.88954,1.30625],[103.89006,1.30669],[103.89008,1.30726],[103.88972,1.30859],[103.89462,1.30958],[103.89981,1.30947],[103.9015,1.30954],[103.90211,1.30995],[103.90465,1.31183],[103.90671,1.31332],[103.90609,1.31471],[103.90523,1.31687],[103.90509,1.3176],[103.90494,1.3193],[103.90506,1.32052],[103.90532,1.32245],[103.90585,1.3266],[103.90584,1.32719],[103.90566,1.32802],[103.90547,1.32849],[103.90482,1.32945],[103.90147,1.33268],[103.89618,1.3378]]]},"properties":{"area_code":"GL","area_name":"Geylang","area_unit_id":"sg-pa-2019-ura-mp2019:GL","boundary_set_id":"sg-pa-2019-ura-mp2019","boundary_level":"planning_area","region_name":"Central Region","region_code":"CR","land_area_sq_km":9.644797062363926}},
{"type":"Feature","geometry":{"type":"Polygon","coordinates":[[[103.89794,1.34036],[103.89868,1.34172],[103.89913,1.34311],[103.89915,1.34428],[103.89889,1.34568],[103.89836,1.34744],[103.89619,1.34677],[103.89533,1.34719],[103.89537,1.34729],[103.89382,1.34783],[103.8935,1.34876],[103.89408,1.35016],[103.89573,1.35401],[103.897,1.35346],[103.89725,1.3536],[103.89814,1.35572],[103.89829,1.35601],[103.89875,1.35631],[103.89917,1.35632],[103.89966,1.35617],[103.90008,1.35696],[103.90162,1.35715],[103.90198,1.35716],[103.90365,1.36023],[103.90461,1.36196],[103.90611,1.36475],[103.90647,1.36562],[103.90679,1.36655],[103.90889,1.37304],[103.90945,1.37465],[103.91005,1.37586],[103.90852,1.37815],[103.90794,1.37869],[103.90742,1.37909],[103.9063,1.3798],[103.90506,1.38035],[103.9042,1.38043],[103.90353,1.38035],[103.89963,1.37977],[103.8971,1.37938],[103.89667,1.37941],[103.89537,1.3799],[103.89456,1.38002],[103.89346,1.37999],[103.89147,1.38011],[103.89089,1.3803],[103.89035,1.38066],[103.88897,1.38182],[103.88867,1.38211],[103.88576,1.38458],[103.88368,1.38631],[103.88324,1.38664],[103.88152,1.38774],[103.88059,1.38823],[103.87983,1.38852],[103.87881,1.38868],[103.87793,1.38867],[103.87698,1.38848],[103.87594,1.3881],[103.87475,1.3876],[103.87413,1.38744],[103.87311,1.38734],[103.87419,1.38659],[103.87487,1.38601],[103.87609,1.38488],[103.87638,1.38455],[103.87678,1.38366],[103.87691,1.38245],[103.87692,1.38158],[103.87675,1.38047],[103.87673,1.37894],[103.8768,1.3778],[103.87699,1.37564],[103.87699,1.3742],[103.87669,1.37162],[103.87636,1.36967],[103.87608,1.36855],[103.87559,1.36728],[103.87479,1.36551],[103.87369,1.3633],[103.87344,1.36289],[103.87327,1.36218],[103.87403,1.35896],[103.87449,1.35828],[103.87489,1.35794],[103.87534,1.35743],[103.87597,1.35632],[103.87718,1.35471],[103.87807,1.35388],[103.87649,1.35243],[103.8768,1.35211],[103.87734,1.35188],[103.87807,1.35176],[103.87866,1.35153],[103.87923,1.35103],[103.88001,1.34936],[103.8803,1.34846],[103.88036,1.34787],[103.88042,1.3473],[103.88061,1.34683],[103.88123,1.34613],[103.88239,1.34452],[103.88272,1.34394],[103.88313,1.34294],[103.88363,1.34223],[103.88422,1.34171],[103.88506,1.34086],[103.88618,1.33953],[103.8866,1.33893],[103.88708,1.33798],[103.88772,1.33652],[103.88837,1.33514],[103.88887,1.33356],[103.89061,1.33405],[103.8915,1.33439],[103.8924,1.33482],[103.89324,1.33528],[103.89441,1.33608],[103.89538,1.3369],[103.89618,1.3378],[103.89684,1.33866],[103.89794,1.34036]]]},"properties":{"area_code":"HG","area_name":"Hougang","area_unit_id":"sg-pa-2019-ura-mp2019:HG","boundary_set_id":"sg-pa-2019-ura-mp2019","boundary_level":"planning_area","region_name":"North-East Region","region_code":"NER","land_area_sq_km":13.933044834746712}},
{"type":"Feature","geometry":{"type":"Polygon","coordinates":[[[103.73726,1.346],[103.73662,1.34642],[103.736,1.34695],[103.73444,1.34869],[103.7321,1.35111],[103.73132,1.35173],[103.72814,1.35361],[103.72812,1.35027],[103.72816,1.34436],[103.72724,1.34436],[103.72667,1.34444],[103.72492,1.3449],[103.72365,1.34502],[103.72255,1.34502],[103.72185,1.34492],[103.72188,1.3441],[103.72172,1.34356],[103.7214,1.34278],[103.7214,1.34223],[103.72161,1.34161],[103.72184,1.34138],[103.72245,1.34102],[103.72316,1.34035],[103.72344,1.33993],[103.72479,1.33757],[103.72508,1.33677],[103.72509,1.33633],[103.72497,1.33204],[103.72481,1.33009],[103.72478,1.32868],[103.72493,1.32783],[103.72563,1.32606],[103.72601,1.32503],[103.72181,1.32414],[103.7196,1.32359],[103.72018,1.32099],[103.72033,1.32],[103.72034,1.31899],[103.72024,1.31812],[103.71948,1.31431],[103.71789,1.31462],[103.71242,1.31425],[103.71047,1.31415],[103.70981,1.31409],[103.70997,1.31305],[103.71008,1.31168],[103.71002,1.31033],[103.70983,1.31035],[103.70977,1.30944],[103.70982,1.30795],[103.71003,1.30797],[103.71081,1.30841],[103.7112,1.30783],[103.71139,1.30724],[103.71144,1.30669],[103.71134,1.29736],[103.71185,1.29736],[103.71188,1.29961],[103.71885,1.29953],[103.72196,1.29948],[103.72197,1.2998],[103.7204,1.29981],[103.72083,1.3005],[103.72067,1.30089],[103.72092,1.30118],[103.71635,1.30505],[103.71536,1.3059],[103.71453,1.3063],[103.71373,1.3064],[103.71278,1.30641],[103.71253,1.30657],[103.71221,1.30727],[103.7122,1.30844],[103.71585,1.30842],[103.72251,1.30276],[103.72675,1.30067],[103.72761,1.30027],[103.72786,1.30036],[103.72965,1.30163],[103.73013,1.30152],[103.73064,1.30124],[103.73103,1.30118],[103.73209,1.30087],[103.73261,1.30086],[103.73344,1.30055],[103.73395,1.30052],[103.73425,1.30035],[103.73476,1.30035],[103.73573,1.30012],[103.73667,1.29979],[103.73709,1.29979],[103.73789,1.29948],[103.73927,1.29936],[103.73983,1.29919],[103.7398,1.29903],[103.74086,1.29881],[103.74343,1.30132],[103.7437,1.30099],[103.74483,1.30088],[103.74389,1.29909],[103.74382,1.29873],[103.74391,1.2983],[103.74415,1.29805],[103.74529,1.29756],[103.74603,1.29737],[103.74665,1.29709],[103.74695,1.29712],[103.7475,1.29683],[103.74847,1.29679],[103.74908,1.2965],[103.75025,1.29658],[103.75045,1.29668],[103.75111,1.29667],[103.75158,1.29679],[103.752,1.2967],[103.75434,1.29707],[103.75536,1.29716],[103.75579,1.29733],[103.75728,1.29837],[103.75532,1.30225],[103.75343,1.30678],[103.75275,1.30761],[103.75112,1.30873],[103.75023,1.30916],[103.74914,1.30943],[103.74881,1.30944],[103.7482,1.3093],[103.7478,1.30948],[103.74769,1.30993],[103.74749,1.3117],[103.74747,1.31275],[103.74763,1.31375],[103.74945,1.31708],[103.75125,1.32016],[103.75161,1.32096],[103.75218,1.3229],[103.75019,1.32632],[103.74999,1.32708],[103.74978,1.32901],[103.7497,1.3295],[103.7494,1.33231],[103.74866,1.33907],[103.74867,1.33991],[103.74942,1.34127],[103.7453,1.34364],[103.74401,1.3443],[103.7435,1.34451],[103.74242,1.34484],[103.741,1.34504],[103.73974,1.34509],[103.73854,1.34539],[103.73781,1.3457],[103.73726,1.346]],[[103.71181,1.30768],[103.71153,1.3083],[103.71123,1.30872],[103.71142,1.30889],[103.71202,1.30896],[103.71202,1.30766],[103.71181,1.30768]]]},"properties":{"area_code":"JE","area_name":"Jurong East","area_unit_id":"sg-pa-2019-ura-mp2019:JE","boundary_set_id":"sg-pa-2019-ura-mp2019","boundary_level":"planning_area","region_name":"West Region","region_code":"WR","land_area_sq_km":17.860056758085598}},
{"type":"Feature","geometry":{"type":"Polygon","coordinates":[[[103.72814,1.35361],[103.72674,1.35431],[103.72553,1.35484],[103.72506,1.355],[103.72332,1.35543],[103.72236,1.3555],[103.71983,1.3556],[103.71846,1.35571],[103.71746,1.35592],[103.71492,1.35695],[103.71407,1.35743],[103.71255,1.3587],[103.71142,1.35969],[103.70931,1.36161],[103.70625,1.36435],[103.70487,1.36307],[103.70399,1.36216],[103.7022,1.36014],[103.7003,1.3579],[103.697,1.35404],[103.69466,1.35076],[103.6937,1.34949],[103.69255,1.34809],[103.69169,1.3472],[103.69031,1.34591],[103.68788,1.34403],[103.68604,1.34258],[103.68272,1.34001],[103.68188,1.3396],[103.68134,1.33948],[103.68049,1.33948],[103.67981,1.33939],[103.67903,1.33918],[103.67825,1.33873],[103.67765,1.33808],[103.67722,1.33723],[103.67566,1.33231],[103.67536,1.33158],[103.67493,1.33105],[103.67529,1.33073],[103.6759,1.3305],[103.67945,1.3302],[103.67934,1.32777],[103.69365,1.32777],[103.69578,1.32776],[103.70592,1.32776],[103.7067,1.32777],[103.70775,1.32804],[103.71248,1.32911],[103.71396,1.32952],[103.71541,1.32996],[103.71941,1.33114],[103.72106,1.33165],[103.72115,1.33092],[103.72112,1.33028],[103.721,1.32955],[103.72066,1.32865],[103.71937,1.32648],[103.71918,1.32583],[103.7192,1.32538],[103.7196,1.32359],[103.72181,1.32414],[103.72601,1.32503],[103.72563,1.32606],[103.72493,1.32783],[103.72478,1.32868],[103.72481,1.33009],[103.72497,1.33204],[103.72509,1.33633],[103.72508,1.33677],[103.72479,1.33757],[103.72344,1.33993],[103.72316,1.34035],[103.72245,1.34102],[103.72184,1.34138],[103.72161,1.34161],[103.7214,1.34223],[103.7214,1.34278],[103.72172,1.34356],[103.72188,1.3441],[103.72185,1.34492],[103.72255,1.34502],[103.72365,1.34502],[103.72492,1.3449],[103.72667,1.34444],[103.72724,1.34436],[103.72816,1.34436],[103.72812,1.35027],[103.72814,1.35361]]]},"properties":{"area_code":"JW","area_name":"Jurong West","area_unit_id":"sg-pa-2019-ura-mp2019:JW","boundary_set_id":"sg-pa-2019-ura-mp2019","boundary_level":"planning_area","region_name":"West Region","region_code":"WR","land_area_sq_km":14.680359453953368}},
{"type":"Feature","geometry":{"type":"Polygon","coordinates":[[[103.86532,1.29417],[103.87013,1.29506],[103.87162,1.29525],[103.87275,1.29536],[103.87767,1.29552],[103.88106,1.29563],[103.88149,1.29566],[103.88533,1.29576],[103.8853,1.29733],[103.88535,1.29852],[103.88552,1.30091],[103.88552,1.3012],[103.8853,1.30173],[103.88473,1.3026],[103.8845,1.30353],[103.88417,1.30412],[103.8838,1.30454],[103.88319,1.30512],[103.88108,1.30678],[103.88082,1.30693],[103.87822,1.30793],[103.8775,1.30825],[103.876,1.3088],[103.87563,1.31042],[103.87528,1.31178],[103.87502,1.31318],[103.87489,1.31408],[103.87471,1.31615],[103.87471,1.31658],[103.87483,1.31743],[103.87508,1.31875],[103.87552,1.31961],[103.87592,1.32007],[103.87508,1.32061],[103.87452,1.32119],[103.87271,1.32372],[103.87198,1.32471],[103.87115,1.32576],[103.87059,1.3264],[103.86994,1.32699],[103.86874,1.32782],[103.86831,1.32809],[103.86728,1.32857],[103.86538,1.3292],[103.86304,1.3302],[103.86235,1.33044],[103.86233,1.32956],[103.86218,1.32863],[103.86184,1.32772],[103.86117,1.32662],[103.8609,1.32632],[103.85764,1.32322],[103.85633,1.32167],[103.85574,1.32109],[103.85452,1.32017],[103.85374,1.3197],[103.85215,1.31885],[103.85079,1.31821],[103.8483,1.31708],[103.84786,1.31682],[103.84715,1.31629],[103.84634,1.31549],[103.84578,1.31477],[103.84555,1.31435],[103.84507,1.31306],[103.84432,1.31056],[103.84495,1.31034],[103.84577,1.30984],[103.84701,1.30819],[103.8474,1.30774],[103.84876,1.30662],[103.84991,1.30811],[103.85065,1.30911],[103.85113,1.30874],[103.85248,1.31052],[103.85269,1.3109],[103.85309,1.312],[103.8535,1.31273],[103.85388,1.31318],[103.85437,1.31361],[103.85478,1.31272],[103.85541,1.31181],[103.85447,1.31062],[103.85714,1.30819],[103.85871,1.30682],[103.85963,1.30583],[103.8602,1.30501],[103.8611,1.3035],[103.86228,1.30158],[103.86252,1.30169],[103.86425,1.30278],[103.86488,1.30325],[103.86615,1.30436],[103.86696,1.30333],[103.86851,1.30433],[103.86888,1.30377],[103.86908,1.3032],[103.86901,1.30264],[103.86858,1.3017],[103.8682,1.3011],[103.86781,1.30063],[103.86608,1.29903],[103.86557,1.29839],[103.86535,1.29766],[103.86525,1.29701],[103.86523,1.29607],[103.86532,1.29417]]]},"properties":{"area_code":"KL","area_name":"Kallang","area_unit_id":"sg-pa-2019-ura-mp2019:KL","boundary_set_id":"sg-pa-2019-ura-mp2019","boundary_level":"planning_area","region_name":"Central Region","region_code":"CR","land_area_sq_km":8.584702866062617}},
{"type":"Feature","geometry":{"type":"Polygon","coordinates":[[[103.90671,1.31332],[103.90465,1.31183],[103.90211,1.30995],[103.9015,1.30954],[103.89981,1.30947],[103.89462,1.30958],[103.88972,1.30859],[103.89008,1.30726],[103.89006,1.30669],[103.88954,1.30625],[103.88856,1.30605],[103.88742,1.30588],[103.88532,1.30552],[103.88474,1.30536],[103.88435,1.30515],[103.8838,1.30454],[103.88417,1.30412],[103.8845,1.30353],[103.88473,1.3026],[103.8853,1.30173],[103.88552,1.3012],[103.88552,1.30091],[103.88535,1.29852],[103.8853,1.29733],[103.88533,1.29576],[103.88149,1.29566],[103.88106,1.29563],[103.87767,1.29552],[103.8771,1.29523],[103.87649,1.29467],[103.87588,1.29366],[103.87567,1.29319],[103.87544,1.29214],[103.87543,1.29147],[103.87566,1.29102],[103.877,1.2895],[103.8783,1.28797],[103.88103,1.2849],[103.88361,1.28762],[103.88409,1.28801],[103.88484,1.28808],[103.88548,1.28782],[103.88605,1.28832],[103.88605,1.28858],[103.88709,1.28951],[103.88857,1.29076],[103.8889,1.29087],[103.88954,1.29079],[103.89016,1.29044],[103.89075,1.29101],[103.89078,1.29127],[103.89309,1.29339],[103.89376,1.29366],[103.89438,1.29357],[103.89489,1.29324],[103.89552,1.29376],[103.89562,1.29403],[103.8973,1.29482],[103.89922,1.29557],[103.90059,1.29585],[103.90113,1.29615],[103.90234,1.29654],[103.90408,1.29722],[103.90435,1.29739],[103.90564,1.29777],[103.90689,1.29801],[103.90814,1.29821],[103.91033,1.29877],[103.91111,1.29893],[103.91189,1.29917],[103.91267,1.29949],[103.91336,1.29984],[103.91457,1.30056],[103.91549,1.30073],[103.91619,1.30122],[103.91711,1.30165],[103.91769,1.30184],[103.91797,1.30167],[103.91868,1.30191],[103.91951,1.30199],[103.91908,1.30425],[103.91859,1.30656],[103.91826,1.30747],[103.91695,1.30724],[103.91598,1.30703],[103.91188,1.30601],[103.91055,1.30574],[103.90998,1.30555],[103.90906,1.30723],[103.90843,1.3085],[103.90822,1.30911],[103.90802,1.31006],[103.90766,1.31107],[103.90671,1.31332]]]},"properties":{"area_code":"MP","area_name":"Marine Parade","area_unit_id":"sg-pa-2019-ura-mp2019:MP","boundary_set_id":"sg-pa-2019-ura-mp2019","boundary_level":"planning_area","region_name":"Central Region","region_code":"CR","land_area_sq_km":6.133074364499679}},
{"type":"Feature","geometry":{"type":"Polygon","coordinates":[[[103.81336,1.32329],[103.81653,1.32291],[103.81739,1.32284],[103.81893,1.32266],[103.82012,1.32236],[103.82301,1.32156],[103.82415,1.32119],[103.82707,1.3202],[103.82857,1.31972],[103.83033,1.31912],[103.83511,1.31755],[103.83534,1.31737],[103.83849,1.31386],[103.8387,1.31353],[103.83931,1.31291],[103.84005,1.31238],[103.84173,1.31169],[103.84316,1.311],[103.84432,1.31056],[103.84507,1.31306],[103.84555,1.31435],[103.84578,1.31477],[103.84634,1.31549],[103.84715,1.31629],[103.84786,1.31682],[103.8483,1.31708],[103.85079,1.31821],[103.85215,1.31885],[103.85374,1.3197],[103.85452,1.32017],[103.85574,1.32109],[103.85633,1.32167],[103.85764,1.32322],[103.8609,1.32632],[103.86117,1.32662],[103.86184,1.32772],[103.86218,1.32863],[103.86233,1.32956],[103.86235,1.33044],[103.86167,1.33053],[103.86116,1.33051],[103.8604,1.33033],[103.85854,1.32964],[103.85768,1.32936],[103.85657,1.32912],[103.85582,1.3291],[103.85229,1.32942],[103.85148,1.32947],[103.84937,1.32967],[103.84775,1.32975],[103.84419,1.3296],[103.84302,1.32959],[103.8421,1.32944],[103.84158,1.32927],[103.84058,1.32885],[103.83998,1.32978],[103.83925,1.33045],[103.83909,1.3307],[103.838,1.33344],[103.83723,1.33474],[103.8371,1.33526],[103.8371,1.33567],[103.83729,1.33723],[103.83732,1.33824],[103.83725,1.33948],[103.83719,1.33968],[103.83599,1.34168],[103.83434,1.34077],[103.83356,1.3405],[103.83297,1.34042],[103.83221,1.34045],[103.82995,1.34075],[103.82939,1.34078],[103.82786,1.34119],[103.82639,1.34125],[103.8248,1.34115],[103.82337,1.34074],[103.82113,1.33996],[103.82072,1.33973],[103.82006,1.33918],[103.81965,1.33841],[103.81862,1.33579],[103.81827,1.33493],[103.81807,1.33459],[103.81661,1.33275],[103.816,1.33184],[103.81414,1.32877],[103.81396,1.32824],[103.81387,1.3275],[103.81383,1.32654],[103.81369,1.32501],[103.81336,1.32329]]]},"properties":{"area_code":"NV","area_name":"Novena","area_unit_id":"sg-pa-2019-ura-mp2019:NV","boundary_set_id":"sg-pa-2019-ura-mp2019","boundary_level":"planning_area","region_name":"Central Region","region_code":"CR","land_area_sq_km":8.968012419490249}},
{"type":"Feature","geometry":{"type":"Polygon","coordinates":[[[103.84137,1.27415],[103.84189,1.27482],[103.84306,1.27456],[103.8433,1.27569],[103.84452,1.27551],[103.84519,1.27916],[103.84405,1.28061],[103.84433,1.28076],[103.84477,1.28134],[103.8452,1.28088],[103.84539,1.28017],[103.84593,1.28075],[103.84621,1.28019],[103.84649,1.27994],[103.84697,1.27982],[103.84758,1.27953],[103.84858,1.28113],[103.84872,1.28105],[103.84919,1.28181],[103.84852,1.28221],[103.84928,1.28344],[103.84966,1.2838],[103.84913,1.28432],[103.84718,1.28543],[103.84555,1.28636],[103.84504,1.28669],[103.84313,1.28778],[103.84247,1.28782],[103.84171,1.2881],[103.84042,1.28904],[103.84009,1.28919],[103.83976,1.28917],[103.83866,1.28882],[103.83857,1.28853],[103.83786,1.28829],[103.83797,1.28798],[103.8371,1.28765],[103.83685,1.28793],[103.83637,1.28686],[103.83583,1.28742],[103.83549,1.28739],[103.83518,1.28696],[103.835,1.28727],[103.8348,1.28637],[103.83476,1.28585],[103.83491,1.28515],[103.83534,1.28407],[103.83549,1.28382],[103.83641,1.28287],[103.83676,1.28261],[103.83859,1.28147],[103.83897,1.28115],[103.83924,1.28079],[103.83983,1.27917],[103.84046,1.27798],[103.8406,1.27755],[103.84089,1.27573],[103.84113,1.27472],[103.84137,1.27415]]]},"properties":{"area_code":"OT","area_name":"Outram","area_unit_id":"sg-pa-2019-ura-mp2019:OT","boundary_set_id":"sg-pa-2019-ura-mp2019","boundary_level":"planning_area","region_name":"Central Region","region_code":"CR","land_area_sq_km":1.373186297110466}},
{"type":"Feature","geometry":{"type":"Polygon","coordinates":[[[103.96429,1.3527],[103.96741,1.35364],[103.96796,1.35385],[103.96836,1.35418],[103.9686,1.35456],[103.96878,1.35516],[103.96977,1.35892],[103.97002,1.35974],[103.97028,1.36021],[103.97134,1.36133],[103.97221,1.36191],[103.97387,1.36265],[103.97421,1.36293],[103.97452,1.36339],[103.97489,1.36424],[103.97567,1.3666],[103.97619,1.36722],[103.97731,1.36808],[103.97911,1.36958],[103.97978,1.3703],[103.97995,1.37068],[103.97999,1.37115],[103.97981,1.37178],[103.97954,1.37215],[103.97913,1.37244],[103.97599,1.37319],[103.97548,1.37341],[103.97486,1.37404],[103.97797,1.37722],[103.97828,1.37759],[103.97853,1.37808],[103.97866,1.37876],[103.97759,1.38064],[103.97667,1.38231],[103.97456,1.38605],[103.97287,1.38763],[103.97277,1.38732],[103.97179,1.38678],[103.97154,1.38673],[103.9707,1.38615],[103.9695,1.38476],[103.96925,1.38439],[103.96839,1.38374],[103.96737,1.38322],[103.96781,1.382],[103.96759,1.38184],[103.96751,1.38109],[103.96701,1.38086],[103.96622,1.38061],[103.96544,1.38167],[103.96504,1.38196],[103.9645,1.38212],[103.96331,1.382],[103.96277,1.3819],[103.96185,1.38163],[103.96116,1.38152],[103.95879,1.38133],[103.95723,1.38141],[103.9548,1.38169],[103.9535,1.38193],[103.95276,1.38217],[103.95003,1.38289],[103.94924,1.38299],[103.94886,1.38331],[103.94805,1.38383],[103.94707,1.38455],[103.94653,1.38486],[103.94576,1.38545],[103.9447,1.38608],[103.94376,1.3867],[103.94287,1.38768],[103.94261,1.38845],[103.94282,1.39016],[103.94312,1.39143],[103.94323,1.39225],[103.94307,1.39287],[103.94276,1.39323],[103.94096,1.39504],[103.94047,1.39539],[103.93996,1.39533],[103.93966,1.39509],[103.93798,1.39354],[103.9374,1.39319],[103.93667,1.3931],[103.93644,1.393],[103.93615,1.3934],[103.93629,1.39371],[103.93635,1.39422],[103.93662,1.39477],[103.9385,1.39649],[103.93869,1.39702],[103.93848,1.39742],[103.93478,1.40099],[103.93456,1.40114],[103.93408,1.40115],[103.93014,1.3997],[103.93004,1.40026],[103.93018,1.40059],[103.92846,1.3999],[103.92704,1.3993],[103.92495,1.39833],[103.92378,1.39765],[103.92283,1.39692],[103.92123,1.39553],[103.9199,1.39432],[103.9193,1.39371],[103.91795,1.39222],[103.91718,1.39127],[103.91641,1.39018],[103.91596,1.38917],[103.91538,1.38767],[103.91494,1.38677],[103.91433,1.38593],[103.91606,1.38386],[103.9175,1.38236],[103.91854,1.38129],[103.91978,1.38027],[103.92065,1.3797],[103.92222,1.37896],[103.92323,1.37859],[103.92424,1.3783],[103.92693,1.37767],[103.92834,1.37731],[103.9293,1.37697],[103.93106,1.37618],[103.93189,1.37578],[103.93442,1.37462],[103.93511,1.37428],[103.93984,1.37175],[103.94074,1.37121],[103.94148,1.37061],[103.94327,1.36897],[103.94399,1.3684],[103.94464,1.36796],[103.94562,1.36749],[103.94704,1.36702],[103.95323,1.36556],[103.95407,1.36533],[103.95506,1.36499],[103.95614,1.36451],[103.95715,1.36396],[103.95779,1.36355],[103.95882,1.36277],[103.95955,1.36211],[103.96064,1.36092],[103.96115,1.36024],[103.96201,1.35888],[103.96261,1.35764],[103.96332,1.35556],[103.96356,1.35477],[103.96429,1.3527]]]},"properties":{"area_code":"PR","area_name":"Pasir Ris","area_unit_id":"sg-pa-2019-ura-mp2019:PR","boundary_set_id":"sg-pa-2019-ura-mp2019","boundary_level":"planning_area","region_name":"East Region","region_code":"ER","land_area_sq_km":15.803181470832676}},
{"type":"Feature","geometry":{"type":"Polygon","coordinates":[[[103.93018,1.40059],[103.93006,1.40128],[103.92981,1.4016],[103.93058,1.4019],[103.93091,1.40221],[103.93115,1.40275],[103.93116,1.40322],[103.93101,1.40367],[103.93081,1.40395],[103.92968,1.40501],[103.92895,1.40578],[103.92812,1.40635],[103.92771,1.4067],[103.92686,1.40765],[103.92599,1.40841],[103.92557,1.40884],[103.92492,1.40974],[103.92453,1.41009],[103.9235,1.4112],[103.92267,1.41171],[103.92134,1.41271],[103.92052,1.41295],[103.92,1.41326],[103.91928,1.41348],[103.91861,1.41414],[103.91877,1.41447],[103.91878,1.41482],[103.91854,1.4152],[103.91781,1.41567],[103.9173,1.4161],[103.91663,1.41694],[103.91632,1.41722],[103.91598,1.41736],[103.9155,1.41727],[103.91521,1.417],[103.91503,1.41638],[103.91411,1.41625],[103.91396,1.41708],[103.91398,1.41819],[103.91392,1.41851],[103.91347,1.41916],[103.91305,1.41992],[103.91289,1.42053],[103.91258,1.42111],[103.91068,1.42151],[103.91059,1.42145],[103.90804,1.42106],[103.90781,1.42095],[103.90696,1.42002],[103.90599,1.42028],[103.90547,1.42037],[103.90473,1.42035],[103.90376,1.42012],[103.90234,1.41938],[103.90124,1.41866],[103.89994,1.41765],[103.89926,1.41691],[103.89879,1.41616],[103.89814,1.41475],[103.89748,1.41501],[103.89571,1.41121],[103.89524,1.41048],[103.89457,1.40968],[103.89304,1.408],[103.89222,1.40718],[103.89137,1.4064],[103.89044,1.40577],[103.88921,1.4052],[103.88832,1.40472],[103.88776,1.40427],[103.88729,1.40366],[103.88698,1.40287],[103.88681,1.40121],[103.88791,1.40112],[103.88996,1.40088],[103.89538,1.40009],[103.89658,1.39983],[103.89778,1.39948],[103.89962,1.39886],[103.90042,1.39856],[103.90128,1.39817],[103.90358,1.39687],[103.90448,1.39628],[103.90511,1.3958],[103.9064,1.39474],[103.90739,1.39385],[103.90822,1.39299],[103.90918,1.39183],[103.91321,1.38715],[103.91433,1.38593],[103.91494,1.38677],[103.91538,1.38767],[103.91596,1.38917],[103.91641,1.39018],[103.91718,1.39127],[103.91795,1.39222],[103.9193,1.39371],[103.9199,1.39432],[103.92123,1.39553],[103.92283,1.39692],[103.92378,1.39765],[103.92495,1.39833],[103.92704,1.3993],[103.92846,1.3999],[103.93018,1.40059]]]},"properties":{"area_code":"PG","area_name":"Punggol","area_unit_id":"sg-pa-2019-ura-mp2019:PG","boundary_set_id":"sg-pa-2019-ura-mp2019","boundary_level":"planning_area","region_name":"North-East Region","region_code":"NER","land_area_sq_km":9.374277497033619}},
{"type":"Feature","geometry":{"type":"Polygon","coordinates":[[[103.81598,1.29411],[103.8166,1.29677],[103.81302,1.29671],[103.81122,1.29674],[103.81062,1.29679],[103.80991,1.29716],[103.80921,1.29811],[103.80861,1.29836],[103.80893,1.29938],[103.80891,1.29973],[103.8084,1.30031],[103.80773,1.29975],[103.80768,1.29995],[103.80728,1.29987],[103.80669,1.29993],[103.80626,1.30017],[103.80511,1.30036],[103.8048,1.30048],[103.80386,1.30254],[103.80362,1.30355],[103.80356,1.30411],[103.80351,1.30559],[103.80319,1.30672],[103.80265,1.30722],[103.80228,1.30724],[103.80211,1.30731],[103.80032,1.30874],[103.79976,1.30965],[103.79934,1.3085],[103.79842,1.30692],[103.7977,1.30725],[103.79684,1.30797],[103.7975,1.30878],[103.7968,1.30965],[103.79604,1.30993],[103.79553,1.30992],[103.79579,1.31059],[103.79611,1.31208],[103.79534,1.31211],[103.79481,1.3123],[103.79313,1.31339],[103.79132,1.31149],[103.79109,1.31104],[103.79086,1.31082],[103.79053,1.31192],[103.7896,1.31328],[103.7877,1.31459],[103.78719,1.31511],[103.78668,1.3158],[103.78479,1.31501],[103.78505,1.31448],[103.78559,1.31444],[103.78581,1.31362],[103.78564,1.31335],[103.78566,1.31294],[103.78528,1.31195],[103.78534,1.31115],[103.78488,1.31127],[103.7846,1.31109],[103.78388,1.3114],[103.78165,1.31229],[103.77927,1.31286],[103.77868,1.31309],[103.77763,1.31413],[103.77599,1.3153],[103.7719,1.31818],[103.7712,1.31873],[103.77139,1.31804],[103.77175,1.31644],[103.77194,1.31512],[103.77227,1.31258],[103.77217,1.31136],[103.77195,1.31011],[103.77151,1.30815],[103.77128,1.30656],[103.77117,1.30349],[103.77102,1.30286],[103.77061,1.3018],[103.76993,1.30063],[103.76982,1.30012],[103.76978,1.29822],[103.76965,1.29753],[103.76958,1.2962],[103.76963,1.2955],[103.76945,1.29463],[103.7691,1.29387],[103.76833,1.29285],[103.76737,1.29165],[103.76695,1.29199],[103.76645,1.29257],[103.7661,1.29316],[103.76368,1.29844],[103.76233,1.30133],[103.76214,1.30134],[103.76102,1.30103],[103.75867,1.29922],[103.75936,1.29851],[103.75968,1.2979],[103.761,1.29659],[103.76146,1.29604],[103.76183,1.29578],[103.76216,1.29535],[103.76231,1.29495],[103.76253,1.29509],[103.76283,1.29488],[103.76299,1.29451],[103.76199,1.29285],[103.76092,1.29102],[103.76073,1.2906],[103.77228,1.28368],[103.77187,1.28295],[103.76913,1.27831],[103.7678,1.2791],[103.75656,1.28584],[103.75649,1.28585],[103.75307,1.28531],[103.75301,1.28527],[103.75023,1.28057],[103.75025,1.2805],[103.75173,1.2796],[103.75463,1.27787],[103.76289,1.27291],[103.76544,1.27139],[103.76789,1.26991],[103.77067,1.26825],[103.77071,1.26826],[103.77686,1.27865],[103.77712,1.27852],[103.78642,1.27293],[103.78663,1.27279],[103.77857,1.25918],[103.78551,1.25501],[103.79359,1.26863],[103.79399,1.26921],[103.79831,1.26663],[103.79921,1.2682],[103.80028,1.27008],[103.80073,1.27061],[103.80186,1.27246],[103.80185,1.27271],[103.80221,1.27269],[103.80196,1.27493],[103.80218,1.27607],[103.80289,1.27795],[103.80313,1.27893],[103.80275,1.27991],[103.80192,1.2815],[103.8013,1.28278],[103.80126,1.28321],[103.80139,1.28367],[103.8019,1.28469],[103.80274,1.28619],[103.80319,1.28677],[103.80488,1.28785],[103.80507,1.288],[103.80813,1.29161],[103.80887,1.29239],[103.80958,1.29248],[103.81196,1.29208],[103.81394,1.29177],[103.81536,1.29152],[103.81598,1.29411]]]},"properties":{"area_code":"QT","area_name":"Queenstown","area_unit_id":"sg-pa-2019-ura-mp2019:QT","boundary_set_id":"sg-pa-2019-ura-mp2019","boundary_level":"planning_area","region_name":"Central Region","region_code":"CR","land_area_sq_km":21.683971236313493}},
{"type":"Feature","geometry":{"type":"Polygon","coordinates":[[[103.83034,1.29561],[103.83204,1.29623],[103.83292,1.29629],[103.83259,1.2952],[103.83412,1.29247],[103.8354,1.29253],[103.83576,1.29217],[103.83585,1.29181],[103.83632,1.29271],[103.83731,1.29218],[103.83827,1.29174],[103.83858,1.29143],[103.83877,1.29097],[103.83955,1.29125],[103.84086,1.29223],[103.84214,1.29413],[103.84194,1.2944],[103.84217,1.29455],[103.84207,1.29507],[103.84281,1.29565],[103.84299,1.2956],[103.8433,1.29668],[103.84239,1.29848],[103.84198,1.29885],[103.84071,1.29927],[103.83966,1.29924],[103.83883,1.29824],[103.83775,1.29846],[103.83737,1.2997],[103.83537,1.30017],[103.83482,1.30044],[103.83428,1.30082],[103.83239,1.3027],[103.83159,1.30338],[103.8308,1.30389],[103.82983,1.30442],[103.8293,1.3046],[103.82859,1.30466],[103.82781,1.30453],[103.82692,1.30406],[103.82624,1.30347],[103.8255,1.30301],[103.82512,1.3029],[103.824,1.3027],[103.82341,1.30268],[103.82325,1.30153],[103.82327,1.30117],[103.82359,1.30062],[103.82394,1.3004],[103.8246,1.30012],[103.82563,1.29951],[103.82666,1.29916],[103.82773,1.29904],[103.82929,1.29899],[103.82995,1.2992],[103.83011,1.29703],[103.83024,1.29595],[103.83034,1.29561]]]},"properties":{"area_code":"RV","area_name":"River Valley","area_unit_id":"sg-pa-2019-ura-mp2019:RV","boundary_set_id":"sg-pa-2019-ura-mp2019","boundary_level":"planning_area","region_name":"Central Region","region_code":"CR","land_area_sq_km":1.475698081832324}},
{"type":"Feature","geometry":{"type":"Polygon","coordinates":[[[103.83669,1.44562],[103.83551,1.44738],[103.83306,1.45139],[103.83734,1.45403],[103.84781,1.46052],[103.84615,1.46127],[103.84418,1.46205],[103.84229,1.46283],[103.83796,1.46453],[103.83731,1.46481],[103.83677,1.4647],[103.83655,1.46455],[103.83635,1.46417],[103.83581,1.46425],[103.83527,1.46414],[103.8329,1.45996],[103.83195,1.46051],[103.8343,1.46471],[103.82754,1.46858],[103.82455,1.46332],[103.82409,1.46359],[103.82264,1.46102],[103.82228,1.46122],[103.82372,1.46376],[103.82334,1.46402],[103.82422,1.46557],[103.82388,1.46545],[103.8222,1.46245],[103.82171,1.46277],[103.82338,1.46575],[103.82338,1.46595],[103.82262,1.46588],[103.8228,1.46617],[103.82246,1.46667],[103.82285,1.46716],[103.82233,1.46717],[103.82053,1.46615],[103.8194,1.46446],[103.81859,1.46496],[103.82027,1.46731],[103.8219,1.46825],[103.82217,1.46864],[103.82145,1.46923],[103.82017,1.46985],[103.81915,1.47017],[103.81861,1.47044],[103.81759,1.47068],[103.81577,1.47062],[103.81429,1.47062],[103.81259,1.47035],[103.81197,1.47037],[103.81043,1.46991],[103.8097,1.46978],[103.8088,1.47057],[103.80795,1.47043],[103.80622,1.47004],[103.8054,1.46979],[103.805,1.46949],[103.8048,1.46961],[103.80379,1.4692],[103.80304,1.46903],[103.80208,1.46863],[103.80158,1.46848],[103.80101,1.46778],[103.80048,1.46726],[103.79972,1.46677],[103.79904,1.46705],[103.79826,1.46659],[103.798,1.46618],[103.79708,1.46586],[103.7968,1.46559],[103.79693,1.46538],[103.7964,1.465],[103.79508,1.46422],[103.79422,1.46359],[103.79186,1.462],[103.79179,1.46204],[103.79281,1.46048],[103.79331,1.46048],[103.79334,1.46027],[103.79411,1.45865],[103.79442,1.45822],[103.79509,1.45749],[103.79757,1.45552],[103.79854,1.45608],[103.79919,1.45632],[103.8005,1.45667],[103.80081,1.45535],[103.80123,1.45403],[103.8016,1.45319],[103.80322,1.44969],[103.80399,1.44863],[103.80457,1.44808],[103.80633,1.44672],[103.80719,1.44617],[103.80873,1.44545],[103.8117,1.44428],[103.81374,1.44345],[103.81519,1.44274],[103.81613,1.4422],[103.81748,1.4413],[103.81858,1.44044],[103.81955,1.43956],[103.8212,1.43782],[103.82265,1.43594],[103.82335,1.43537],[103.82384,1.43517],[103.82439,1.43505],[103.82504,1.43512],[103.82588,1.43536],[103.8258,1.43567],[103.82775,1.43649],[103.8282,1.4369],[103.82905,1.43797],[103.82934,1.4386],[103.83008,1.44122],[103.83031,1.44163],[103.8315,1.44235],[103.83587,1.44505],[103.83669,1.44562]]]},"properties":{"area_code":"SB","area_name":"Sembawang","area_unit_id":"sg-pa-2019-ura-mp2019:SB","boundary_set_id":"sg-pa-2019-ura-mp2019","boundary_level":"planning_area","region_name":"North Region","region_code":"NR","land_area_sq_km":12.636194101962188}},
{"type":"Feature","geometry":{"type":"Polygon","coordinates":[[[103.85811,1.39111],[103.85952,1.39079],[103.86281,1.38987],[103.86398,1.38956],[103.86887,1.3882],[103.87086,1.38772],[103.87276,1.38735],[103.87311,1.38734],[103.87413,1.38744],[103.87475,1.3876],[103.87594,1.3881],[103.87698,1.38848],[103.87793,1.38867],[103.87881,1.38868],[103.87983,1.38852],[103.88059,1.38823],[103.88152,1.38774],[103.88324,1.38664],[103.88368,1.38631],[103.88576,1.38458],[103.88867,1.38211],[103.88897,1.38182],[103.89035,1.38066],[103.89089,1.3803],[103.89147,1.38011],[103.89346,1.37999],[103.89456,1.38002],[103.89537,1.3799],[103.89667,1.37941],[103.8971,1.37938],[103.89963,1.37977],[103.90353,1.38035],[103.9042,1.38043],[103.90506,1.38035],[103.9063,1.3798],[103.90742,1.37909],[103.90794,1.37869],[103.90852,1.37815],[103.91005,1.37586],[103.91077,1.37678],[103.91132,1.37723],[103.91205,1.37774],[103.91354,1.37863],[103.915,1.37954],[103.91567,1.38007],[103.91606,1.38054],[103.91653,1.38132],[103.9175,1.38236],[103.91606,1.38386],[103.91433,1.38593],[103.91321,1.38715],[103.90918,1.39183],[103.90822,1.39299],[103.90739,1.39385],[103.9064,1.39474],[103.90511,1.3958],[103.90448,1.39628],[103.90358,1.39687],[103.90128,1.39817],[103.90042,1.39856],[103.89962,1.39886],[103.89778,1.39948],[103.89658,1.39983],[103.89538,1.40009],[103.88996,1.40088],[103.88791,1.40112],[103.88681,1.40121],[103.88601,1.40127],[103.88224,1.40141],[103.87823,1.40137],[103.87669,1.40128],[103.87211,1.40108],[103.86828,1.40102],[103.86369,1.4009],[103.86097,1.40089],[103.85963,1.40078],[103.85783,1.40046],[103.85688,1.40057],[103.85629,1.40081],[103.85564,1.40123],[103.85571,1.40046],[103.85563,1.4],[103.85556,1.3998],[103.85514,1.39911],[103.8546,1.39865],[103.85357,1.39795],[103.85239,1.39709],[103.85363,1.39761],[103.85448,1.39774],[103.85518,1.3977],[103.85625,1.39728],[103.85675,1.39695],[103.85721,1.39654],[103.85749,1.39616],[103.85766,1.3956],[103.85782,1.39474],[103.85805,1.39317],[103.85811,1.39111]]]},"properties":{"area_code":"SE","area_name":"Sengkang","area_unit_id":"sg-pa-2019-ura-mp2019:SE","boundary_set_id":"sg-pa-2019-ura-mp2019","boundary_level":"planning_area","region_name":"North-East Region","region_code":"NER","land_area_sq_km":10.603043387393175}},
{"type":"Feature","geometry":{"type":"Polygon","coordinates":[[[103.85686,1.35551],[103.85686,1.35455],[103.85694,1.35378],[103.85717,1.35266],[103.85755,1.3515],[103.85833,1.34925],[103.85901,1.34739],[103.86044,1.3434],[103.86227,1.34361],[103.86311,1.34382],[103.86435,1.34422],[103.86513,1.34433],[103.86556,1.34427],[103.8663,1.34399],[103.86806,1.34326],[103.86913,1.34278],[103.86947,1.3427],[103.86997,1.34274],[103.87145,1.34344],[103.87227,1.34356],[103.87387,1.34345],[103.87442,1.34353],[103.87607,1.34419],[103.87656,1.34431],[103.877,1.34431],[103.87745,1.34416],[103.87944,1.34299],[103.88074,1.34236],[103.88321,1.34123],[103.88369,1.34104],[103.88439,1.34089],[103.88506,1.34086],[103.88422,1.34171],[103.88363,1.34223],[103.88313,1.34294],[103.88272,1.34394],[103.88239,1.34452],[103.88123,1.34613],[103.88061,1.34683],[103.88042,1.3473],[103.88036,1.34787],[103.8803,1.34846],[103.88001,1.34936],[103.87923,1.35103],[103.87866,1.35153],[103.87807,1.35176],[103.87734,1.35188],[103.8768,1.35211],[103.87649,1.35243],[103.87807,1.35388],[103.87718,1.35471],[103.87597,1.35632],[103.87534,1.35743],[103.87489,1.35794],[103.87449,1.35828],[103.87403,1.35896],[103.87327,1.36218],[103.87344,1.36289],[103.87369,1.3633],[103.87479,1.36551],[103.87559,1.36728],[103.87608,1.36855],[103.87636,1.36967],[103.87669,1.37162],[103.87699,1.3742],[103.87699,1.37564],[103.8768,1.3778],[103.87673,1.37894],[103.87675,1.38047],[103.87692,1.38158],[103.87691,1.38245],[103.87678,1.38366],[103.87638,1.38455],[103.87609,1.38488],[103.87487,1.38601],[103.87419,1.38659],[103.87311,1.38734],[103.87276,1.38735],[103.87086,1.38772],[103.86887,1.3882],[103.86398,1.38956],[103.86281,1.38987],[103.85952,1.39079],[103.85811,1.39111],[103.85815,1.39047],[103.85825,1.38757],[103.85836,1.38504],[103.85838,1.3828],[103.85826,1.37919],[103.85829,1.3782],[103.85853,1.3766],[103.85891,1.37507],[103.85942,1.37362],[103.86054,1.37105],[103.86083,1.37009],[103.86093,1.36916],[103.86087,1.36826],[103.86071,1.36752],[103.86039,1.36656],[103.85739,1.35816],[103.85709,1.35716],[103.85694,1.35636],[103.85686,1.35551]]]},"properties":{"area_code":"SG","area_name":"Serangoon","area_unit_id":"sg-pa-2019-ura-mp2019:SG","boundary_set_id":"sg-pa-2019-ura-mp2019","boundary_level":"planning_area","region_name":"North-East Region","region_code":"NER","land_area_sq_km":10.100536333589337}},
{"type":"Feature","geometry":{"type":"Polygon","coordinates":[[[103.96363,1.31442],[103.96416,1.31413],[103.96442,1.31422],[103.96474,1.31413],[103.96596,1.31476],[103.9664,1.31452],[103.9675,1.31506],[103.96848,1.31537],[103.96881,1.31508],[103.9693,1.31535],[103.96944,1.31556],[103.97013,1.31583],[103.97074,1.31583],[103.97116,1.31553],[103.97193,1.31597],[103.97301,1.31609],[103.97385,1.31598],[103.97472,1.31621],[103.97513,1.31598],[103.97598,1.31623],[103.9767,1.31617],[103.9767,1.31543],[103.97874,1.31616],[103.97874,1.31648],[103.9793,1.31659],[103.98021,1.31662],[103.98159,1.31655],[103.98274,1.31631],[103.98298,1.31635],[103.98347,1.3167],[103.98382,1.31668],[103.98481,1.31899],[103.9845,1.31914],[103.98068,1.32077],[103.98045,1.32091],[103.97856,1.32243],[103.98015,1.32618],[103.98147,1.32933],[103.98356,1.33428],[103.98347,1.33504],[103.98084,1.33616],[103.97968,1.33644],[103.97991,1.33696],[103.97557,1.33879],[103.97242,1.34016],[103.97186,1.34048],[103.97105,1.34108],[103.97026,1.34191],[103.96981,1.34269],[103.96913,1.34373],[103.96781,1.34567],[103.96653,1.34796],[103.96544,1.34948],[103.96516,1.35003],[103.96466,1.35149],[103.96429,1.3527],[103.96356,1.35477],[103.96332,1.35556],[103.96261,1.35764],[103.96201,1.35888],[103.96115,1.36024],[103.96064,1.36092],[103.95955,1.36211],[103.95882,1.36277],[103.95779,1.36355],[103.95715,1.36396],[103.95614,1.36451],[103.95506,1.36499],[103.95407,1.36533],[103.95323,1.36556],[103.94704,1.36702],[103.94562,1.36749],[103.94464,1.36796],[103.94399,1.3684],[103.94327,1.36897],[103.94148,1.37061],[103.94074,1.37121],[103.93984,1.37175],[103.93511,1.37428],[103.93442,1.37462],[103.93189,1.37578],[103.93071,1.37314],[103.93056,1.3727],[103.9304,1.37186],[103.9304,1.37096],[103.93073,1.36891],[103.93088,1.36742],[103.93093,1.36611],[103.93091,1.36322],[103.93094,1.36068],[103.93083,1.35942],[103.93057,1.35857],[103.93026,1.35791],[103.92796,1.3537],[103.92612,1.35027],[103.92564,1.34943],[103.92529,1.34892],[103.92497,1.34859],[103.9263,1.34744],[103.92935,1.34555],[103.92976,1.34525],[103.93041,1.34466],[103.93193,1.34309],[103.93782,1.33726],[103.93833,1.33674],[103.93877,1.33642],[103.93915,1.33627],[103.94009,1.33606],[103.9437,1.33537],[103.94898,1.33433],[103.94946,1.33363],[103.95417,1.3266],[103.95904,1.32255],[103.96014,1.32168],[103.96066,1.3209],[103.96197,1.31811],[103.96363,1.31442]]]},"properties":{"area_code":"TM","area_name":"Tampines","area_unit_id":"sg-pa-2019-ura-mp2019:TM","boundary_set_id":"sg-pa-2019-ura-mp2019","boundary_level":"planning_area","region_name":"East Region","region_code":"ER","land_area_sq_km":20.795428178847846}},
{"type":"Feature","geometry":{"type":"Polygon","coordinates":[[[103.83181,1.29215],[103.83135,1.293],[103.83097,1.29414],[103.83034,1.29561],[103.83024,1.29595],[103.83011,1.29703],[103.82995,1.2992],[103.82929,1.29899],[103.82773,1.29904],[103.82666,1.29916],[103.82563,1.29951],[103.8246,1.30012],[103.82394,1.3004],[103.82359,1.30062],[103.82327,1.30117],[103.82325,1.30153],[103.82341,1.30268],[103.82351,1.30355],[103.82342,1.30405],[103.82308,1.30468],[103.82266,1.30505],[103.82324,1.30528],[103.82445,1.3054],[103.82504,1.30558],[103.82685,1.30669],[103.82746,1.30712],[103.82776,1.30745],[103.82777,1.30794],[103.8275,1.30837],[103.82673,1.30907],[103.82734,1.31025],[103.82758,1.31088],[103.82768,1.31153],[103.82781,1.31186],[103.82827,1.31226],[103.82886,1.31237],[103.82943,1.3126],[103.83105,1.31401],[103.83534,1.31737],[103.83511,1.31755],[103.83033,1.31912],[103.82857,1.31972],[103.82707,1.3202],[103.82415,1.32119],[103.82301,1.32156],[103.82012,1.32236],[103.81893,1.32266],[103.81739,1.32284],[103.81653,1.32291],[103.81336,1.32329],[103.81303,1.32183],[103.81276,1.3214],[103.81159,1.32014],[103.81126,1.31991],[103.80955,1.31907],[103.80899,1.3187],[103.80801,1.31776],[103.80679,1.31669],[103.80519,1.31522],[103.80464,1.31437],[103.80405,1.31256],[103.80335,1.31019],[103.80228,1.30724],[103.80265,1.30722],[103.80319,1.30672],[103.80351,1.30559],[103.80356,1.30411],[103.80362,1.30355],[103.80386,1.30254],[103.8048,1.30048],[103.80511,1.30036],[103.80626,1.30017],[103.80669,1.29993],[103.80728,1.29987],[103.80768,1.29995],[103.80773,1.29975],[103.8084,1.30031],[103.80891,1.29973],[103.80893,1.29938],[103.80861,1.29836],[103.80921,1.29811],[103.80991,1.29716],[103.81062,1.29679],[103.81122,1.29674],[103.81302,1.29671],[103.8166,1.29677],[103.81598,1.29411],[103.81677,1.29422],[103.81706,1.29436],[103.8174,1.29433],[103.81787,1.29393],[103.81887,1.29393],[103.8191,1.29381],[103.82162,1.29357],[103.82439,1.29193],[103.82506,1.2922],[103.82611,1.29243],[103.8286,1.29272],[103.83072,1.29215],[103.83114,1.29207],[103.83181,1.29215]]]},"properties":{"area_code":"TN","area_name":"Tanglin","area_unit_id":"sg-pa-2019-ura-mp2019:TN","boundary_set_id":"sg-pa-2019-ura-mp2019","boundary_level":"planning_area","region_name":"Central Region","region_code":"CR","land_area_sq_km":7.552299546418751}},
{"type":"Feature","geometry":{"type":"Polygon","coordinates":[[[103.83652,1.342],[103.83599,1.34168],[103.83719,1.33968],[103.83725,1.33948],[103.83732,1.33824],[103.83729,1.33723],[103.8371,1.33567],[103.8371,1.33526],[103.83723,1.33474],[103.838,1.33344],[103.83909,1.3307],[103.83925,1.33045],[103.83998,1.32978],[103.84058,1.32885],[103.84158,1.32927],[103.8421,1.32944],[103.84302,1.32959],[103.84419,1.3296],[103.84775,1.32975],[103.84937,1.32967],[103.85148,1.32947],[103.85229,1.32942],[103.85582,1.3291],[103.85657,1.32912],[103.85768,1.32936],[103.85854,1.32964],[103.8604,1.33033],[103.86116,1.33051],[103.86167,1.33053],[103.86235,1.33044],[103.86304,1.3302],[103.86538,1.3292],[103.86728,1.32857],[103.86831,1.32809],[103.86874,1.32782],[103.86891,1.32789],[103.87589,1.33028],[103.87849,1.33115],[103.8798,1.33153],[103.88526,1.33271],[103.88766,1.33326],[103.88887,1.33356],[103.88837,1.33514],[103.88772,1.33652],[103.88708,1.33798],[103.8866,1.33893],[103.88618,1.33953],[103.88506,1.34086],[103.88439,1.34089],[103.88369,1.34104],[103.88321,1.34123],[103.88074,1.34236],[103.87944,1.34299],[103.87745,1.34416],[103.877,1.34431],[103.87656,1.34431],[103.87607,1.34419],[103.87442,1.34353],[103.87387,1.34345],[103.87227,1.34356],[103.87145,1.34344],[103.86997,1.34274],[103.86947,1.3427],[103.86913,1.34278],[103.86806,1.34326],[103.8663,1.34399],[103.86556,1.34427],[103.86513,1.34433],[103.86435,1.34422],[103.86311,1.34382],[103.86227,1.34361],[103.86044,1.3434],[103.85989,1.34336],[103.85623,1.34325],[103.8543,1.34321],[103.85349,1.34328],[103.85259,1.34343],[103.84883,1.34395],[103.84697,1.34402],[103.84556,1.34394],[103.8445,1.34395],[103.84402,1.34406],[103.84237,1.34489],[103.84193,1.34503],[103.8412,1.34507],[103.84069,1.34493],[103.84015,1.34459],[103.83949,1.34385],[103.8391,1.34349],[103.83826,1.34296],[103.83652,1.342]]]},"properties":{"area_code":"TP","area_name":"Toa Payoh","area_unit_id":"sg-pa-2019-ura-mp2019:TP","boundary_set_id":"sg-pa-2019-ura-mp2019","boundary_level":"planning_area","region_name":"Central Region","region_code":"CR","land_area_sq_km":8.18021290450544}},
{"type":"Feature","geometry":{"type":"Polygon","coordinates":[[[103.79179,1.46204],[103.79141,1.46173],[103.79135,1.46152],[103.79097,1.46121],[103.79046,1.46108],[103.78988,1.46084],[103.78928,1.46047],[103.78883,1.45999],[103.78805,1.45942],[103.7876,1.45924],[103.78721,1.45871],[103.78652,1.45841],[103.78568,1.45788],[103.78558,1.45765],[103.78495,1.45715],[103.78466,1.45678],[103.78435,1.4567],[103.78374,1.45606],[103.78347,1.45558],[103.78302,1.4554],[103.78272,1.45545],[103.78246,1.45508],[103.77948,1.45332],[103.77885,1.45292],[103.77752,1.452],[103.77732,1.45182],[103.7761,1.45116],[103.77481,1.45089],[103.77403,1.45057],[103.77283,1.44995],[103.7718,1.44922],[103.77161,1.44896],[103.77124,1.44886],[103.77086,1.44849],[103.77062,1.44871],[103.76941,1.45269],[103.76905,1.45249],[103.76986,1.44983],[103.7698,1.44924],[103.76951,1.44851],[103.7691,1.4479],[103.76882,1.44763],[103.76798,1.44703],[103.76749,1.44656],[103.76728,1.44622],[103.76691,1.44533],[103.76685,1.4448],[103.76698,1.44443],[103.76689,1.4442],[103.76644,1.44411],[103.76584,1.44384],[103.76464,1.44367],[103.7644,1.44345],[103.76519,1.44299],[103.76533,1.44282],[103.76566,1.44193],[103.76616,1.44131],[103.76676,1.44068],[103.76764,1.44047],[103.76842,1.44051],[103.76849,1.43884],[103.76855,1.43405],[103.76867,1.43281],[103.76889,1.43143],[103.76921,1.43033],[103.7698,1.42866],[103.77042,1.42703],[103.77089,1.42539],[103.77112,1.42424],[103.77124,1.42279],[103.77127,1.42151],[103.77248,1.4225],[103.77363,1.4234],[103.77481,1.42424],[103.77622,1.425],[103.77757,1.42559],[103.77884,1.42598],[103.77987,1.42625],[103.78077,1.42642],[103.78205,1.42654],[103.78378,1.42656],[103.78521,1.42646],[103.78635,1.4263],[103.78729,1.4261],[103.78886,1.42564],[103.79027,1.42507],[103.79124,1.42458],[103.79497,1.42257],[103.79545,1.423],[103.79696,1.4247],[103.79729,1.42512],[103.80129,1.42971],[103.80444,1.43337],[103.80618,1.43536],[103.80743,1.43687],[103.81053,1.44043],[103.81094,1.44105],[103.81126,1.44173],[103.81147,1.44245],[103.8117,1.44428],[103.80873,1.44545],[103.80719,1.44617],[103.80633,1.44672],[103.80457,1.44808],[103.80399,1.44863],[103.80322,1.44969],[103.8016,1.45319],[103.80123,1.45403],[103.80081,1.45535],[103.8005,1.45667],[103.79919,1.45632],[103.79854,1.45608],[103.79757,1.45552],[103.79509,1.45749],[103.79442,1.45822],[103.79411,1.45865],[103.79334,1.46027],[103.79331,1.46048],[103.79281,1.46048],[103.79179,1.46204]]]},"properties":{"area_code":"WD","area_name":"Woodlands","area_unit_id":"sg-pa-2019-ura-mp2019:WD","boundary_set_id":"sg-pa-2019-ura-mp2019","boundary_level":"planning_area","region_name":"North Region","region_code":"NR","land_area_sq_km":13.612515173931708}},
{"type":"Feature","geometry":{"type":"Polygon","coordinates":[[[103.85239,1.39709],[103.85357,1.39795],[103.8546,1.39865],[103.85514,1.39911],[103.85556,1.3998],[103.85563,1.4],[103.85571,1.40046],[103.85564,1.40123],[103.8553,1.40177],[103.85487,1.40269],[103.85477,1.40339],[103.85481,1.40412],[103.85506,1.40487],[103.85554,1.40558],[103.85606,1.40601],[103.85965,1.40853],[103.86025,1.40903],[103.86089,1.40978],[103.86128,1.41046],[103.86164,1.41132],[103.86186,1.41286],[103.86182,1.41357],[103.86147,1.41545],[103.86143,1.41606],[103.86152,1.41681],[103.8617,1.41766],[103.86206,1.41859],[103.86403,1.42187],[103.86512,1.42302],[103.86705,1.42464],[103.86742,1.42498],[103.86427,1.42665],[103.86197,1.42448],[103.85955,1.42552],[103.85563,1.42734],[103.85463,1.42779],[103.8534,1.42851],[103.85218,1.4295],[103.84724,1.43428],[103.84682,1.43473],[103.84618,1.43574],[103.84595,1.43631],[103.8455,1.43765],[103.84483,1.43895],[103.84415,1.43974],[103.84363,1.4402],[103.84202,1.44153],[103.84094,1.44233],[103.83962,1.44314],[103.83877,1.4437],[103.83793,1.44434],[103.83713,1.4451],[103.83669,1.44562],[103.83587,1.44505],[103.8315,1.44235],[103.83031,1.44163],[103.83008,1.44122],[103.82934,1.4386],[103.82905,1.43797],[103.8282,1.4369],[103.82775,1.43649],[103.8258,1.43567],[103.82588,1.43536],[103.82599,1.43507],[103.82651,1.43325],[103.82665,1.4323],[103.82681,1.42992],[103.82685,1.42825],[103.82665,1.42724],[103.82628,1.4263],[103.82587,1.42555],[103.82557,1.42487],[103.82488,1.42081],[103.82463,1.41971],[103.82308,1.41341],[103.82271,1.41372],[103.82166,1.4141],[103.82102,1.41424],[103.81968,1.41418],[103.81654,1.41364],[103.81583,1.41356],[103.81525,1.41358],[103.81466,1.4137],[103.81111,1.41527],[103.81044,1.41542],[103.80933,1.4154],[103.80856,1.41521],[103.80676,1.41433],[103.80593,1.4143],[103.80594,1.41403],[103.80662,1.41239],[103.80702,1.41126],[103.80819,1.40815],[103.80875,1.40696],[103.80913,1.40631],[103.81005,1.40507],[103.81109,1.40381],[103.81181,1.40273],[103.81244,1.40153],[103.81323,1.39981],[103.81391,1.39783],[103.81411,1.39735],[103.81453,1.39667],[103.81501,1.39611],[103.81563,1.39557],[103.81644,1.3951],[103.81709,1.39485],[103.81882,1.39434],[103.8234,1.39314],[103.82473,1.39297],[103.82661,1.39291],[103.82737,1.39295],[103.82973,1.39327],[103.83152,1.39368],[103.83236,1.39391],[103.83504,1.39454],[103.83654,1.39499],[103.83897,1.39559],[103.84047,1.39599],[103.84268,1.39644],[103.84494,1.39661],[103.84663,1.39661],[103.85007,1.39647],[103.85104,1.3966],[103.85192,1.39685],[103.85239,1.39709]]]},"properties":{"area_code":"YS","area_name":"Yishun","area_unit_id":"sg-pa-2019-ura-mp2019:YS","boundary_set_id":"sg-pa-2019-ura-mp2019","boundary_level":"planning_area","region_name":"North Region","region_code":"NR","land_area_sq_km":21.011042754594218}}
]}