{
"type": "FeatureCollection",
"name": "al_prefecture_2023",
"crs": { "type": "name", "properties": { "name": "urn:ogc:def:crs:OGC:1.3:CRS84" } },
"features": [
{ "type": "Feature", "properties": { "area_code": "berat", "area_name": "Berat", "area_unit_id": "al-prefecture-2023-geoboundaries-adm1:berat", "boundary_set_id": "al-prefecture-2023-geoboundaries-adm1", "boundary_level": "prefecture", "prefecture_iso": "AL-01", "shape_id": "10019604B1094996199402", "land_area_sq_km": 1816.9721649563364 }, "geometry": { "type": "MultiPolygon", "coordinates": [ [ [ [ 20.30764, 40.70863 ], [ 20.27, 40.70111 ], [ 20.23839, 40.69809 ], [ 20.21279, 40.72971 ], [ 20.19021, 40.72218 ], [ 20.17063, 40.7252 ], [ 20.16762, 40.75832 ], [ 20.11794, 40.74929 ], [ 20.11493, 40.77338 ], [ 20.0818, 40.78542 ], [ 20.09686, 40.81252 ], [ 20.07277, 40.82306 ], [ 20.00803, 40.82607 ], [ 20.03663, 40.85167 ], [ 20.01706, 40.87425 ], [ 19.95081, 40.87275 ], [ 19.9192, 40.86221 ], [ 19.85747, 40.86371 ], [ 19.82865, 40.86797 ], [ 19.80288, 40.84682 ], [ 19.76455, 40.84087 ], [ 19.76851, 40.81246 ], [ 19.72622, 40.81113 ], [ 19.74142, 40.79395 ], [ 19.73745, 40.77677 ], [ 19.7553, 40.7662 ], [ 19.76521, 40.74835 ], [ 19.76653, 40.71928 ], [ 19.77446, 40.70804 ], [ 19.82373, 40.68003 ], [ 19.81566, 40.64777 ], [ 19.85761, 40.62195 ], [ 19.81566, 40.6155 ], [ 19.84955, 40.59452 ], [ 19.84793, 40.54612 ], [ 19.88827, 40.53483 ], [ 19.9286, 40.53483 ], [ 19.95232, 40.49634 ], [ 19.99899, 40.49634 ], [ 20.03362, 40.47376 ], [ 20.04266, 40.49484 ], [ 20.06223, 40.49634 ], [ 20.06373, 40.47225 ], [ 20.09084, 40.47075 ], [ 20.09084, 40.49484 ], [ 20.13149, 40.48882 ], [ 20.1616, 40.46473 ], [ 20.19773, 40.41956 ], [ 20.23537, 40.4045 ], [ 20.27603, 40.3774 ], [ 20.30764, 40.38041 ], [ 20.34227, 40.38493 ], [ 20.33023, 40.42106 ], [ 20.3498, 40.43913 ], [ 20.37841, 40.44515 ], [ 20.41002, 40.4316 ], [ 20.44315, 40.44214 ], [ 20.45068, 40.46623 ], [ 20.44917, 40.51592 ], [ 20.43562, 40.5385 ], [ 20.46573, 40.5656 ], [ 20.42809, 40.57915 ], [ 20.37991, 40.60475 ], [ 20.37389, 40.63486 ], [ 20.34378, 40.65293 ], [ 20.33776, 40.67702 ], [ 20.30764, 40.70863 ] ] ] ] } },
{ "type": "Feature", "properties": { "area_code": "diber", "area_name": "Dibër", "area_unit_id": "al-prefecture-2023-geoboundaries-adm1:diber", "boundary_set_id": "al-prefecture-2023-geoboundaries-adm1", "boundary_level": "prefecture", "prefecture_iso": "AL-09", "shape_id": "10019604B38416360860341", "land_area_sq_km": 2533.5751406173067 }, "geometry": { "type": "MultiPolygon", "coordinates": [ [ [ [ 20.54608, 41.82115 ], [ 20.50684, 41.81909 ], [ 20.48206, 41.85316 ], [ 20.44282, 41.85832 ], [ 20.42217, 41.8511 ], [ 20.4232, 41.83045 ], [ 20.39945, 41.81805 ], [ 20.35299, 41.81702 ], [ 20.34679, 41.83251 ], [ 20.33543, 41.84077 ], [ 20.34783, 41.86349 ], [ 20.31891, 41.8893 ], [ 20.28897, 41.8893 ], [ 20.27555, 41.87072 ], [ 20.26006, 41.86039 ], [ 20.22185, 41.86142 ], [ 20.20636, 41.86555 ], [ 20.1819, 41.86104 ], [ 20.18029, 41.8449 ], [ 20.15932, 41.84651 ], [ 20.12544, 41.83038 ], [ 20.18029, 41.80941 ], [ 20.18352, 41.78682 ], [ 20.15609, 41.78359 ], [ 20.10285, 41.75455 ], [ 20.08833, 41.73842 ], [ 20.04638, 41.73842 ], [ 20.04315, 41.70938 ], [ 20.0125, 41.70131 ], [ 19.99636, 41.71422 ], [ 19.97817, 41.70447 ], [ 19.96474, 41.71583 ], [ 19.95132, 41.71583 ], [ 19.95132, 41.69208 ], [ 19.94203, 41.68072 ], [ 19.91002, 41.69518 ], [ 19.87284, 41.70034 ], [ 19.85426, 41.69208 ], [ 19.83361, 41.71273 ], [ 19.82328, 41.73442 ], [ 19.77268, 41.69415 ], [ 19.80263, 41.67453 ], [ 19.81812, 41.65904 ], [ 19.81915, 41.63426 ], [ 19.7954, 41.62187 ], [ 19.80366, 41.61257 ], [ 19.83774, 41.60948 ], [ 19.82638, 41.59502 ], [ 19.82431, 41.56817 ], [ 19.83051, 41.55372 ], [ 19.85839, 41.52997 ], [ 19.90485, 41.50622 ], [ 19.94616, 41.49486 ], [ 19.94512, 41.47214 ], [ 19.98333, 41.44426 ], [ 19.98643, 41.41948 ], [ 20.0205, 41.41122 ], [ 20.04838, 41.3947 ], [ 20.04941, 41.37095 ], [ 20.07832, 41.36269 ], [ 20.08039, 41.38954 ], [ 20.09898, 41.40296 ], [ 20.12479, 41.39057 ], [ 20.13202, 41.36682 ], [ 20.13821, 41.35133 ], [ 20.19191, 41.35133 ], [ 20.22385, 41.34314 ], [ 20.27548, 41.37056 ], [ 20.31098, 41.35927 ], [ 20.34163, 41.37863 ], [ 20.40294, 41.40283 ], [ 20.41101, 41.38186 ], [ 20.43037, 41.35766 ], [ 20.47554, 41.35766 ], [ 20.51749, 41.33507 ], [ 20.53362, 41.3512 ], [ 20.55426, 41.37616 ], [ 20.54699, 41.38343 ], [ 20.55492, 41.39334 ], [ 20.5536, 41.40061 ], [ 20.56219, 41.40325 ], [ 20.55954, 41.41052 ], [ 20.5536, 41.41977 ], [ 20.54038, 41.42704 ], [ 20.53972, 41.43695 ], [ 20.52848, 41.43894 ], [ 20.51593, 41.43894 ], [ 20.50866, 41.44422 ], [ 20.51196, 41.45347 ], [ 20.50073, 41.46669 ], [ 20.50271, 41.48123 ], [ 20.48883, 41.4918 ], [ 20.46835, 41.49973 ], [ 20.46967, 41.50899 ], [ 20.46554, 41.54133 ], [ 20.48619, 41.55991 ], [ 20.50581, 41.56611 ], [ 20.52646, 41.56404 ], [ 20.54608, 41.57643 ], [ 20.56157, 41.5816 ], [ 20.55847, 41.60431 ], [ 20.55021, 41.61051 ], [ 20.54505, 41.62187 ], [ 20.52853, 41.63942 ], [ 20.52956, 41.65284 ], [ 20.5182, 41.66833 ], [ 20.53059, 41.68485 ], [ 20.52452, 41.70658 ], [ 20.51527, 41.71781 ], [ 20.51593, 41.73301 ], [ 20.51395, 41.74226 ], [ 20.52188, 41.75548 ], [ 20.53443, 41.76738 ], [ 20.52716, 41.77465 ], [ 20.54368, 41.77993 ], [ 20.5536, 41.78918 ], [ 20.57012, 41.78852 ], [ 20.57474, 41.79711 ], [ 20.56153, 41.82024 ], [ 20.54608, 41.82115 ] ] ] ] } },
{ "type": "Feature", "properties": { "area_code": "durres", "area_name": "Durrës", "area_unit_id": "al-prefecture-2023-geoboundaries-adm1:durres", "boundary_set_id": "al-prefecture-2023-geoboundaries-adm1", "boundary_level": "prefecture", "prefecture_iso": "AL-02", "shape_id": "10019604B56812167051250", "land_area_sq_km": 751.24660891170845 }, "geometry": { "type": "MultiPolygon", "coordinates": [ [ [ [ 19.82431, 41.56817 ], [ 19.81089, 41.5754 ], [ 19.77268, 41.57643 ], [ 19.73861, 41.55475 ], [ 19.69111, 41.55475 ], [ 19.66426, 41.56817 ], [ 19.57959, 41.57024 ], [ 19.55791, 41.58263 ], [ 19.53726, 41.56921 ], [ 19.49286, 41.56611 ], [ 19.45052, 41.58366 ], [ 19.47634, 41.54752 ], [ 19.51454, 41.52377 ], [ 19.5069, 41.47675 ], [ 19.46657, 41.44145 ], [ 19.4464, 41.3986 ], [ 19.39598, 41.40112 ], [ 19.41363, 41.36835 ], [ 19.41496, 41.32329 ], [ 19.448, 41.30611 ], [ 19.47906, 41.31073 ], [ 19.51805, 41.27306 ], [ 19.54383, 41.25786 ], [ 19.58172, 41.24956 ], [ 19.58656, 41.28183 ], [ 19.63012, 41.2899 ], [ 19.62851, 41.32378 ], [ 19.64465, 41.34798 ], [ 19.63174, 41.37702 ], [ 19.60431, 41.39961 ], [ 19.59947, 41.43833 ], [ 19.62528, 41.45446 ], [ 19.65433, 41.43833 ], [ 19.69524, 41.42465 ], [ 19.72312, 41.39883 ], [ 19.74274, 41.40193 ], [ 19.76133, 41.42155 ], [ 19.80469, 41.4391 ], [ 19.82535, 41.45769 ], [ 19.85219, 41.43807 ], [ 19.86407, 41.47221 ], [ 19.88181, 41.46253 ], [ 19.89956, 41.48028 ], [ 19.90485, 41.50622 ], [ 19.85839, 41.52997 ], [ 19.83051, 41.55372 ], [ 19.82431, 41.56817 ] ] ] ] } },
{ "type": "Feature", "properties": { "area_code": "elbasan", "area_name": "Elbasan", "area_unit_id": "al-prefecture-2023-geoboundaries-adm1:elbasan", "boundary_set_id": "al-prefecture-2023-geoboundaries-adm1", "boundary_level": "prefecture", "prefecture_iso": "AL-03", "shape_id": "10019604B8832247678249", "land_area_sq_km": 3362.3618409978385 }, "geometry": { "type": "MultiPolygon", "coordinates": [ [ [ [ 20.30764, 40.70863 ], [ 20.28958, 40.72218 ], [ 20.32571, 40.73724 ], [ 20.35733, 40.74326 ], [ 20.41454, 40.73573 ], [ 20.45068, 40.74326 ], [ 20.47778, 40.78542 ], [ 20.46724, 40.82457 ], [ 20.42809, 40.87726 ], [ 20.39196, 40.89382 ], [ 20.37991, 40.92243 ], [ 20.43713, 40.93448 ], [ 20.41755, 40.95104 ], [ 20.42357, 40.98115 ], [ 20.44616, 40.98868 ], [ 20.47869, 40.99605 ], [ 20.53592, 41.03828 ], [ 20.55249, 41.03355 ], [ 20.5967, 41.01026 ], [ 20.60656, 41.02249 ], [ 20.62196, 41.06946 ], [ 20.59433, 41.09354 ], [ 20.59117, 41.10183 ], [ 20.5813, 41.11169 ], [ 20.58959, 41.12353 ], [ 20.59744, 41.12885 ], [ 20.59591, 41.13256 ], [ 20.59333, 41.13435 ], [ 20.59512, 41.13594 ], [ 20.5936, 41.13859 ], [ 20.5924, 41.13799 ], [ 20.59035, 41.13879 ], [ 20.59075, 41.14183 ], [ 20.58936, 41.14322 ], [ 20.58684, 41.14329 ], [ 20.58639, 41.14626 ], [ 20.58267, 41.15095 ], [ 20.58283, 41.15612 ], [ 20.57669, 41.15984 ], [ 20.57394, 41.16663 ], [ 20.57006, 41.16776 ], [ 20.56925, 41.17196 ], [ 20.56343, 41.17891 ], [ 20.55874, 41.18182 ], [ 20.56052, 41.18764 ], [ 20.55923, 41.19249 ], [ 20.55711, 41.19401 ], [ 20.55413, 41.19143 ], [ 20.54956, 41.19275 ], [ 20.54466, 41.19659 ], [ 20.54241, 41.19646 ], [ 20.54009, 41.19428 ], [ 20.5338, 41.19904 ], [ 20.53102, 41.20408 ], [ 20.53328, 41.20776 ], [ 20.52898, 41.21534 ], [ 20.52317, 41.21812 ], [ 20.52267, 41.22544 ], [ 20.51661, 41.23049 ], [ 20.51686, 41.24085 ], [ 20.5204, 41.24413 ], [ 20.52065, 41.24742 ], [ 20.51459, 41.25525 ], [ 20.51484, 41.26005 ], [ 20.51181, 41.26257 ], [ 20.51307, 41.26687 ], [ 20.5108, 41.27748 ], [ 20.5156, 41.28404 ], [ 20.51509, 41.28708 ], [ 20.50852, 41.2891 ], [ 20.506, 41.29667 ], [ 20.51137, 41.29978 ], [ 20.50928, 41.30274 ], [ 20.50575, 41.3035 ], [ 20.50802, 41.31006 ], [ 20.49867, 41.32017 ], [ 20.49918, 41.32749 ], [ 20.49488, 41.3285 ], [ 20.4916, 41.33254 ], [ 20.49994, 41.3376 ], [ 20.51749, 41.33507 ], [ 20.47554, 41.35766 ], [ 20.43037, 41.35766 ], [ 20.41101, 41.38186 ], [ 20.40294, 41.40283 ], [ 20.34163, 41.37863 ], [ 20.31098, 41.35927 ], [ 20.27548, 41.37056 ], [ 20.22385, 41.34314 ], [ 20.20225, 41.31539 ], [ 20.17063, 41.31841 ], [ 20.12095, 41.30184 ], [ 20.11191, 41.27173 ], [ 20.07879, 41.26872 ], [ 20.07578, 41.2356 ], [ 20.0547, 41.22957 ], [ 20.04115, 41.24614 ], [ 20.00351, 41.25216 ], [ 19.99749, 41.21753 ], [ 19.92317, 41.16742 ], [ 19.88752, 41.16742 ], [ 19.86439, 41.15393 ], [ 19.81429, 41.14815 ], [ 19.82007, 41.11635 ], [ 19.75262, 41.11539 ], [ 19.73045, 41.08744 ], [ 19.6948, 41.08648 ], [ 19.69384, 41.04986 ], [ 19.67798, 41.03714 ], [ 19.69384, 41.01335 ], [ 19.72093, 40.99551 ], [ 19.75067, 41.02326 ], [ 19.78834, 41.01269 ], [ 19.81741, 40.9922 ], [ 19.81675, 40.97965 ], [ 19.79296, 40.96511 ], [ 19.80023, 40.9433 ], [ 19.80882, 40.93009 ], [ 19.79362, 40.92282 ], [ 19.81609, 40.90762 ], [ 19.78503, 40.8944 ], [ 19.80354, 40.88647 ], [ 19.80816, 40.87193 ], [ 19.82865, 40.86797 ], [ 19.85747, 40.86371 ], [ 19.9192, 40.86221 ], [ 19.95081, 40.87275 ], [ 20.01706, 40.87425 ], [ 20.03663, 40.85167 ], [ 20.00803, 40.82607 ], [ 20.07277, 40.82306 ], [ 20.09686, 40.81252 ], [ 20.0818, 40.78542 ], [ 20.11493, 40.77338 ], [ 20.11794, 40.74929 ], [ 20.16762, 40.75832 ], [ 20.17063, 40.7252 ], [ 20.19021, 40.72218 ], [ 20.21279, 40.72971 ], [ 20.23839, 40.69809 ], [ 20.27, 40.70111 ], [ 20.30764, 40.70863 ] ] ] ] } },
{ "type": "Feature", "properties": { "area_code": "fier", "area_name": "Fier", "area_unit_id": "al-prefecture-2023-geoboundaries-adm1:fier", "boundary_set_id": "al-prefecture-2023-geoboundaries-adm1", "boundary_level": "prefecture", "prefecture_iso": "AL-04", "shape_id": "10019604B18588012879070", "land_area_sq_km": 1867.2546324627313 }, "geometry": { "type": "MultiPolygon", "coordinates": [ [ [ [ 19.82865, 40.86797 ], [ 19.80816, 40.87193 ], [ 19.80354, 40.88647 ], [ 19.78503, 40.8944 ], [ 19.81609, 40.90762 ], [ 19.79362, 40.92282 ], [ 19.80882, 40.93009 ], [ 19.80023, 40.9433 ], [ 19.79296, 40.96511 ], [ 19.81675, 40.97965 ], [ 19.81741, 40.9922 ], [ 19.78834, 41.01269 ], [ 19.75067, 41.02326 ], [ 19.72093, 40.99551 ], [ 19.69384, 41.01335 ], [ 19.67798, 41.03714 ], [ 19.66013, 41.06027 ], [ 19.6337, 41.06886 ], [ 19.60859, 41.05036 ], [ 19.59735, 41.06093 ], [ 19.5729, 41.0649 ], [ 19.53127, 41.04045 ], [ 19.50814, 41.04838 ], [ 19.50219, 41.0378 ], [ 19.47708, 41.04904 ], [ 19.44602, 40.99881 ], [ 19.47311, 40.9704 ], [ 19.44734, 40.94462 ], [ 19.46452, 40.94396 ], [ 19.44932, 40.91753 ], [ 19.42487, 40.9248 ], [ 19.37308, 40.89287 ], [ 19.39993, 40.89184 ], [ 19.40612, 40.86603 ], [ 19.36143, 40.82964 ], [ 19.37531, 40.80849 ], [ 19.35615, 40.78073 ], [ 19.35747, 40.71058 ], [ 19.3502, 40.68689 ], [ 19.3046, 40.67037 ], [ 19.30724, 40.65253 ], [ 19.3687, 40.65716 ], [ 19.40571, 40.63601 ], [ 19.42223, 40.65319 ], [ 19.43148, 40.65319 ], [ 19.44139, 40.63535 ], [ 19.45593, 40.63733 ], [ 19.47382, 40.62798 ], [ 19.4751, 40.6109 ], [ 19.53061, 40.60032 ], [ 19.52598, 40.57984 ], [ 19.56497, 40.58645 ], [ 19.5544, 40.56662 ], [ 19.58017, 40.55605 ], [ 19.62445, 40.55142 ], [ 19.69691, 40.53274 ], [ 19.71402, 40.50095 ], [ 19.74491, 40.49851 ], [ 19.76081, 40.47191 ], [ 19.73661, 40.43802 ], [ 19.76565, 40.42028 ], [ 19.80276, 40.42189 ], [ 19.8205, 40.459 ], [ 19.83825, 40.46545 ], [ 19.86084, 40.48481 ], [ 19.88827, 40.48965 ], [ 19.9286, 40.53483 ], [ 19.88827, 40.53483 ], [ 19.84793, 40.54612 ], [ 19.84955, 40.59452 ], [ 19.81566, 40.6155 ], [ 19.85761, 40.62195 ], [ 19.81566, 40.64777 ], [ 19.82373, 40.68003 ], [ 19.77446, 40.70804 ], [ 19.76653, 40.71928 ], [ 19.76521, 40.74835 ], [ 19.7553, 40.7662 ], [ 19.73745, 40.77677 ], [ 19.74142, 40.79395 ], [ 19.72622, 40.81113 ], [ 19.76851, 40.81246 ], [ 19.76455, 40.84087 ], [ 19.80288, 40.84682 ], [ 19.82865, 40.86797 ] ], [ [ 19.4825, 40.94373 ], [ 19.49019, 40.96935 ], [ 19.4975, 40.98668 ], [ 19.51834, 40.97666 ], [ 19.52664, 40.92876 ], [ 19.51739, 40.90233 ], [ 19.48898, 40.8911 ], [ 19.46651, 40.88911 ], [ 19.45329, 40.88647 ], [ 19.4447, 40.88779 ], [ 19.45686, 40.90959 ], [ 19.4825, 40.94373 ] ] ] ] } },
{ "type": "Feature", "properties": { "area_code": "gjirokaster", "area_name": "Gjirokastër", "area_unit_id": "al-prefecture-2023-geoboundaries-adm1:gjirokaster", "boundary_set_id": "al-prefecture-2023-geoboundaries-adm1", "boundary_level": "prefecture", "prefecture_iso": "AL-05", "shape_id": "10019604B29738820438867", "land_area_sq_km": 2972.9097351349947 }, "geometry": { "type": "MultiPolygon", "coordinates": [ [ [ [ 19.9286, 40.53483 ], [ 19.88827, 40.48965 ], [ 19.86084, 40.48481 ], [ 19.83825, 40.46545 ], [ 19.8205, 40.459 ], [ 19.80276, 40.42189 ], [ 19.76565, 40.42028 ], [ 19.79198, 40.39971 ], [ 19.80006, 40.3771 ], [ 19.77179, 40.36417 ], [ 19.74514, 40.35529 ], [ 19.75887, 40.33429 ], [ 19.83075, 40.28421 ], [ 19.8146, 40.2721 ], [ 19.8364, 40.25029 ], [ 19.84448, 40.2196 ], [ 19.85932, 40.19915 ], [ 19.88109, 40.1721 ], [ 19.8852, 40.14622 ], [ 19.90049, 40.13857 ], [ 19.93284, 40.10681 ], [ 19.94813, 40.058 ], [ 19.97695, 40.05388 ], [ 19.98695, 40.05976 ], [ 20.01224, 40.06035 ], [ 20.04988, 40.05624 ], [ 20.06282, 40.04388 ], [ 20.08399, 40.04094 ], [ 20.08987, 40.02506 ], [ 20.13222, 39.99272 ], [ 20.15868, 39.96802 ], [ 20.19573, 39.9539 ], [ 20.23688, 39.92948 ], [ 20.23537, 39.90276 ], [ 20.26398, 39.88431 ], [ 20.26624, 39.86587 ], [ 20.28958, 39.85909 ], [ 20.31329, 39.85345 ], [ 20.31404, 39.81054 ], [ 20.32308, 39.81092 ], [ 20.33437, 39.80828 ], [ 20.35093, 39.80226 ], [ 20.35733, 39.79661 ], [ 20.37238, 39.7872 ], [ 20.38179, 39.78494 ], [ 20.39949, 39.80038 ], [ 20.40513, 39.80226 ], [ 20.41492, 39.8143 ], [ 20.41191, 39.81882 ], [ 20.41567, 39.82861 ], [ 20.41379, 39.83388 ], [ 20.41529, 39.84253 ], [ 20.41115, 39.84404 ], [ 20.39008, 39.87076 ], [ 20.38217, 39.87942 ], [ 20.38593, 39.88921 ], [ 20.37772, 39.89071 ], [ 20.36945, 39.91185 ], [ 20.34097, 39.9192 ], [ 20.34556, 39.94401 ], [ 20.34372, 39.95596 ], [ 20.32534, 39.97158 ], [ 20.31707, 39.9771 ], [ 20.32167, 39.9918 ], [ 20.37221, 39.98628 ], [ 20.3814, 39.99364 ], [ 20.3961, 39.99639 ], [ 20.39794, 40.01293 ], [ 20.40713, 40.01477 ], [ 20.42091, 40.03131 ], [ 20.41816, 40.05337 ], [ 20.4347, 40.06164 ], [ 20.46502, 40.07267 ], [ 20.48065, 40.06256 ], [ 20.50178, 40.06348 ], [ 20.50454, 40.07818 ], [ 20.52475, 40.08186 ], [ 20.556, 40.05888 ], [ 20.58724, 40.06348 ], [ 20.62984, 40.08381 ], [ 20.55456, 40.15156 ], [ 20.49886, 40.17264 ], [ 20.538, 40.19673 ], [ 20.52746, 40.20877 ], [ 20.52294, 40.24641 ], [ 20.50036, 40.26147 ], [ 20.49434, 40.31567 ], [ 20.51542, 40.35632 ], [ 20.4582, 40.38794 ], [ 20.47175, 40.42859 ], [ 20.44315, 40.44214 ], [ 20.41002, 40.4316 ], [ 20.37841, 40.44515 ], [ 20.3498, 40.43913 ], [ 20.33023, 40.42106 ], [ 20.34227, 40.38493 ], [ 20.30764, 40.38041 ], [ 20.27603, 40.3774 ], [ 20.23537, 40.4045 ], [ 20.19773, 40.41956 ], [ 20.1616, 40.46473 ], [ 20.13149, 40.48882 ], [ 20.09084, 40.49484 ], [ 20.09084, 40.47075 ], [ 20.06373, 40.47225 ], [ 20.06223, 40.49634 ], [ 20.04266, 40.49484 ], [ 20.03362, 40.47376 ], [ 19.99899, 40.49634 ], [ 19.95232, 40.49634 ], [ 19.9286, 40.53483 ] ] ] ] } },
{ "type": "Feature", "properties": { "area_code": "korce", "area_name": "Korçë", "area_unit_id": "al-prefecture-2023-geoboundaries-adm1:korce", "boundary_set_id": "al-prefecture-2023-geoboundaries-adm1", "boundary_level": "prefecture", "prefecture_iso": "AL-06", "shape_id": "10019604B11091570243697", "land_area_sq_km": 3530.6045816594478 }, "geometry": { "type": "MultiPolygon", "coordinates": [ [ [ [ 20.44315, 40.44214 ], [ 20.47175, 40.42859 ], [ 20.4582, 40.38794 ], [ 20.51542, 40.35632 ], [ 20.49434, 40.31567 ], [ 20.50036, 40.26147 ], [ 20.52294, 40.24641 ], [ 20.52746, 40.20877 ], [ 20.538, 40.19673 ], [ 20.49886, 40.17264 ], [ 20.55456, 40.15156 ], [ 20.62984, 40.08381 ], [ 20.69007, 40.09585 ], [ 20.70211, 40.14855 ], [ 20.68555, 40.19221 ], [ 20.7262, 40.20124 ], [ 20.72169, 40.24491 ], [ 20.71115, 40.269 ], [ 20.74879, 40.30212 ], [ 20.77438, 40.31868 ], [ 20.77589, 40.34277 ], [ 20.79847, 40.35783 ], [ 20.79546, 40.42709 ], [ 20.84364, 40.44816 ], [ 20.85418, 40.48129 ], [ 20.8858, 40.47376 ], [ 20.91741, 40.47376 ], [ 20.93398, 40.46171 ], [ 20.95957, 40.46924 ], [ 20.97914, 40.49785 ], [ 20.98216, 40.51592 ], [ 21.06195, 40.56711 ], [ 21.06195, 40.65293 ], [ 21.06045, 40.68304 ], [ 20.99269, 40.72821 ], [ 20.98818, 40.78693 ], [ 20.94602, 40.76133 ], [ 20.93096, 40.77036 ], [ 20.91892, 40.78693 ], [ 20.94753, 40.80198 ], [ 20.94903, 40.83661 ], [ 20.96559, 40.84715 ], [ 20.9415, 40.87726 ], [ 20.95054, 40.89533 ], [ 20.98517, 40.8863 ], [ 20.94903, 40.92845 ], [ 20.91741, 40.91641 ], [ 20.87977, 40.92394 ], [ 20.85117, 40.93598 ], [ 20.82557, 40.9134 ], [ 20.81052, 40.89683 ], [ 20.75933, 40.90737 ], [ 20.73212, 40.91415 ], [ 20.72164, 40.90429 ], [ 20.69944, 40.9012 ], [ 20.67724, 40.90244 ], [ 20.64887, 40.91354 ], [ 20.6413, 40.93566 ], [ 20.64406, 40.94948 ], [ 20.65274, 40.9704 ], [ 20.63419, 41.00552 ], [ 20.63577, 41.0446 ], [ 20.6484, 41.05802 ], [ 20.64761, 41.06946 ], [ 20.64197, 41.06634 ], [ 20.62762, 41.07315 ], [ 20.63167, 41.08547 ], [ 20.61199, 41.08878 ], [ 20.59433, 41.09354 ], [ 20.62196, 41.06946 ], [ 20.60656, 41.02249 ], [ 20.5967, 41.01026 ], [ 20.55249, 41.03355 ], [ 20.53592, 41.03828 ], [ 20.47869, 40.99605 ], [ 20.42357, 40.98115 ], [ 20.41755, 40.95104 ], [ 20.43713, 40.93448 ], [ 20.37991, 40.92243 ], [ 20.39196, 40.89382 ], [ 20.42809, 40.87726 ], [ 20.46724, 40.82457 ], [ 20.47778, 40.78542 ], [ 20.45068, 40.74326 ], [ 20.41454, 40.73573 ], [ 20.35733, 40.74326 ], [ 20.32571, 40.73724 ], [ 20.28958, 40.72218 ], [ 20.30764, 40.70863 ], [ 20.33776, 40.67702 ], [ 20.34378, 40.65293 ], [ 20.37389, 40.63486 ], [ 20.37991, 40.60475 ], [ 20.42809, 40.57915 ], [ 20.46573, 40.5656 ], [ 20.43562, 40.5385 ], [ 20.44917, 40.51592 ], [ 20.45068, 40.46623 ], [ 20.44315, 40.44214 ] ] ] ] } },
{ "type": "Feature", "properties": { "area_code": "kukes", "area_name": "Kukës", "area_unit_id": "al-prefecture-2023-geoboundaries-adm1:kukes", "boundary_set_id": "al-prefecture-2023-geoboundaries-adm1", "boundary_level": "prefecture", "prefecture_iso": "AL-07", "shape_id": "10019604B40645538692706", "land_area_sq_km": 2463.887658113244 }, "geometry": { "type": "MultiPolygon", "coordinates": [ [ [ [ 20.54608, 41.82115 ], [ 20.5657, 41.84593 ], [ 20.56053, 41.85729 ], [ 20.56673, 41.87691 ], [ 20.59655, 41.87878 ], [ 20.57706, 41.91202 ], [ 20.58945, 41.92338 ], [ 20.62115, 41.94312 ], [ 20.61611, 41.98345 ], [ 20.6035, 42.03639 ], [ 20.55813, 42.08177 ], [ 20.57073, 42.12966 ], [ 20.54699, 42.1652 ], [ 20.52386, 42.21609 ], [ 20.50668, 42.22666 ], [ 20.50337, 42.24054 ], [ 20.45934, 42.26929 ], [ 20.41391, 42.28478 ], [ 20.40462, 42.29613 ], [ 20.35712, 42.3044 ], [ 20.34886, 42.31885 ], [ 20.32614, 42.32711 ], [ 20.31065, 42.31679 ], [ 20.26822, 42.32378 ], [ 20.23797, 42.34142 ], [ 20.25057, 42.37167 ], [ 20.21024, 42.39688 ], [ 20.23797, 42.4347 ], [ 20.18755, 42.46999 ], [ 20.1699, 42.50528 ], [ 20.09691, 42.54189 ], [ 20.05974, 42.55737 ], [ 20.03392, 42.54395 ], [ 20.01327, 42.54189 ], [ 20.00088, 42.51091 ], [ 19.96268, 42.51297 ], [ 19.94409, 42.5233 ], [ 19.91002, 42.51091 ], [ 19.90279, 42.48923 ], [ 19.88214, 42.49955 ], [ 19.87284, 42.48303 ], [ 19.846, 42.48923 ], [ 19.82637, 42.46034 ], [ 19.82064, 42.43682 ], [ 19.79827, 42.4288 ], [ 19.79392, 42.41378 ], [ 19.80801, 42.40871 ], [ 19.82981, 42.39902 ], [ 19.82739, 42.37319 ], [ 19.81416, 42.36658 ], [ 19.8177, 42.35462 ], [ 19.83517, 42.34786 ], [ 19.84676, 42.31425 ], [ 19.84757, 42.2763 ], [ 19.83788, 42.26904 ], [ 19.83385, 42.25127 ], [ 19.84919, 42.24159 ], [ 19.88471, 42.24401 ], [ 19.91377, 42.25612 ], [ 19.93719, 42.26984 ], [ 19.95737, 42.26823 ], [ 19.9824, 42.24885 ], [ 20.00743, 42.26338 ], [ 20.02681, 42.26177 ], [ 20.06718, 42.23836 ], [ 20.10028, 42.22463 ], [ 20.12208, 42.21656 ], [ 20.15229, 42.21443 ], [ 20.16487, 42.20122 ], [ 20.19232, 42.18911 ], [ 20.21735, 42.18668 ], [ 20.23834, 42.18023 ], [ 20.23753, 42.16246 ], [ 20.19474, 42.14632 ], [ 20.1907, 42.1011 ], [ 20.15114, 42.05993 ], [ 20.16188, 42.01698 ], [ 20.17213, 42.0018 ], [ 20.21359, 42.0256 ], [ 20.23424, 42.03386 ], [ 20.26006, 42.01321 ], [ 20.26419, 41.9843 ], [ 20.25283, 41.96778 ], [ 20.25902, 41.95126 ], [ 20.23734, 41.9306 ], [ 20.22392, 41.91099 ], [ 20.20327, 41.91512 ], [ 20.18984, 41.89963 ], [ 20.22392, 41.88001 ], [ 20.20636, 41.86555 ], [ 20.22185, 41.86142 ], [ 20.26006, 41.86039 ], [ 20.27555, 41.87072 ], [ 20.28897, 41.8893 ], [ 20.31891, 41.8893 ], [ 20.34783, 41.86349 ], [ 20.33543, 41.84077 ], [ 20.34679, 41.83251 ], [ 20.35299, 41.81702 ], [ 20.39945, 41.81805 ], [ 20.4232, 41.83045 ], [ 20.42217, 41.8511 ], [ 20.44282, 41.85832 ], [ 20.48206, 41.85316 ], [ 20.50684, 41.81909 ], [ 20.54608, 41.82115 ] ] ] ] } },
{ "type": "Feature", "properties": { "area_code": "lezhe", "area_name": "Lezhë", "area_unit_id": "al-prefecture-2023-geoboundaries-adm1:lezhe", "boundary_set_id": "al-prefecture-2023-geoboundaries-adm1", "boundary_level": "prefecture", "prefecture_iso": "AL-08", "shape_id": "10019604B99204019868502", "land_area_sq_km": 1540.5060591351091 }, "geometry": { "type": "MultiPolygon", "coordinates": [ [ [ [ 20.20636, 41.86555 ], [ 20.22392, 41.88001 ], [ 20.18984, 41.89963 ], [ 20.20327, 41.91512 ], [ 20.22392, 41.91099 ], [ 20.23734, 41.9306 ], [ 20.25902, 41.95126 ], [ 20.25283, 41.96778 ], [ 20.26419, 41.9843 ], [ 20.26006, 42.01321 ], [ 20.23424, 42.03386 ], [ 20.21359, 42.0256 ], [ 20.17213, 42.0018 ], [ 20.15114, 41.9913 ], [ 20.1236, 41.99048 ], [ 20.1309, 41.97813 ], [ 20.09803, 41.9739 ], [ 20.09428, 41.95042 ], [ 20.0875, 41.94609 ], [ 20.09052, 41.94009 ], [ 20.09099, 41.91661 ], [ 20.04142, 41.92215 ], [ 20.03101, 41.90796 ], [ 20.01587, 41.88052 ], [ 19.98843, 41.86255 ], [ 19.95248, 41.86539 ], [ 19.92126, 41.89093 ], [ 19.91463, 41.90891 ], [ 19.92977, 41.93256 ], [ 19.91842, 41.97892 ], [ 19.90328, 41.96568 ], [ 19.87773, 41.96284 ], [ 19.84367, 41.93635 ], [ 19.80961, 41.93445 ], [ 19.79731, 41.94865 ], [ 19.763, 41.95228 ], [ 19.76419, 41.92878 ], [ 19.73193, 41.92686 ], [ 19.73202, 41.91269 ], [ 19.6964, 41.89137 ], [ 19.66817, 41.91554 ], [ 19.62675, 41.91509 ], [ 19.59782, 41.94111 ], [ 19.56498, 41.93767 ], [ 19.56748, 41.89475 ], [ 19.58671, 41.88011 ], [ 19.58434, 41.86694 ], [ 19.55883, 41.85291 ], [ 19.53402, 41.83474 ], [ 19.60522, 41.81203 ], [ 19.61278, 41.75909 ], [ 19.57497, 41.74901 ], [ 19.59766, 41.70867 ], [ 19.55984, 41.64313 ], [ 19.59658, 41.63284 ], [ 19.59508, 41.61567 ], [ 19.55791, 41.58263 ], [ 19.57959, 41.57024 ], [ 19.66426, 41.56817 ], [ 19.69111, 41.55475 ], [ 19.73861, 41.55475 ], [ 19.77268, 41.57643 ], [ 19.81089, 41.5754 ], [ 19.82431, 41.56817 ], [ 19.82638, 41.59502 ], [ 19.83774, 41.60948 ], [ 19.80366, 41.61257 ], [ 19.7954, 41.62187 ], [ 19.81915, 41.63426 ], [ 19.81812, 41.65904 ], [ 19.80263, 41.67453 ], [ 19.77268, 41.69415 ], [ 19.82328, 41.73442 ], [ 19.83361, 41.71273 ], [ 19.85426, 41.69208 ], [ 19.87284, 41.70034 ], [ 19.91002, 41.69518 ], [ 19.94203, 41.68072 ], [ 19.95132, 41.69208 ], [ 19.95132, 41.71583 ], [ 19.96474, 41.71583 ], [ 19.97817, 41.70447 ], [ 19.99636, 41.71422 ], [ 20.0125, 41.70131 ], [ 20.04315, 41.70938 ], [ 20.04638, 41.73842 ], [ 20.08833, 41.73842 ], [ 20.10285, 41.75455 ], [ 20.15609, 41.78359 ], [ 20.18352, 41.78682 ], [ 20.18029, 41.80941 ], [ 20.12544, 41.83038 ], [ 20.15932, 41.84651 ], [ 20.18029, 41.8449 ], [ 20.1819, 41.86104 ], [ 20.20636, 41.86555 ] ] ] ] } },
{ "type": "Feature", "properties": { "area_code": "shkoder", "area_name": "Shkodër", "area_unit_id": "al-prefecture-2023-geoboundaries-adm1:shkoder", "boundary_set_id": "al-prefecture-2023-geoboundaries-adm1", "boundary_level": "prefecture", "prefecture_iso": "AL-10", "shape_id": "10019604B9428140626415", "land_area_sq_km": 3443.4782513391369 }, "geometry": { "type": "MultiPolygon", "coordinates": [ [ [ [ 19.82637, 42.46034 ], [ 19.80859, 42.47239 ], [ 19.79075, 42.48644 ], [ 19.77074, 42.49934 ], [ 19.75927, 42.51311 ], [ 19.75403, 42.53723 ], [ 19.74435, 42.5481 ], [ 19.75755, 42.56817 ], [ 19.75529, 42.57505 ], [ 19.76156, 42.58366 ], [ 19.77188, 42.58136 ], [ 19.77533, 42.59341 ], [ 19.75848, 42.60713 ], [ 19.75108, 42.61432 ], [ 19.75214, 42.62066 ], [ 19.74835, 42.62679 ], [ 19.75724, 42.63461 ], [ 19.75676, 42.6366 ], [ 19.75383, 42.63905 ], [ 19.74983, 42.64097 ], [ 19.74583, 42.64073 ], [ 19.74105, 42.6424 ], [ 19.73884, 42.64234 ], [ 19.7374, 42.64353 ], [ 19.73764, 42.64628 ], [ 19.73343, 42.65674 ], [ 19.7198, 42.66193 ], [ 19.70768, 42.65508 ], [ 19.68522, 42.63519 ], [ 19.67528, 42.62782 ], [ 19.66715, 42.63132 ], [ 19.63846, 42.60257 ], [ 19.6113, 42.57786 ], [ 19.61145, 42.56848 ], [ 19.60993, 42.56227 ], [ 19.61593, 42.54707 ], [ 19.61532, 42.54169 ], [ 19.6075, 42.53849 ], [ 19.6022, 42.5309 ], [ 19.56355, 42.51429 ], [ 19.56274, 42.50111 ], [ 19.5527, 42.48707 ], [ 19.54912, 42.48708 ], [ 19.52118, 42.45117 ], [ 19.4686, 42.39045 ], [ 19.4454, 42.38438 ], [ 19.42528, 42.37176 ], [ 19.4243, 42.35887 ], [ 19.41666, 42.35247 ], [ 19.41488, 42.34502 ], [ 19.41738, 42.33283 ], [ 19.42096, 42.33017 ], [ 19.43186, 42.33606 ], [ 19.42693, 42.32983 ], [ 19.42684, 42.3255 ], [ 19.42304, 42.32262 ], [ 19.42233, 42.31894 ], [ 19.41858, 42.317 ], [ 19.41661, 42.31432 ], [ 19.41501, 42.3137 ], [ 19.41402, 42.31179 ], [ 19.41577, 42.30996 ], [ 19.40878, 42.30544 ], [ 19.40817, 42.30263 ], [ 19.39683, 42.29631 ], [ 19.39563, 42.29265 ], [ 19.38686, 42.28325 ], [ 19.38932, 42.28089 ], [ 19.38828, 42.27934 ], [ 19.39048, 42.27662 ], [ 19.39238, 42.27638 ], [ 19.39466, 42.27737 ], [ 19.39359, 42.27603 ], [ 19.3951, 42.27511 ], [ 19.39463, 42.272 ], [ 19.39065, 42.27227 ], [ 19.38994, 42.27452 ], [ 19.38436, 42.27044 ], [ 19.383, 42.26792 ], [ 19.38155, 42.26807 ], [ 19.38154, 42.26908 ], [ 19.37927, 42.26508 ], [ 19.3742, 42.26178 ], [ 19.37353, 42.26286 ], [ 19.37218, 42.26151 ], [ 19.37093, 42.25625 ], [ 19.36713, 42.25296 ], [ 19.36485, 42.24865 ], [ 19.36491, 42.24496 ], [ 19.36355, 42.24165 ], [ 19.35835, 42.23714 ], [ 19.35781, 42.23549 ], [ 19.36112, 42.23095 ], [ 19.35908, 42.2189 ], [ 19.36493, 42.21365 ], [ 19.37864, 42.20446 ], [ 19.38763, 42.20079 ], [ 19.38982, 42.19622 ], [ 19.4023, 42.19042 ], [ 19.42397, 42.18451 ], [ 19.43194, 42.17948 ], [ 19.43477, 42.16981 ], [ 19.4345, 42.16303 ], [ 19.43918, 42.1553 ], [ 19.4498, 42.14986 ], [ 19.45857, 42.14889 ], [ 19.47152, 42.13136 ], [ 19.47763, 42.11509 ], [ 19.47713, 42.10607 ], [ 19.46903, 42.09394 ], [ 19.47339, 42.0863 ], [ 19.47163, 42.07153 ], [ 19.47661, 42.0698 ], [ 19.47415, 42.06302 ], [ 19.476, 42.05496 ], [ 19.46383, 42.05871 ], [ 19.44784, 42.06102 ], [ 19.42653, 42.06832 ], [ 19.41849, 42.07001 ], [ 19.39807, 42.07243 ], [ 19.38603, 42.07765 ], [ 19.37884, 42.07275 ], [ 19.37712, 42.06002 ], [ 19.37899, 42.05125 ], [ 19.37053, 42.03703 ], [ 19.37394, 42.00557 ], [ 19.37999, 42.00201 ], [ 19.38111, 41.99073 ], [ 19.38133, 41.98448 ], [ 19.37628, 41.97642 ], [ 19.38752, 41.96777 ], [ 19.37063, 41.96053 ], [ 19.35897, 41.96022 ], [ 19.35099, 41.95461 ], [ 19.35098, 41.94105 ], [ 19.36022, 41.93399 ], [ 19.36926, 41.92864 ], [ 19.35603, 41.91567 ], [ 19.34854, 41.91425 ], [ 19.34259, 41.90691 ], [ 19.3557, 41.90018 ], [ 19.36831, 41.89106 ], [ 19.37314, 41.85076 ], [ 19.38055, 41.84721 ], [ 19.40962, 41.85803 ], [ 19.45213, 41.86673 ], [ 19.50323, 41.85052 ], [ 19.53402, 41.83474 ], [ 19.55883, 41.85291 ], [ 19.58434, 41.86694 ], [ 19.58671, 41.88011 ], [ 19.56748, 41.89475 ], [ 19.56498, 41.93767 ], [ 19.59782, 41.94111 ], [ 19.62675, 41.91509 ], [ 19.66817, 41.91554 ], [ 19.6964, 41.89137 ], [ 19.73202, 41.91269 ], [ 19.73193, 41.92686 ], [ 19.76419, 41.92878 ], [ 19.763, 41.95228 ], [ 19.79731, 41.94865 ], [ 19.80961, 41.93445 ], [ 19.84367, 41.93635 ], [ 19.87773, 41.96284 ], [ 19.90328, 41.96568 ], [ 19.91842, 41.97892 ], [ 19.92977, 41.93256 ], [ 19.91463, 41.90891 ], [ 19.92126, 41.89093 ], [ 19.95248, 41.86539 ], [ 19.98843, 41.86255 ], [ 20.01587, 41.88052 ], [ 20.03101, 41.90796 ], [ 20.04142, 41.92215 ], [ 20.09099, 41.91661 ], [ 20.09052, 41.94009 ], [ 20.0875, 41.94609 ], [ 20.09428, 41.95042 ], [ 20.09803, 41.9739 ], [ 20.1309, 41.97813 ], [ 20.1236, 41.99048 ], [ 20.15114, 41.9913 ], [ 20.17213, 42.0018 ], [ 20.16188, 42.01698 ], [ 20.15114, 42.05993 ], [ 20.1907, 42.1011 ], [ 20.19474, 42.14632 ], [ 20.23753, 42.16246 ], [ 20.23834, 42.18023 ], [ 20.21735, 42.18668 ], [ 20.19232, 42.18911 ], [ 20.16487, 42.20122 ], [ 20.15229, 42.21443 ], [ 20.12208, 42.21656 ], [ 20.10028, 42.22463 ], [ 20.06718, 42.23836 ], [ 20.02681, 42.26177 ], [ 20.00743, 42.26338 ], [ 19.9824, 42.24885 ], [ 19.95737, 42.26823 ], [ 19.93719, 42.26984 ], [ 19.91377, 42.25612 ], [ 19.88471, 42.24401 ], [ 19.84919, 42.24159 ], [ 19.83385, 42.25127 ], [ 19.83788, 42.26904 ], [ 19.84757, 42.2763 ], [ 19.84676, 42.31425 ], [ 19.83517, 42.34786 ], [ 19.8177, 42.35462 ], [ 19.81416, 42.36658 ], [ 19.82739, 42.37319 ], [ 19.82981, 42.39902 ], [ 19.80801, 42.40871 ], [ 19.79392, 42.41378 ], [ 19.79827, 42.4288 ], [ 19.82064, 42.43682 ], [ 19.82637, 42.46034 ] ] ] ] } },
{ "type": "Feature", "properties": { "area_code": "tirane", "area_name": "Tiranë", "area_unit_id": "al-prefecture-2023-geoboundaries-adm1:tirane", "boundary_set_id": "al-prefecture-2023-geoboundaries-adm1", "boundary_level": "prefecture", "prefecture_iso": "AL-11", "shape_id": "10019604B30424798991477", "land_area_sq_km": 1613.8835966639028 }, "geometry": { "type": "MultiPolygon", "coordinates": [ [ [ [ 19.90485, 41.50622 ], [ 19.89956, 41.48028 ], [ 19.88181, 41.46253 ], [ 19.86407, 41.47221 ], [ 19.85219, 41.43807 ], [ 19.82535, 41.45769 ], [ 19.80469, 41.4391 ], [ 19.76133, 41.42155 ], [ 19.74274, 41.40193 ], [ 19.72312, 41.39883 ], [ 19.69524, 41.42465 ], [ 19.65433, 41.43833 ], [ 19.62528, 41.45446 ], [ 19.59947, 41.43833 ], [ 19.60431, 41.39961 ], [ 19.63174, 41.37702 ], [ 19.64465, 41.34798 ], [ 19.62851, 41.32378 ], [ 19.63012, 41.2899 ], [ 19.58656, 41.28183 ], [ 19.58172, 41.24956 ], [ 19.54383, 41.25786 ], [ 19.51805, 41.27306 ], [ 19.5172, 41.2356 ], [ 19.47956, 41.19043 ], [ 19.47221, 41.167 ], [ 19.45556, 41.1485 ], [ 19.43521, 41.14665 ], [ 19.45063, 41.12568 ], [ 19.45724, 41.08446 ], [ 19.44261, 41.03688 ], [ 19.44602, 40.99881 ], [ 19.47708, 41.04904 ], [ 19.50219, 41.0378 ], [ 19.50814, 41.04838 ], [ 19.53127, 41.04045 ], [ 19.5729, 41.0649 ], [ 19.59735, 41.06093 ], [ 19.60859, 41.05036 ], [ 19.6337, 41.06886 ], [ 19.66013, 41.06027 ], [ 19.67798, 41.03714 ], [ 19.69384, 41.04986 ], [ 19.6948, 41.08648 ], [ 19.73045, 41.08744 ], [ 19.75262, 41.11539 ], [ 19.82007, 41.11635 ], [ 19.81429, 41.14815 ], [ 19.86439, 41.15393 ], [ 19.88752, 41.16742 ], [ 19.92317, 41.16742 ], [ 19.99749, 41.21753 ], [ 20.00351, 41.25216 ], [ 20.04115, 41.24614 ], [ 20.0547, 41.22957 ], [ 20.07578, 41.2356 ], [ 20.07879, 41.26872 ], [ 20.11191, 41.27173 ], [ 20.12095, 41.30184 ], [ 20.17063, 41.31841 ], [ 20.20225, 41.31539 ], [ 20.22385, 41.34314 ], [ 20.19191, 41.35133 ], [ 20.13821, 41.35133 ], [ 20.13202, 41.36682 ], [ 20.12479, 41.39057 ], [ 20.09898, 41.40296 ], [ 20.08039, 41.38954 ], [ 20.07832, 41.36269 ], [ 20.04941, 41.37095 ], [ 20.04838, 41.3947 ], [ 20.0205, 41.41122 ], [ 19.98643, 41.41948 ], [ 19.98333, 41.44426 ], [ 19.94512, 41.47214 ], [ 19.94616, 41.49486 ], [ 19.90485, 41.50622 ] ] ] ] } },
{ "type": "Feature", "properties": { "area_code": "vlore", "area_name": "Vlorë", "area_unit_id": "al-prefecture-2023-geoboundaries-adm1:vlore", "boundary_set_id": "al-prefecture-2023-geoboundaries-adm1", "boundary_level": "prefecture", "prefecture_iso": "AL-12", "shape_id": "10019604B59649873769490", "land_area_sq_km": 2739.3531858530032 }, "geometry": { "type": "MultiPolygon", "coordinates": [ [ [ [ 19.28856, 40.47554 ], [ 19.28761, 40.48028 ], [ 19.29411, 40.49125 ], [ 19.29005, 40.49979 ], [ 19.28661, 40.50238 ], [ 19.28246, 40.5025 ], [ 19.27677, 40.50521 ], [ 19.27487, 40.51063 ], [ 19.27108, 40.51443 ], [ 19.26606, 40.5128 ], [ 19.26571, 40.50801 ], [ 19.26439, 40.50707 ], [ 19.26389, 40.50468 ], [ 19.26511, 40.49993 ], [ 19.2685, 40.49247 ], [ 19.27406, 40.48976 ], [ 19.27934, 40.47472 ], [ 19.28503, 40.47323 ], [ 19.28856, 40.47554 ] ] ], [ [ [ 19.30724, 40.65253 ], [ 19.30657, 40.63232 ], [ 19.36634, 40.57659 ], [ 19.38815, 40.52167 ], [ 19.38976, 40.56771 ], [ 19.45438, 40.55398 ], [ 19.45195, 40.50148 ], [ 19.41076, 40.52086 ], [ 19.4043, 40.51279 ], [ 19.38734, 40.51117 ], [ 19.47941, 40.43767 ], [ 19.47376, 40.34883 ], [ 19.4358, 40.31491 ], [ 19.4043, 40.33914 ], [ 19.40245, 40.38354 ], [ 19.3518, 40.4296 ], [ 19.33565, 40.43686 ], [ 19.31465, 40.43606 ], [ 19.29123, 40.42636 ], [ 19.27992, 40.41587 ], [ 19.32676, 40.38114 ], [ 19.36069, 40.33429 ], [ 19.36472, 40.29633 ], [ 19.40026, 40.27775 ], [ 19.46488, 40.21314 ], [ 19.54483, 40.18245 ], [ 19.62802, 40.13722 ], [ 19.65468, 40.12833 ], [ 19.67406, 40.12672 ], [ 19.69345, 40.11864 ], [ 19.70475, 40.12107 ], [ 19.71283, 40.1033 ], [ 19.74352, 40.10733 ], [ 19.75968, 40.09683 ], [ 19.74756, 40.08068 ], [ 19.77017, 40.06049 ], [ 19.77421, 40.07422 ], [ 19.7936, 40.06534 ], [ 19.79764, 40.04837 ], [ 19.8146, 40.04191 ], [ 19.81783, 40.05241 ], [ 19.85498, 40.04999 ], [ 19.89294, 39.99426 ], [ 19.93617, 39.94315 ], [ 19.90774, 39.90593 ], [ 19.92996, 39.89198 ], [ 19.94909, 39.89456 ], [ 19.97235, 39.87802 ], [ 19.97338, 39.85734 ], [ 19.99613, 39.87027 ], [ 20.01991, 39.85941 ], [ 20.02197, 39.85011 ], [ 20.00051, 39.79595 ], [ 20.00445, 39.76637 ], [ 19.97093, 39.76637 ], [ 19.99065, 39.74468 ], [ 19.98671, 39.71904 ], [ 19.98671, 39.68355 ], [ 20.04981, 39.68158 ], [ 20.10502, 39.65989 ], [ 20.15234, 39.64806 ], [ 20.22136, 39.63623 ], [ 20.22333, 39.66383 ], [ 20.24108, 39.68158 ], [ 20.26868, 39.66778 ], [ 20.28643, 39.71313 ], [ 20.32981, 39.72693 ], [ 20.30023, 39.77031 ], [ 20.31404, 39.81054 ], [ 20.31329, 39.85345 ], [ 20.28958, 39.85909 ], [ 20.26624, 39.86587 ], [ 20.26398, 39.88431 ], [ 20.23537, 39.90276 ], [ 20.23688, 39.92948 ], [ 20.19573, 39.9539 ], [ 20.15868, 39.96802 ], [ 20.13222, 39.99272 ], [ 20.08987, 40.02506 ], [ 20.08399, 40.04094 ], [ 20.06282, 40.04388 ], [ 20.04988, 40.05624 ], [ 20.01224, 40.06035 ], [ 19.98695, 40.05976 ], [ 19.97695, 40.05388 ], [ 19.94813, 40.058 ], [ 19.93284, 40.10681 ], [ 19.90049, 40.13857 ], [ 19.8852, 40.14622 ], [ 19.88109, 40.1721 ], [ 19.85932, 40.19915 ], [ 19.84448, 40.2196 ], [ 19.8364, 40.25029 ], [ 19.8146, 40.2721 ], [ 19.83075, 40.28421 ], [ 19.75887, 40.33429 ], [ 19.74514, 40.35529 ], [ 19.77179, 40.36417 ], [ 19.80006, 40.3771 ], [ 19.79198, 40.39971 ], [ 19.76565, 40.42028 ], [ 19.73661, 40.43802 ], [ 19.76081, 40.47191 ], [ 19.74491, 40.49851 ], [ 19.71402, 40.50095 ], [ 19.69691, 40.53274 ], [ 19.62445, 40.55142 ], [ 19.58017, 40.55605 ], [ 19.5544, 40.56662 ], [ 19.56497, 40.58645 ], [ 19.52598, 40.57984 ], [ 19.53061, 40.60032 ], [ 19.4751, 40.6109 ], [ 19.47382, 40.62798 ], [ 19.45593, 40.63733 ], [ 19.44139, 40.63535 ], [ 19.43148, 40.65319 ], [ 19.42223, 40.65319 ], [ 19.40571, 40.63601 ], [ 19.3687, 40.65716 ], [ 19.30724, 40.65253 ] ] ] ] } }
]
}
