{"type":"FeatureCollection","attribution":"© OpenStreetMap contributors, ODbL 1.0","features":[{"type":"Feature","geometry":{"type":"Point","coordinates":[20.16256,40.63635]},"properties":{"osm_type":"way","osm_id":291647640,"name":"Tyrbja e Abaz Aliut","religion":"muslim","denomination":"bektashi","start_date":"1620","end_date":null,"start_year":1620,"end_year":null}},{"type":"Feature","geometry":{"type":"Point","coordinates":[20.60303,40.64561]},"properties":{"osm_type":"way","osm_id":226825466,"name":"Manastiri i Shën Gjon Pagëzorit","religion":"christian","denomination":"orthodox","start_date":"1632","end_date":null,"start_year":1632,"end_year":null}},{"type":"Feature","geometry":{"type":"Point","coordinates":[19.94534,40.70912]},"properties":{"osm_type":"way","osm_id":234491944,"name":"Katedralja Fjetja e Shën Mërisë","religion":"christian","denomination":"orthodox","start_date":"1797","end_date":null,"start_year":1797,"end_year":null}},{"type":"Feature","geometry":{"type":"Point","coordinates":[19.94686,40.70236]},"properties":{"osm_type":"way","osm_id":425315929,"name":"Kisha e Shën Spiridhonit","religion":"christian","denomination":"orthodox","start_date":"1864","end_date":null,"start_year":1864,"end_year":null}},{"type":"Feature","geometry":{"type":"Point","coordinates":[20.58758,40.52318]},"properties":{"osm_type":"way","osm_id":1187893201,"name":"Shën Nikodhimi","religion":"christian","denomination":"orthodox","start_date":"1999","end_date":null,"start_year":1999,"end_year":null}},{"type":"Feature","geometry":{"type":"Point","coordinates":[20.01681,40.29683]},"properties":{"osm_type":"way","osm_id":1051021652,"name":"Xhamia Erdebil","religion":"muslim","denomination":"sunni","start_date":"2007-06-21","end_date":null,"start_year":2007,"end_year":null}},{"type":"Feature","geometry":{"type":"Point","coordinates":[20.77895,40.61047]},"properties":{"osm_type":"way","osm_id":1315507910,"name":"Xhamia Hafiz Osman","religion":"muslim","denomination":null,"start_date":"2011","end_date":null,"start_year":2011,"end_year":null}}]}
