{"type":"FeatureCollection","attribution":"© OpenStreetMap contributors, ODbL 1.0","features":[{"type":"Feature","geometry":{"type":"Point","coordinates":[-97.96052,19.93132]},"properties":{"osm_type":"way","osm_id":664313622,"name":"Ex-Convento Franciscano","religion":null,"denomination":null,"start_date":"1564-11-21","end_date":null,"start_year":1564,"end_year":null}},{"type":"Feature","geometry":{"type":"Point","coordinates":[-99.01702,21.98447]},"properties":{"osm_type":"way","osm_id":504419669,"name":"Parroquia de Santiago Apóstol","religion":"christian","denomination":"catholic","start_date":"1593","end_date":null,"start_year":1593,"end_year":null}},{"type":"Feature","geometry":{"type":"Point","coordinates":[-111.34335,26.01046]},"properties":{"osm_type":"way","osm_id":441504535,"name":"Misión de Nuestra Señora de Loreto Conchó","religion":"christian","denomination":"roman_catholic","start_date":"1697","end_date":null,"start_year":1697,"end_year":null}},{"type":"Feature","geometry":{"type":"Point","coordinates":[-99.11686,19.48522]},"properties":{"osm_type":"way","osm_id":120733637,"name":"Templo Expiatorio a Cristo Rey (Antigua Basilica)","religion":"christian","denomination":"catholic","start_date":"1709","end_date":null,"start_year":1709,"end_year":null}},{"type":"Feature","geometry":{"type":"Point","coordinates":[-99.10622,19.26573]},"properties":{"osm_type":"way","osm_id":336891067,"name":"Capilla de San Juan Bautista","religion":"christian","denomination":"catholic","start_date":"1730","end_date":null,"start_year":1730,"end_year":null}},{"type":"Feature","geometry":{"type":"Point","coordinates":[-102.02277,20.34066]},"properties":{"osm_type":"way","osm_id":277215024,"name":"Santuario del Señor de La Piedad","religion":"christian","denomination":"catholic","start_date":"1750","end_date":null,"start_year":1750,"end_year":null}},{"type":"Feature","geometry":{"type":"Point","coordinates":[-99.13543,19.55752]},"properties":{"osm_type":"way","osm_id":650322848,"name":"Preciosa Sangre de Cristo","religion":"christian","denomination":null,"start_date":"1767","end_date":null,"start_year":1767,"end_year":null}},{"type":"Feature","geometry":{"type":"Point","coordinates":[-102.4031,21.03085]},"properties":{"osm_type":"way","osm_id":297929495,"name":"Parroquia de San Miguel el Alto","religion":"christian","denomination":"catholic","start_date":"1837","end_date":null,"start_year":1837,"end_year":null}},{"type":"Feature","geometry":{"type":"Point","coordinates":[-100.38486,20.99933]},"properties":{"osm_type":"way","osm_id":1034990137,"name":null,"religion":"christian","denomination":"catholic","start_date":"1876","end_date":null,"start_year":1876,"end_year":null}},{"type":"Feature","geometry":{"type":"Point","coordinates":[-99.19036,19.40708]},"properties":{"osm_type":"way","osm_id":1212422618,"name":"Capilla de Guadalupe","religion":"christian","denomination":null,"start_date":"1908","end_date":null,"start_year":1908,"end_year":null}},{"type":"Feature","geometry":{"type":"Point","coordinates":[-99.16492,19.4276]},"properties":{"osm_type":"way","osm_id":1220607740,"name":"Parroquia Votiva de Nuestra Señora del Sagrado Corazón","religion":"christian","denomination":"roman_catholic","start_date":"1931","end_date":null,"start_year":1931,"end_year":null}},{"type":"Feature","geometry":{"type":"Point","coordinates":[-99.01333,21.98861]},"properties":{"osm_type":"way","osm_id":301352343,"name":"Catedral","religion":"christian","denomination":"catholic","start_date":"1945","end_date":null,"start_year":1945,"end_year":null}},{"type":"Feature","geometry":{"type":"Point","coordinates":[-116.86669,32.46562]},"properties":{"osm_type":"node","osm_id":7376965437,"name":"IAFCJ NO. 24","religion":"christian","denomination":"iglesia_apostolica_de_la_fe_en_cristo_jesus_a.r.","start_date":"1975-08-15","end_date":null,"start_year":1975,"end_year":null}},{"type":"Feature","geometry":{"type":"Point","coordinates":[-99.11786,19.48485]},"properties":{"osm_type":"way","osm_id":120733641,"name":"Basílica de Santa María de Guadalupe","religion":"christian","denomination":"catholic","start_date":"1976","end_date":null,"start_year":1976,"end_year":null}},{"type":"Feature","geometry":{"type":"Point","coordinates":[-101.17307,20.59518]},"properties":{"osm_type":"node","osm_id":5844173176,"name":"Capilla Primavera 2","religion":"christian","denomination":"catholic","start_date":"12 de Enero del 2001","end_date":null,"start_year":2001,"end_year":null}},{"type":"Feature","geometry":{"type":"Point","coordinates":[-97.79255,17.84134]},"properties":{"osm_type":"node","osm_id":11620171296,"name":"Amistad La Red VV Huajuapan","religion":"christian","denomination":"protestant","start_date":"2023-04-09","end_date":null,"start_year":2023,"end_year":null}}]}
