{"type":"FeatureCollection", "features": [
{"type":"Feature","geometry":{"type":"Polygon","coordinates":[[[166.91014,-0.53099],[166.91007,-0.5311],[166.90967,-0.53118],[166.9092,-0.53124],[166.90952,-0.53153],[166.90965,-0.53179],[166.91002,-0.5319],[166.91001,-0.53248],[166.90994,-0.53308],[166.90983,-0.53388],[166.90981,-0.53453],[166.90983,-0.53501],[166.90983,-0.5356],[166.90983,-0.53614],[166.90981,-0.53668],[166.90985,-0.53729],[166.90986,-0.53779],[166.90999,-0.53812],[166.91006,-0.53844],[166.9101,-0.53873],[166.91015,-0.53895],[166.9102,-0.53935],[166.91028,-0.53961],[166.91035,-0.54021],[166.91043,-0.54059],[166.91051,-0.54091],[166.91062,-0.54138],[166.9107,-0.54172],[166.9108,-0.54214],[166.91089,-0.54231],[166.91117,-0.54262],[166.91118,-0.54264],[166.91129,-0.54285],[166.9115,-0.54316],[166.91162,-0.54332],[166.91173,-0.54362],[166.9118,-0.54381],[166.91189,-0.54405],[166.91197,-0.54425],[166.91204,-0.54448],[166.91206,-0.54468],[166.9121,-0.54482],[166.91218,-0.54513],[166.91228,-0.54528],[166.9125,-0.54547],[166.91268,-0.54573],[166.9129,-0.54597],[166.91303,-0.54621],[166.91326,-0.54651],[166.91343,-0.5469],[166.91366,-0.54708],[166.91387,-0.54729],[166.91418,-0.54754],[166.91455,-0.5478],[166.91471,-0.54799],[166.91517,-0.54838],[166.91541,-0.54859],[166.91586,-0.54901],[166.91607,-0.5492],[166.91633,-0.54933],[166.91656,-0.5495],[166.9168,-0.54972],[166.91707,-0.54989],[166.91722,-0.55],[166.91749,-0.5501],[166.91777,-0.55032],[166.91798,-0.55041],[166.91827,-0.55058],[166.91847,-0.55071],[166.91866,-0.55086],[166.91893,-0.55099],[166.91919,-0.55113],[166.91937,-0.5512],[166.91966,-0.55137],[166.91982,-0.55143],[166.92028,-0.5516],[166.92057,-0.55176],[166.92078,-0.55182],[166.92117,-0.552],[166.92154,-0.5522],[166.92186,-0.55241],[166.92209,-0.55256],[166.92235,-0.55279],[166.92268,-0.55295],[166.92301,-0.55306],[166.92342,-0.55324],[166.92365,-0.55328],[166.92386,-0.55333],[166.92419,-0.55338],[166.92438,-0.55337],[166.92461,-0.55341],[166.92489,-0.55339],[166.92516,-0.55337],[166.92534,-0.55339],[166.92558,-0.55346],[166.92587,-0.55356],[166.92611,-0.55365],[166.92634,-0.55372],[166.9266,-0.55374],[166.92676,-0.55382],[166.92708,-0.55394],[166.92725,-0.55395],[166.92746,-0.55395],[166.92764,-0.55394],[166.92787,-0.55397],[166.92801,-0.554],[166.92825,-0.55412],[166.92866,-0.55414],[166.92896,-0.5542],[166.92942,-0.55427],[166.92943,-0.55427],[166.92969,-0.55428],[166.93012,-0.55432],[166.93046,-0.55432],[166.93066,-0.55431],[166.93095,-0.55435],[166.93126,-0.55435],[166.9317,-0.55438],[166.93202,-0.55439],[166.93222,-0.55442],[166.93241,-0.55445],[166.93271,-0.55451],[166.93293,-0.55453],[166.93331,-0.55456],[166.93365,-0.55453],[166.93381,-0.55452],[166.93411,-0.55451],[166.93416,-0.55442],[166.93433,-0.55435],[166.93453,-0.55425],[166.93483,-0.5541],[166.93504,-0.55402],[166.93529,-0.55401],[166.93547,-0.55395],[166.93572,-0.55389],[166.93599,-0.55377],[166.93623,-0.55373],[166.93647,-0.55373],[166.93666,-0.55369],[166.93691,-0.55363],[166.93708,-0.55356],[166.93736,-0.55344],[166.93764,-0.55338],[166.93784,-0.55324],[166.93814,-0.55316],[166.9383,-0.55305],[166.9385,-0.55296],[166.93869,-0.55285],[166.93888,-0.55272],[166.93914,-0.55255],[166.93951,-0.55239],[166.93972,-0.55225],[166.93999,-0.55205],[166.94029,-0.5518],[166.94058,-0.55165],[166.94079,-0.55148],[166.941,-0.55144],[166.9413,-0.55115],[166.94151,-0.55092],[166.94191,-0.55067],[166.94227,-0.55032],[166.94259,-0.55006],[166.94296,-0.54981],[166.94321,-0.54961],[166.94349,-0.54943],[166.94378,-0.5492],[166.94405,-0.54901],[166.94426,-0.54885],[166.94452,-0.54867],[166.94477,-0.54847],[166.94509,-0.54833],[166.94541,-0.54807],[166.94585,-0.54782],[166.94612,-0.54767],[166.94644,-0.54753],[166.94683,-0.54732],[166.94711,-0.54723],[166.94753,-0.54715],[166.94777,-0.5469],[166.94814,-0.54661],[166.94838,-0.54647],[166.94877,-0.54628],[166.94911,-0.54616],[166.94947,-0.54594],[166.94973,-0.54578],[166.94996,-0.54544],[166.95027,-0.54518],[166.95055,-0.54482],[166.95077,-0.5445],[166.95098,-0.5441],[166.95107,-0.5439],[166.95112,-0.5437],[166.95116,-0.54347],[166.95117,-0.5432],[166.95114,-0.5429],[166.95115,-0.54244],[166.95113,-0.54218],[166.95108,-0.54183],[166.95106,-0.5415],[166.95105,-0.54146],[166.95101,-0.54114],[166.95093,-0.54104],[166.95091,-0.54067],[166.9509,-0.54042],[166.95088,-0.53997],[166.95093,-0.5394],[166.95098,-0.53913],[166.95091,-0.53882],[166.95085,-0.53836],[166.95081,-0.53802],[166.95088,-0.53754],[166.9509,-0.53718],[166.95078,-0.53697],[166.95069,-0.53667],[166.95069,-0.53635],[166.95073,-0.53581],[166.95086,-0.53538],[166.95104,-0.53493],[166.95117,-0.53446],[166.95135,-0.53384],[166.95139,-0.53335],[166.95151,-0.53269],[166.95175,-0.53194],[166.95201,-0.53113],[166.95221,-0.53044],[166.95233,-0.53009],[166.95242,-0.5297],[166.95244,-0.52941],[166.95252,-0.52907],[166.9526,-0.52877],[166.95284,-0.52859],[166.95286,-0.52838],[166.95289,-0.52809],[166.95302,-0.5277],[166.95316,-0.52741],[166.95329,-0.527],[166.95352,-0.52661],[166.95373,-0.52629],[166.95392,-0.526],[166.95418,-0.52568],[166.95452,-0.52526],[166.95464,-0.52484],[166.95481,-0.52466],[166.95511,-0.52447],[166.95532,-0.52433],[166.95558,-0.5242],[166.9558,-0.52407],[166.95598,-0.52378],[166.95617,-0.52355],[166.95637,-0.52325],[166.95658,-0.52299],[166.95669,-0.52288],[166.95687,-0.52264],[166.95699,-0.52238],[166.95724,-0.52217],[166.95741,-0.52199],[166.95773,-0.52148],[166.95793,-0.52127],[166.95822,-0.52088],[166.95838,-0.52064],[166.95851,-0.52045],[166.95849,-0.52025],[166.95862,-0.52],[166.95867,-0.51977],[166.95881,-0.51948],[166.95878,-0.51914],[166.95878,-0.51894],[166.95884,-0.51877],[166.95886,-0.51857],[166.95892,-0.51813],[166.95889,-0.51766],[166.95891,-0.5172],[166.9588,-0.51681],[166.95872,-0.51655],[166.95867,-0.51625],[166.95851,-0.51593],[166.95844,-0.51549],[166.95833,-0.51522],[166.95827,-0.51475],[166.95814,-0.51441],[166.95798,-0.51398],[166.95785,-0.51358],[166.95783,-0.51351],[166.95772,-0.51324],[166.95761,-0.51293],[166.95754,-0.51266],[166.95736,-0.51229],[166.95724,-0.51205],[166.95706,-0.51173],[166.95691,-0.5114],[166.95675,-0.5112],[166.95661,-0.511],[166.95638,-0.51084],[166.95633,-0.51076],[166.95614,-0.51052],[166.95593,-0.51025],[166.95566,-0.51],[166.95545,-0.50975],[166.95522,-0.50959],[166.955,-0.50941],[166.9549,-0.5091],[166.95463,-0.50898],[166.95439,-0.50881],[166.95419,-0.50857],[166.95402,-0.50833],[166.95379,-0.50803],[166.95355,-0.50778],[166.95326,-0.50753],[166.95294,-0.5073],[166.9527,-0.50703],[166.95236,-0.50682],[166.95191,-0.50658],[166.95175,-0.50638],[166.95159,-0.50614],[166.95133,-0.5059],[166.95112,-0.50581],[166.95086,-0.50568],[166.95057,-0.50553],[166.95024,-0.50539],[166.94982,-0.50529],[166.94959,-0.50519],[166.9494,-0.50507],[166.94911,-0.50489],[166.94884,-0.50465],[166.94856,-0.50447],[166.9483,-0.50429],[166.94824,-0.50427],[166.94797,-0.50416],[166.94761,-0.50404],[166.94731,-0.50391],[166.94689,-0.50379],[166.9465,-0.50367],[166.946,-0.50355],[166.94567,-0.50352],[166.94517,-0.50345],[166.94464,-0.5034],[166.94414,-0.5034],[166.94386,-0.50345],[166.94331,-0.50352],[166.9427,-0.50355],[166.94208,-0.50357],[166.94142,-0.50362],[166.94092,-0.50365],[166.94039,-0.50365],[166.93981,-0.50362],[166.93908,-0.50355],[166.93886,-0.50355],[166.93866,-0.50355],[166.93805,-0.50347],[166.93742,-0.5035],[166.93647,-0.50352],[166.93584,-0.50352],[166.93504,-0.5037],[166.93441,-0.50388],[166.9338,-0.50403],[166.9331,-0.50438],[166.9324,-0.50476],[166.93179,-0.50521],[166.93141,-0.50574],[166.93109,-0.50611],[166.93089,-0.50664],[166.93037,-0.50732],[166.93026,-0.50747],[166.92955,-0.5083],[166.92913,-0.5089],[166.92862,-0.50943],[166.92815,-0.50996],[166.92777,-0.51031],[166.92739,-0.51074],[166.92717,-0.51112],[166.92686,-0.51147],[166.92619,-0.51205],[166.92572,-0.51254],[166.92568,-0.51257],[166.92505,-0.5135],[166.92408,-0.51428],[166.92361,-0.5149],[166.92311,-0.5155],[166.92302,-0.51561],[166.92251,-0.51628],[166.92149,-0.51726],[166.92082,-0.51777],[166.92027,-0.51832],[166.91999,-0.51879],[166.91917,-0.51958],[166.91815,-0.52021],[166.91732,-0.52111],[166.91703,-0.52131],[166.91658,-0.52162],[166.91559,-0.52268],[166.91457,-0.5237],[166.91394,-0.52425],[166.91312,-0.52539],[166.91265,-0.52606],[166.91214,-0.52665],[166.91159,-0.52755],[166.9112,-0.52849],[166.91108,-0.52877],[166.9106,-0.52999],[166.91014,-0.53099]]]},"properties":{"area_code":"NR","area_name":"Nauru"}}
]}