{"type":"FeatureCollection", "features": [
{"type":"Feature","geometry":{"type":"Polygon","coordinates":[[[-88.2949,17.97263],[-88.28693,17.97211],[-88.27519,17.97138],[-88.25681,17.96846],[-88.23945,17.96628],[-88.21596,17.96288],[-88.19911,17.96215],[-88.17791,17.95948],[-88.17255,17.95243],[-88.16438,17.9551],[-88.15494,17.96166],[-88.15289,17.96943],[-88.15494,17.98206],[-88.1534,17.99323],[-88.14702,18.00222],[-88.14038,18.01144],[-88.13349,18.01873],[-88.13043,18.0299],[-88.12736,18.04786],[-88.1243,18.06194],[-88.11587,18.08427],[-88.10745,18.09519],[-88.10234,18.12456],[-88.10004,18.14518],[-88.09749,18.15877],[-88.09621,18.17259],[-88.09366,18.18618],[-88.09187,18.19491],[-88.08779,18.2034],[-88.08804,18.21164],[-88.09136,18.21771],[-88.09468,18.22523],[-88.09877,18.23929],[-88.09519,18.25287],[-88.09366,18.2759],[-88.09621,18.28584],[-88.09953,18.29263],[-88.09928,18.30063],[-88.09596,18.30814],[-88.09392,18.31638],[-88.09417,18.32923],[-88.09519,18.34038],[-88.098,18.34886],[-88.09596,18.37576],[-88.10489,18.37721],[-88.11409,18.37309],[-88.12762,18.37164],[-88.13987,18.36485],[-88.14932,18.35734],[-88.16106,18.34692],[-88.17536,18.34377],[-88.18966,18.34353],[-88.19936,18.34232],[-88.20242,18.34038],[-88.21238,18.33674],[-88.20779,18.3445],[-88.20932,18.34813],[-88.218,18.34765],[-88.22464,18.34498],[-88.23281,18.34644],[-88.23281,18.35177],[-88.23562,18.35443],[-88.24123,18.35686],[-88.24864,18.35758],[-88.26089,18.35395],[-88.27647,18.35104],[-88.29025,18.34886],[-88.3043,18.34498],[-88.31859,18.33844],[-88.33902,18.33165],[-88.34336,18.33335],[-88.34285,18.33917],[-88.33774,18.34571],[-88.33008,18.35056],[-88.32319,18.35565],[-88.32038,18.36146],[-88.32089,18.36655],[-88.33008,18.36703],[-88.34259,18.36219],[-88.35459,18.35783],[-88.36634,18.35153],[-88.37681,18.34692],[-88.38804,18.34547],[-88.39417,18.34935],[-88.39774,18.35589],[-88.40029,18.36413],[-88.39825,18.37333],[-88.39238,18.38182],[-88.38395,18.38593],[-88.37042,18.39538],[-88.35715,18.40362],[-88.34585,18.40668],[-88.334,18.41416],[-88.32575,18.41937],[-88.31962,18.42324],[-88.31527,18.43002],[-88.3117,18.43802],[-88.30643,18.44675],[-88.2997,18.45134],[-88.29817,18.45715],[-88.29944,18.46345],[-88.30251,18.46829],[-88.3071,18.47434],[-88.314,18.48064],[-88.3191,18.48839],[-88.3311,18.48815],[-88.34183,18.48742],[-88.35127,18.48645],[-88.36149,18.48669],[-88.3694,18.48573],[-88.37527,18.48306],[-88.38166,18.48379],[-88.38702,18.48573],[-88.39136,18.48815],[-88.39647,18.49081],[-88.40055,18.49396],[-88.40464,18.49444],[-88.40872,18.49299],[-88.41919,18.4896],[-88.42864,18.48548],[-88.434,18.47846],[-88.44472,18.47434],[-88.44932,18.47628],[-88.45238,18.47943],[-88.45672,18.48258],[-88.46157,18.48548],[-88.46693,18.48839],[-88.47485,18.49081],[-88.47995,18.49226],[-88.48378,18.49008],[-88.4917,18.48621],[-88.50268,18.47919],[-88.51238,18.46974],[-88.52489,18.4586],[-88.53,18.44892],[-88.52923,18.43269],[-88.53306,18.42106],[-88.53587,18.41283],[-88.53995,18.40265],[-88.54557,18.39078],[-88.55017,18.37988],[-88.55272,18.3743],[-88.54889,18.36946],[-88.54634,18.36025],[-88.54812,18.35371],[-88.55706,18.34619],[-88.56906,18.33214],[-88.57646,18.3239],[-88.58795,18.30863],[-88.602,18.30014],[-88.6048,18.2936],[-88.60455,18.28657],[-88.59893,18.28269],[-88.60174,18.27566],[-88.60378,18.27008],[-88.60812,18.26378],[-88.60719,18.24161],[-88.5087,18.20253],[-88.48813,18.19305],[-88.4551,18.11902],[-88.44824,18.10895],[-88.37282,18.04495],[-88.32233,17.9999],[-88.2949,17.97263]]]},"properties":{"area_code":"corozal","area_name":"Corozal","boundary_source_name":"Corozal","area_unit_id":"bz-district-2006-geoboundaries-adm1:corozal","boundary_set_id":"bz-district-2006-geoboundaries-adm1","boundary_level":"district","boundary_vintage":"2006","land_area_sq_km":1959.1624230605712}},
{"type":"Feature","geometry":{"type":"Polygon","coordinates":[[[-88.60719,18.24161],[-88.6209,18.2268],[-88.62776,18.21792],[-88.64459,18.21496],[-88.66266,18.20134],[-88.67762,18.19187],[-88.68947,18.18595],[-88.6876,18.17884],[-88.68012,18.17055],[-88.68012,18.16463],[-88.68573,18.15634],[-88.69757,18.14034],[-88.70443,18.12909],[-88.71128,18.11191],[-88.71315,18.09947],[-88.71315,18.08584],[-88.71627,18.06747],[-88.71814,18.05562],[-88.73435,18.04613],[-88.75367,18.03784],[-88.76738,18.02954],[-88.76988,18.02183],[-88.76988,18.00938],[-88.77362,18.00109],[-88.78359,17.99634],[-88.79107,17.98923],[-88.78858,17.97796],[-88.79294,17.97026],[-88.80104,17.96433],[-88.81226,17.95425],[-88.81912,17.94832],[-88.83283,17.94179],[-88.84343,17.93527],[-88.85029,17.92875],[-88.85839,17.92104],[-88.85403,17.91214],[-88.85403,17.90146],[-88.864,17.89316],[-88.88644,17.89435],[-88.9014,17.90384],[-88.91698,17.91866],[-88.93007,17.9323],[-88.94566,17.95484],[-88.95875,17.95365],[-88.97745,17.95484],[-88.99241,17.9578],[-88.99802,17.96433],[-89.00051,17.97322],[-88.99989,17.98211],[-89.01298,17.99101],[-89.02918,17.99694],[-89.03604,18.00109],[-89.0429,18.00286],[-89.04851,17.99456],[-89.05349,17.99041],[-89.05973,17.99041],[-89.06471,17.99041],[-89.07344,17.99338],[-89.07843,17.99338],[-89.0884,17.98686],[-89.0965,17.98093],[-89.10398,17.97619],[-89.11333,17.97263],[-89.13016,17.97796],[-89.13328,17.97619],[-89.1339,17.96551],[-89.14138,17.95484],[-89.15136,17.94772],[-89.15574,17.94326],[-89.16053,17.76328],[-89.16133,17.58266],[-89.1549,17.32897],[-89.14263,17.33589],[-89.12892,17.35315],[-89.11583,17.35493],[-89.10835,17.35909],[-89.09713,17.36742],[-89.08341,17.37754],[-89.07531,17.38349],[-89.06409,17.38289],[-89.05287,17.37754],[-89.04788,17.37159],[-89.04103,17.3704],[-89.03417,17.37516],[-89.01859,17.37754],[-89.01173,17.37992],[-88.99428,17.37992],[-88.98056,17.3817],[-88.97121,17.38408],[-88.96062,17.38468],[-88.94815,17.3823],[-88.93444,17.38289],[-88.91948,17.38468],[-88.91013,17.38943],[-88.9014,17.40074],[-88.89766,17.41085],[-88.88644,17.41501],[-88.87584,17.41501],[-88.86026,17.41263],[-88.84031,17.41501],[-88.8266,17.41263],[-88.81912,17.40728],[-88.80291,17.40787],[-88.79855,17.41442],[-88.78982,17.41382],[-88.77673,17.40668],[-88.76551,17.40668],[-88.75055,17.40847],[-88.74557,17.41144],[-88.73871,17.41263],[-88.73123,17.41679],[-88.72313,17.42453],[-88.72001,17.43166],[-88.70505,17.43642],[-88.69882,17.44118],[-88.68635,17.44475],[-88.67825,17.44356],[-88.67077,17.44356],[-88.66578,17.4501],[-88.65892,17.45426],[-88.6502,17.45842],[-88.63898,17.45783],[-88.63524,17.49231],[-88.64209,17.547],[-88.64459,17.5785],[-88.64521,17.60405],[-88.64833,17.61593],[-88.64085,17.63078],[-88.63586,17.6385],[-88.63648,17.65335],[-88.63337,17.66761],[-88.62651,17.67177],[-88.6103,17.67889],[-88.58911,17.68542],[-88.57602,17.68899],[-88.56854,17.69077],[-88.56854,17.69908],[-88.57664,17.70562],[-88.57789,17.71808],[-88.57602,17.72996],[-88.57228,17.74065],[-88.56917,17.75371],[-88.57664,17.75905],[-88.57602,17.76855],[-88.5754,17.77864],[-88.5754,17.79288],[-88.57228,17.80001],[-88.56917,17.80831],[-88.56917,17.81959],[-88.56917,17.82671],[-88.57103,17.83798],[-88.57353,17.84629],[-88.5754,17.854],[-88.5754,17.8629],[-88.57103,17.8724],[-88.56667,17.88248],[-88.56168,17.89613],[-88.5542,17.90739],[-88.5461,17.91451],[-88.5299,17.9157],[-88.50933,17.92044],[-88.48065,17.92993],[-88.44263,17.93824],[-88.42268,17.94061],[-88.34352,17.95721],[-88.2949,17.97263],[-88.32233,17.9999],[-88.37282,18.04495],[-88.44824,18.10895],[-88.4551,18.11902],[-88.48813,18.19305],[-88.5087,18.20253],[-88.60719,18.24161]]]},"properties":{"area_code":"orange_walk","area_name":"Orange Walk","boundary_source_name":"Orange Walk","area_unit_id":"bz-district-2006-geoboundaries-adm1:orange_walk","boundary_set_id":"bz-district-2006-geoboundaries-adm1","boundary_level":"district","boundary_vintage":"2006","land_area_sq_km":4646.360455637429}},
{"type":"Feature","geometry":{"type":"MultiPolygon","coordinates":[[[[-88.2949,17.97263],[-88.34352,17.95721],[-88.42268,17.94061],[-88.44263,17.93824],[-88.48065,17.92993],[-88.50933,17.92044],[-88.5299,17.9157],[-88.5461,17.91451],[-88.5542,17.90739],[-88.56168,17.89613],[-88.56667,17.88248],[-88.57103,17.8724],[-88.5754,17.8629],[-88.5754,17.854],[-88.57353,17.84629],[-88.57103,17.83798],[-88.56917,17.82671],[-88.56917,17.81959],[-88.56917,17.80831],[-88.57228,17.80001],[-88.5754,17.79288],[-88.5754,17.77864],[-88.57602,17.76855],[-88.57664,17.75905],[-88.56917,17.75371],[-88.57228,17.74065],[-88.57602,17.72996],[-88.57789,17.71808],[-88.57664,17.70562],[-88.56854,17.69908],[-88.56854,17.69077],[-88.57602,17.68899],[-88.58911,17.68542],[-88.6103,17.67889],[-88.62651,17.67177],[-88.63337,17.66761],[-88.63648,17.65335],[-88.63586,17.6385],[-88.64085,17.63078],[-88.64833,17.61593],[-88.64521,17.60405],[-88.64459,17.5785],[-88.64209,17.547],[-88.63524,17.49231],[-88.63898,17.45783],[-88.63469,17.45582],[-88.62727,17.45671],[-88.61995,17.45731],[-88.61733,17.46001],[-88.61148,17.45791],[-88.60897,17.45771],[-88.60681,17.47317],[-88.60522,17.48344],[-88.60243,17.49257],[-88.58966,17.49714],[-88.58567,17.48839],[-88.58607,17.47583],[-88.58368,17.45985],[-88.58328,17.4412],[-88.57969,17.42446],[-88.58128,17.41113],[-88.58009,17.39971],[-88.57889,17.3902],[-88.5765,17.36316],[-88.5737,17.34108],[-88.5733,17.32661],[-88.5729,17.30985],[-88.57251,17.29766],[-88.57211,17.28547],[-88.57171,17.27481],[-88.56931,17.2649],[-88.57051,17.25462],[-88.57171,17.24281],[-88.57091,17.23061],[-88.56892,17.22376],[-88.55814,17.21499],[-88.54977,17.20051],[-88.54737,17.19022],[-88.54219,17.18603],[-88.54498,17.17498],[-88.54777,17.16164],[-88.55216,17.15172],[-88.55794,17.13824],[-88.56792,17.12156],[-88.57727,17.10965],[-88.58481,17.10282],[-88.56975,17.10232],[-88.54476,17.10192],[-88.5274,17.10252],[-88.47255,17.10071],[-88.43951,17.10071],[-88.40523,17.10071],[-88.37157,17.1025],[-88.34103,17.10071],[-88.33542,17.10607],[-88.32544,17.10726],[-88.31983,17.11441],[-88.30861,17.12037],[-88.30211,17.1213],[-88.30149,17.15863],[-88.30302,17.17888],[-88.30021,17.23814],[-88.29879,17.26574],[-88.29198,17.2955],[-88.27445,17.35407],[-88.26081,17.41263],[-88.24912,17.45445],[-88.24328,17.47489],[-88.23661,17.48344],[-88.22982,17.48535],[-88.22145,17.48382],[-88.21546,17.48002],[-88.20748,17.47926],[-88.19552,17.47926],[-88.18754,17.48306],[-88.18355,17.48877],[-88.18315,17.50094],[-88.18674,17.50893],[-88.19432,17.51274],[-88.1999,17.51654],[-88.20655,17.51387],[-88.21251,17.51427],[-88.22098,17.51447],[-88.226,17.51706],[-88.23092,17.52055],[-88.23479,17.52414],[-88.23817,17.53345],[-88.24557,17.53759],[-88.25834,17.5444],[-88.27545,17.55463],[-88.28974,17.5651],[-88.29303,17.63375],[-88.2843,17.64563],[-88.27433,17.65276],[-88.26872,17.66404],[-88.26124,17.6777],[-88.25314,17.69255],[-88.24129,17.70562],[-88.23631,17.7163],[-88.22945,17.72877],[-88.22863,17.75492],[-88.22424,17.78303],[-88.22264,17.81152],[-88.21586,17.84152],[-88.21347,17.8681],[-88.20629,17.8943],[-88.2019,17.90645],[-88.19591,17.92087],[-88.18036,17.93416],[-88.17716,17.9482],[-88.17255,17.95243],[-88.17791,17.95948],[-88.19911,17.96215],[-88.21596,17.96288],[-88.23945,17.96628],[-88.25681,17.96846],[-88.27519,17.97138],[-88.28693,17.97211],[-88.2949,17.97263]]],[[[-87.78462,17.5173],[-87.78342,17.5272],[-87.78422,17.5329],[-87.79339,17.5348],[-87.80895,17.54507],[-87.81055,17.53823],[-87.81613,17.52681],[-87.82251,17.51883],[-87.8289,17.51122],[-87.8265,17.50741],[-87.81573,17.50855],[-87.81055,17.5154],[-87.80616,17.51692],[-87.79658,17.51274],[-87.79419,17.50893],[-87.79419,17.50247],[-87.80057,17.49676],[-87.81055,17.49334],[-87.81693,17.48725],[-87.81892,17.48154],[-87.81174,17.47431],[-87.82092,17.46822],[-87.82969,17.46251],[-87.84007,17.46023],[-87.85283,17.45604],[-87.86201,17.45719],[-87.8632,17.46442],[-87.85802,17.47012],[-87.85323,17.47279],[-87.85562,17.47926],[-87.8648,17.47888],[-87.87118,17.47127],[-87.87757,17.46327],[-87.88435,17.45262],[-87.89233,17.44044],[-87.89951,17.4294],[-87.90948,17.41151],[-87.91546,17.39971],[-87.92424,17.38791],[-87.92544,17.37116],[-87.92424,17.35859],[-87.92504,17.34641],[-87.92584,17.33727],[-87.92983,17.32547],[-87.93302,17.31671],[-87.93741,17.303],[-87.9382,17.29271],[-87.94339,17.279],[-87.94219,17.26833],[-87.94259,17.263],[-87.941,17.25233],[-87.9398,17.2409],[-87.9382,17.23099],[-87.93581,17.21728],[-87.93342,17.20165],[-87.92663,17.18793],[-87.91347,17.16735],[-87.90868,17.16507],[-87.9031,17.16202],[-87.89791,17.1643],[-87.89392,17.17078],[-87.89552,17.18031],[-87.90031,17.19517],[-87.9023,17.20775],[-87.91427,17.22833],[-87.91985,17.23862],[-87.91746,17.247],[-87.91427,17.25081],[-87.91307,17.26033],[-87.91387,17.26567],[-87.91586,17.27595],[-87.91786,17.287],[-87.91427,17.30757],[-87.91307,17.31975],[-87.91108,17.32965],[-87.90589,17.33499],[-87.89991,17.34413],[-87.89472,17.35326],[-87.89552,17.36507],[-87.89432,17.37573],[-87.89352,17.38943],[-87.89632,17.39667],[-87.89552,17.40885],[-87.89033,17.41913],[-87.88076,17.42027],[-87.87158,17.42065],[-87.86719,17.4275],[-87.8648,17.43169],[-87.86201,17.43511],[-87.85523,17.43625],[-87.84924,17.43549],[-87.84485,17.42978],[-87.83927,17.42407],[-87.83328,17.41837],[-87.8281,17.41075],[-87.82132,17.40009],[-87.81294,17.38943],[-87.80855,17.37954],[-87.80895,17.37002],[-87.81453,17.36773],[-87.81693,17.35974],[-87.81613,17.34755],[-87.81733,17.33575],[-87.81733,17.31671],[-87.82451,17.3049],[-87.83328,17.29576],[-87.83927,17.28928],[-87.84525,17.28128],[-87.85084,17.27367],[-87.85802,17.26338],[-87.85762,17.25347],[-87.85842,17.24471],[-87.85882,17.23557],[-87.86839,17.22833],[-87.87637,17.23138],[-87.87717,17.22414],[-87.87557,17.21499],[-87.87198,17.21004],[-87.86919,17.20051],[-87.86839,17.19022],[-87.85922,17.19022],[-87.85562,17.19594],[-87.85243,17.20318],[-87.84725,17.21537],[-87.84445,17.22795],[-87.84047,17.23938],[-87.83847,17.24814],[-87.83328,17.26147],[-87.83169,17.26681],[-87.8293,17.27862],[-87.82491,17.28471],[-87.82052,17.29081],[-87.81214,17.30147],[-87.80576,17.30642],[-87.79379,17.30795],[-87.78741,17.31899],[-87.78382,17.32851],[-87.78182,17.33651],[-87.78262,17.34984],[-87.78621,17.35821],[-87.7902,17.36621],[-87.79419,17.37344],[-87.80137,17.3902],[-87.80735,17.40085],[-87.80775,17.41342],[-87.80656,17.42446],[-87.80456,17.44349],[-87.80496,17.45566],[-87.80257,17.46327],[-87.79658,17.47127],[-87.7894,17.4785],[-87.78142,17.48915],[-87.77265,17.49448],[-87.76706,17.49828],[-87.75988,17.50932],[-87.76985,17.51122],[-87.77743,17.51236],[-87.78462,17.5173]]],[[[-88.01145,17.87518],[-88.00277,17.87785],[-87.99255,17.88028],[-87.98541,17.88441],[-87.98055,17.89146],[-87.97238,17.89875],[-87.96575,17.90968],[-87.96141,17.91891],[-87.95451,17.92839],[-87.9489,17.93567],[-87.94175,17.94539],[-87.93664,17.95632],[-87.92694,17.97186],[-87.92132,17.98522],[-87.91417,18.00125],[-87.90804,18.01242],[-87.90243,18.0214],[-87.89604,18.03063],[-87.89094,18.04106],[-87.88736,18.05466],[-87.88456,18.0617],[-87.88047,18.07238],[-87.87587,18.08379],[-87.87026,18.09131],[-87.86158,18.0981],[-87.85264,18.10903],[-87.84524,18.11631],[-87.83707,18.12553],[-87.82864,18.13111],[-87.82634,18.13887],[-87.82609,18.14494],[-87.82966,18.15682],[-87.83171,18.16677],[-87.83834,18.1772],[-87.84728,18.18666],[-87.86924,18.18593],[-87.87383,18.18108],[-87.88098,18.17356],[-87.88405,18.16677],[-87.88736,18.15658],[-87.89145,18.14275],[-87.89145,18.13475],[-87.89707,18.12625],[-87.90013,18.11776],[-87.9037,18.11024],[-87.90958,18.10199],[-87.91213,18.09446],[-87.90907,18.08961],[-87.9106,18.08184],[-87.92056,18.07966],[-87.92592,18.07529],[-87.93153,18.06849],[-87.93204,18.06388],[-87.92924,18.05976],[-87.92643,18.05514],[-87.92873,18.04495],[-87.93511,18.03742],[-87.94149,18.03014],[-87.94915,18.02043],[-87.95324,18.00999],[-87.95962,18.00076],[-87.96651,17.99105],[-87.96881,17.98231],[-87.97238,17.97551],[-87.97468,17.96749],[-87.97851,17.96069],[-87.98592,17.94928],[-87.99255,17.93956],[-87.99128,17.93009],[-87.99227,17.92274],[-87.99664,17.91478],[-87.99557,17.90989],[-87.99894,17.90361],[-88.00047,17.89486],[-88.00685,17.88927],[-88.01196,17.88903],[-88.01706,17.88684],[-88.02319,17.88611],[-88.03037,17.88493],[-88.03289,17.88077],[-88.02906,17.87615],[-88.02268,17.87518],[-88.01145,17.87518]]]]},"properties":{"area_code":"belize","area_name":"Belize","boundary_source_name":"Belize","area_unit_id":"bz-district-2006-geoboundaries-adm1:belize","boundary_set_id":"bz-district-2006-geoboundaries-adm1","boundary_level":"district","boundary_vintage":"2006","land_area_sq_km":3636.291337076505}},
{"type":"Feature","geometry":{"type":"Polygon","coordinates":[[[-89.1549,17.32897],[-89.15455,17.279],[-89.15375,17.24585],[-89.15295,17.20242],[-89.15176,17.15134],[-89.15096,17.0892],[-89.15016,17.04115],[-89.15393,16.99489],[-89.1588,16.9362],[-89.16172,16.87004],[-89.16562,16.80665],[-89.17146,16.72925],[-89.17535,16.69007],[-89.17925,16.63875],[-89.18367,16.58365],[-89.18686,16.54121],[-89.19045,16.50794],[-89.19484,16.4429],[-89.19763,16.39851],[-89.18088,16.41612],[-89.16612,16.43334],[-89.16093,16.44635],[-89.15096,16.45897],[-89.13739,16.46509],[-89.12343,16.46854],[-89.11465,16.47198],[-89.10229,16.47466],[-89.08713,16.4781],[-89.07277,16.47772],[-89.06559,16.48116],[-89.04245,16.50258],[-89.03447,16.51214],[-89.03128,16.51635],[-89.0221,16.51253],[-89.01412,16.50411],[-89.00615,16.49952],[-88.99857,16.50411],[-88.98779,16.50794],[-88.97942,16.50908],[-88.97184,16.51138],[-88.96226,16.51406],[-88.95309,16.51559],[-88.95376,16.52131],[-88.95817,16.52539],[-88.95948,16.52977],[-88.95278,16.53432],[-88.94755,16.53948],[-88.9402,16.54387],[-88.93366,16.54841],[-88.9286,16.55123],[-88.925,16.55139],[-88.91912,16.54998],[-88.9165,16.547],[-88.91258,16.54841],[-88.91079,16.55233],[-88.90539,16.55859],[-88.89281,16.56737],[-88.88448,16.57159],[-88.87876,16.57786],[-88.86552,16.58005],[-88.85768,16.58193],[-88.8531,16.58725],[-88.84412,16.59399],[-88.83758,16.59978],[-88.8335,16.60636],[-88.82647,16.61153],[-88.82075,16.61231],[-88.81667,16.61513],[-88.81095,16.62014],[-88.81291,16.62562],[-88.81797,16.63188],[-88.82173,16.63486],[-88.82157,16.64049],[-88.82091,16.64863],[-88.81879,16.65161],[-88.81405,16.6527],[-88.81193,16.65677],[-88.81242,16.66413],[-88.80817,16.66977],[-88.80392,16.67258],[-88.79833,16.6762],[-88.79348,16.68134],[-88.78557,16.68256],[-88.77893,16.68158],[-88.77204,16.68232],[-88.77765,16.68819],[-88.78225,16.69283],[-88.78174,16.69968],[-88.7797,16.70897],[-88.77663,16.71362],[-88.77255,16.71998],[-88.76795,16.72511],[-88.76514,16.73196],[-88.76106,16.73709],[-88.75876,16.74565],[-88.75697,16.75274],[-88.74982,16.76032],[-88.74242,16.76839],[-88.73859,16.77597],[-88.73553,16.78281],[-88.72991,16.79185],[-88.72072,16.7987],[-88.71204,16.80456],[-88.70336,16.80554],[-88.69391,16.80676],[-88.68242,16.80872],[-88.67374,16.81141],[-88.67272,16.81703],[-88.68038,16.82289],[-88.69059,16.8268],[-88.69289,16.8334],[-88.69136,16.83682],[-88.68778,16.84025],[-88.68216,16.84244],[-88.67706,16.84293],[-88.67221,16.84538],[-88.66685,16.85002],[-88.66557,16.85613],[-88.66557,16.8615],[-88.66863,16.86737],[-88.67068,16.87494],[-88.66557,16.88056],[-88.66429,16.89351],[-88.66276,16.90059],[-88.66787,16.9067],[-88.66021,16.91476],[-88.64974,16.92209],[-88.64616,16.9304],[-88.63876,16.93382],[-88.6357,16.93479],[-88.63161,16.94017],[-88.63008,16.94652],[-88.6288,16.9514],[-88.62523,16.95677],[-88.61221,16.95995],[-88.60812,16.96386],[-88.60582,16.96679],[-88.6048,16.97069],[-88.60302,16.9746],[-88.59919,16.98022],[-88.59842,16.98632],[-88.59612,16.99413],[-88.59561,16.99804],[-88.59153,17.00268],[-88.58719,17.00512],[-88.58157,17.01342],[-88.58004,17.02099],[-88.57902,17.02734],[-88.56829,17.03027],[-88.5614,17.02954],[-88.56089,17.03808],[-88.56676,17.04443],[-88.57442,17.0498],[-88.58131,17.05712],[-88.59561,17.07323],[-88.60863,17.0886],[-88.60889,17.09373],[-88.60557,17.09837],[-88.59459,17.10227],[-88.58481,17.10282],[-88.57727,17.10965],[-88.56792,17.12156],[-88.55794,17.13824],[-88.55216,17.15172],[-88.54777,17.16164],[-88.54498,17.17498],[-88.54219,17.18603],[-88.54737,17.19022],[-88.54977,17.20051],[-88.55814,17.21499],[-88.56892,17.22376],[-88.57091,17.23061],[-88.57171,17.24281],[-88.57051,17.25462],[-88.56931,17.2649],[-88.57171,17.27481],[-88.57211,17.28547],[-88.57251,17.29766],[-88.5729,17.30985],[-88.5733,17.32661],[-88.5737,17.34108],[-88.5765,17.36316],[-88.57889,17.3902],[-88.58009,17.39971],[-88.58128,17.41113],[-88.57969,17.42446],[-88.58328,17.4412],[-88.58368,17.45985],[-88.58607,17.47583],[-88.58567,17.48839],[-88.58966,17.49714],[-88.60243,17.49257],[-88.60522,17.48344],[-88.60681,17.47317],[-88.60897,17.45771],[-88.61148,17.45791],[-88.61733,17.46001],[-88.61995,17.45731],[-88.62727,17.45671],[-88.63469,17.45582],[-88.63898,17.45783],[-88.6502,17.45842],[-88.65892,17.45426],[-88.66578,17.4501],[-88.67077,17.44356],[-88.67825,17.44356],[-88.68635,17.44475],[-88.69882,17.44118],[-88.70505,17.43642],[-88.72001,17.43166],[-88.72313,17.42453],[-88.73123,17.41679],[-88.73871,17.41263],[-88.74557,17.41144],[-88.75055,17.40847],[-88.76551,17.40668],[-88.77673,17.40668],[-88.78982,17.41382],[-88.79855,17.41442],[-88.80291,17.40787],[-88.81912,17.40728],[-88.8266,17.41263],[-88.84031,17.41501],[-88.86026,17.41263],[-88.87584,17.41501],[-88.88644,17.41501],[-88.89766,17.41085],[-88.9014,17.40074],[-88.91013,17.38943],[-88.91948,17.38468],[-88.93444,17.38289],[-88.94815,17.3823],[-88.96062,17.38468],[-88.97121,17.38408],[-88.98056,17.3817],[-88.99428,17.37992],[-89.01173,17.37992],[-89.01859,17.37754],[-89.03417,17.37516],[-89.04103,17.3704],[-89.04788,17.37159],[-89.05287,17.37754],[-89.06409,17.38289],[-89.07531,17.38349],[-89.08341,17.37754],[-89.09713,17.36742],[-89.10835,17.35909],[-89.11583,17.35493],[-89.12892,17.35315],[-89.14263,17.33589],[-89.1549,17.32897]]]},"properties":{"area_code":"cayo","area_name":"Cayo","boundary_source_name":"Cayo","area_unit_id":"bz-district-2006-geoboundaries-adm1:cayo","boundary_set_id":"bz-district-2006-geoboundaries-adm1","boundary_level":"district","boundary_vintage":"2006","land_area_sq_km":5281.616306257455}},
{"type":"Feature","geometry":{"type":"Polygon","coordinates":[[[-88.58481,17.10282],[-88.59459,17.10227],[-88.60557,17.09837],[-88.60889,17.09373],[-88.60863,17.0886],[-88.59561,17.07323],[-88.58131,17.05712],[-88.57442,17.0498],[-88.56676,17.04443],[-88.56089,17.03808],[-88.5614,17.02954],[-88.56829,17.03027],[-88.57902,17.02734],[-88.58004,17.02099],[-88.58157,17.01342],[-88.58719,17.00512],[-88.59153,17.00268],[-88.59561,16.99804],[-88.59612,16.99413],[-88.59842,16.98632],[-88.59919,16.98022],[-88.60302,16.9746],[-88.6048,16.97069],[-88.60582,16.96679],[-88.60812,16.96386],[-88.61221,16.95995],[-88.62523,16.95677],[-88.6288,16.9514],[-88.63008,16.94652],[-88.63161,16.94017],[-88.6357,16.93479],[-88.63876,16.93382],[-88.64616,16.9304],[-88.64974,16.92209],[-88.66021,16.91476],[-88.66787,16.9067],[-88.66276,16.90059],[-88.66429,16.89351],[-88.66557,16.88056],[-88.67068,16.87494],[-88.66863,16.86737],[-88.66557,16.8615],[-88.66557,16.85613],[-88.66685,16.85002],[-88.67221,16.84538],[-88.67706,16.84293],[-88.68216,16.84244],[-88.68778,16.84025],[-88.69136,16.83682],[-88.69289,16.8334],[-88.69059,16.8268],[-88.68038,16.82289],[-88.67272,16.81703],[-88.67374,16.81141],[-88.68242,16.80872],[-88.69391,16.80676],[-88.70336,16.80554],[-88.71204,16.80456],[-88.72072,16.7987],[-88.72991,16.79185],[-88.73553,16.78281],[-88.73859,16.77597],[-88.74242,16.76839],[-88.74982,16.76032],[-88.75697,16.75274],[-88.75876,16.74565],[-88.76106,16.73709],[-88.76514,16.73196],[-88.76795,16.72511],[-88.77255,16.71998],[-88.77663,16.71362],[-88.7797,16.70897],[-88.78174,16.69968],[-88.78225,16.69283],[-88.77765,16.68819],[-88.77204,16.68232],[-88.76565,16.68672],[-88.75978,16.69063],[-88.75314,16.6899],[-88.74497,16.6877],[-88.73884,16.68501],[-88.72838,16.68476],[-88.71382,16.68623],[-88.70055,16.68599],[-88.69467,16.68843],[-88.68599,16.69088],[-88.67731,16.6921],[-88.66863,16.69381],[-88.65919,16.69528],[-88.65025,16.69552],[-88.63927,16.69308],[-88.63238,16.68501],[-88.62421,16.68036],[-88.61527,16.67669],[-88.60787,16.67278],[-88.60097,16.66813],[-88.59229,16.6652],[-88.58795,16.65957],[-88.58336,16.6515],[-88.58259,16.64465],[-88.58591,16.6378],[-88.58872,16.63218],[-88.59051,16.62704],[-88.59025,16.62166],[-88.58744,16.61725],[-88.57902,16.61114],[-88.57187,16.60551],[-88.56676,16.59841],[-88.5591,16.58863],[-88.55451,16.58177],[-88.54922,16.57152],[-88.55047,16.55419],[-88.55047,16.54463],[-88.55171,16.53626],[-88.55857,16.5273],[-88.55919,16.52132],[-88.53551,16.51834],[-88.52055,16.51714],[-88.50995,16.51654],[-88.50309,16.51355],[-88.4925,16.51774],[-88.48315,16.51774],[-88.47691,16.51654],[-88.46943,16.51415],[-88.45073,16.51415],[-88.44014,16.51355],[-88.42767,16.51296],[-88.4152,16.51415],[-88.39775,16.51236],[-88.38653,16.50758],[-88.38136,16.51082],[-88.38234,16.5199],[-88.38169,16.52648],[-88.38643,16.5315],[-88.39149,16.53275],[-88.39623,16.53776],[-88.3959,16.54152],[-88.3928,16.54497],[-88.38577,16.54575],[-88.3825,16.54371],[-88.37973,16.5423],[-88.37597,16.54324],[-88.37433,16.54638],[-88.37417,16.55014],[-88.37662,16.55452],[-88.38136,16.5575],[-88.38299,16.5611],[-88.37777,16.56533],[-88.37368,16.5705],[-88.37058,16.57802],[-88.36862,16.58475],[-88.36862,16.59227],[-88.36878,16.59869],[-88.37025,16.60542],[-88.37025,16.61325],[-88.36714,16.61998],[-88.36045,16.6264],[-88.35342,16.63204],[-88.34819,16.63642],[-88.34214,16.64582],[-88.33904,16.65333],[-88.33234,16.66069],[-88.32499,16.66507],[-88.31486,16.66648],[-88.30881,16.66695],[-88.30881,16.67556],[-88.30832,16.68652],[-88.30848,16.69685],[-88.30734,16.70217],[-88.30244,16.70608],[-88.30129,16.71406],[-88.30652,16.72533],[-88.31142,16.73394],[-88.3129,16.74458],[-88.31191,16.75334],[-88.30865,16.76038],[-88.30603,16.7657],[-88.29704,16.77039],[-88.29263,16.77368],[-88.28969,16.78166],[-88.2892,16.78588],[-88.28201,16.78917],[-88.27493,16.79259],[-88.2711,16.7987],[-88.26574,16.80383],[-88.25604,16.80481],[-88.24991,16.80676],[-88.26038,16.81703],[-88.26191,16.82607],[-88.26242,16.83389],[-88.27008,16.84098],[-88.27672,16.84929],[-88.28106,16.85931],[-88.28515,16.8681],[-88.28668,16.87421],[-88.28796,16.88056],[-88.28821,16.88814],[-88.27825,16.89131],[-88.27621,16.90719],[-88.27493,16.91403],[-88.2711,16.91989],[-88.26115,16.92527],[-88.23945,16.93259],[-88.22489,16.93797],[-88.22004,16.94627],[-88.21902,16.95555],[-88.2203,16.96556],[-88.22336,16.97191],[-88.2277,16.97973],[-88.2323,16.9873],[-88.23536,16.99438],[-88.23766,17.00952],[-88.23868,17.02221],[-88.2397,17.02905],[-88.24302,17.03613],[-88.24532,17.0415],[-88.24583,17.05395],[-88.24608,17.05956],[-88.24838,17.06347],[-88.25119,17.06688],[-88.25451,17.06835],[-88.26268,17.06542],[-88.26804,17.06566],[-88.27315,17.06713],[-88.27927,17.06957],[-88.28693,17.07372],[-88.29204,17.08568],[-88.28898,17.09446],[-88.28974,17.10593],[-88.29357,17.11057],[-88.2997,17.11618],[-88.30211,17.1213],[-88.30861,17.12037],[-88.31983,17.11441],[-88.32544,17.10726],[-88.33542,17.10607],[-88.34103,17.10071],[-88.37157,17.1025],[-88.40523,17.10071],[-88.43951,17.10071],[-88.47255,17.10071],[-88.5274,17.10252],[-88.54476,17.10192],[-88.56975,17.10232],[-88.58481,17.10282]]]},"properties":{"area_code":"stann_creek","area_name":"Stann Creek","boundary_source_name":"Stann Creek","area_unit_id":"bz-district-2006-geoboundaries-adm1:stann_creek","boundary_set_id":"bz-district-2006-geoboundaries-adm1","boundary_level":"district","boundary_vintage":"2006","land_area_sq_km":2368.0676496126184}},
{"type":"Feature","geometry":{"type":"Polygon","coordinates":[[[-89.19763,16.39851],[-89.19883,16.38703],[-89.19963,16.37402],[-89.20122,16.35986],[-89.20242,16.3434],[-89.20242,16.32962],[-89.20481,16.3189],[-89.20761,16.27563],[-89.208,16.25801],[-89.21,16.24193],[-89.2116,16.21818],[-89.21279,16.19979],[-89.21638,16.17642],[-89.21678,16.12546],[-89.22715,15.92109],[-89.22715,15.90689],[-89.22675,15.89768],[-89.22596,15.89116],[-89.22037,15.88541],[-89.21359,15.88617],[-89.2134,15.89241],[-89.208,15.8973],[-89.20043,15.8996],[-89.19045,15.90152],[-89.18527,15.9019],[-89.18549,15.91108],[-89.17808,15.91226],[-89.1709,15.90958],[-89.16492,15.90421],[-89.15774,15.90382],[-89.14976,15.90344],[-89.14497,15.90497],[-89.13939,15.90843],[-89.1334,15.90843],[-89.12981,15.90459],[-89.12503,15.90305],[-89.11984,15.90804],[-89.11266,15.91303],[-89.10508,15.91418],[-89.0963,15.91495],[-89.09072,15.91188],[-89.08673,15.91111],[-89.08234,15.91073],[-89.07676,15.91111],[-89.06997,15.91265],[-89.06838,15.91533],[-89.06319,15.91917],[-89.05322,15.91994],[-89.04285,15.9184],[-89.03208,15.91648],[-89.02569,15.91265],[-89.0237,15.90459],[-89.02091,15.90075],[-89.01053,15.90229],[-89.00774,15.90612],[-88.99537,15.90919],[-88.98859,15.90728],[-88.98301,15.90421],[-88.97742,15.9019],[-88.96146,15.89922],[-88.95349,15.89423],[-88.93593,15.89308],[-88.92077,15.89615],[-88.91559,15.9019],[-88.91479,15.91265],[-88.91838,15.91917],[-88.92277,15.92416],[-88.92974,15.93679],[-88.93278,15.95142],[-88.93887,15.96605],[-88.9343,15.98507],[-88.92835,15.99435],[-88.91798,16.0001],[-88.90763,16.00671],[-88.89641,16.00911],[-88.88582,16.0151],[-88.87709,16.01989],[-88.86712,16.02828],[-88.85839,16.03547],[-88.85839,16.04386],[-88.85714,16.05764],[-88.85216,16.06602],[-88.83969,16.07501],[-88.83346,16.08159],[-88.82099,16.08159],[-88.81226,16.08998],[-88.80977,16.10435],[-88.80416,16.11274],[-88.7973,16.11873],[-88.78858,16.12591],[-88.77736,16.1319],[-88.76177,16.13489],[-88.75679,16.14148],[-88.75679,16.15166],[-88.75492,16.16004],[-88.74432,16.16782],[-88.73933,16.17381],[-88.74432,16.18339],[-88.74931,16.19416],[-88.7518,16.20194],[-88.7518,16.20973],[-88.75118,16.21631],[-88.74307,16.2223],[-88.73746,16.22648],[-88.73288,16.23197],[-88.72809,16.23733],[-88.71852,16.24001],[-88.70615,16.24346],[-88.69219,16.24576],[-88.68102,16.25035],[-88.67463,16.25495],[-88.66266,16.2538],[-88.66027,16.25839],[-88.65748,16.26835],[-88.65788,16.27371],[-88.65548,16.28329],[-88.64711,16.28826],[-88.63314,16.2829],[-88.62237,16.27486],[-88.6136,16.26529],[-88.60562,16.26108],[-88.59165,16.26222],[-88.58687,16.25725],[-88.58009,16.26414],[-88.57211,16.27295],[-88.56253,16.27486],[-88.55416,16.27524],[-88.54498,16.27946],[-88.54338,16.28712],[-88.54099,16.29554],[-88.539,16.30243],[-88.53501,16.30856],[-88.52942,16.31239],[-88.51905,16.32311],[-88.51307,16.33306],[-88.50389,16.3411],[-88.49432,16.3499],[-88.48634,16.36024],[-88.48354,16.37134],[-88.47836,16.38053],[-88.47676,16.38933],[-88.47557,16.39545],[-88.47437,16.40081],[-88.47158,16.40655],[-88.45642,16.41535],[-88.44285,16.43142],[-88.43767,16.44176],[-88.42849,16.45285],[-88.42331,16.45782],[-88.42051,16.46318],[-88.41772,16.47351],[-88.39857,16.48537],[-88.38461,16.5022],[-88.38136,16.51082],[-88.38653,16.50758],[-88.39775,16.51236],[-88.4152,16.51415],[-88.42767,16.51296],[-88.44014,16.51355],[-88.45073,16.51415],[-88.46943,16.51415],[-88.47691,16.51654],[-88.48315,16.51774],[-88.4925,16.51774],[-88.50309,16.51355],[-88.50995,16.51654],[-88.52055,16.51714],[-88.53551,16.51834],[-88.55919,16.52132],[-88.55857,16.5273],[-88.55171,16.53626],[-88.55047,16.54463],[-88.55047,16.55419],[-88.54922,16.57152],[-88.55451,16.58177],[-88.5591,16.58863],[-88.56676,16.59841],[-88.57187,16.60551],[-88.57902,16.61114],[-88.58744,16.61725],[-88.59025,16.62166],[-88.59051,16.62704],[-88.58872,16.63218],[-88.58591,16.6378],[-88.58259,16.64465],[-88.58336,16.6515],[-88.58795,16.65957],[-88.59229,16.6652],[-88.60097,16.66813],[-88.60787,16.67278],[-88.61527,16.67669],[-88.62421,16.68036],[-88.63238,16.68501],[-88.63927,16.69308],[-88.65025,16.69552],[-88.65919,16.69528],[-88.66863,16.69381],[-88.67731,16.6921],[-88.68599,16.69088],[-88.69467,16.68843],[-88.70055,16.68599],[-88.71382,16.68623],[-88.72838,16.68476],[-88.73884,16.68501],[-88.74497,16.6877],[-88.75314,16.6899],[-88.75978,16.69063],[-88.76565,16.68672],[-88.77204,16.68232],[-88.77893,16.68158],[-88.78557,16.68256],[-88.79348,16.68134],[-88.79833,16.6762],[-88.80392,16.67258],[-88.80817,16.66977],[-88.81242,16.66413],[-88.81193,16.65677],[-88.81405,16.6527],[-88.81879,16.65161],[-88.82091,16.64863],[-88.82157,16.64049],[-88.82173,16.63486],[-88.81797,16.63188],[-88.81291,16.62562],[-88.81095,16.62014],[-88.81667,16.61513],[-88.82075,16.61231],[-88.82647,16.61153],[-88.8335,16.60636],[-88.83758,16.59978],[-88.84412,16.59399],[-88.8531,16.58725],[-88.85768,16.58193],[-88.86552,16.58005],[-88.87876,16.57786],[-88.88448,16.57159],[-88.89281,16.56737],[-88.90539,16.55859],[-88.91079,16.55233],[-88.91258,16.54841],[-88.9165,16.547],[-88.91912,16.54998],[-88.925,16.55139],[-88.9286,16.55123],[-88.93366,16.54841],[-88.9402,16.54387],[-88.94755,16.53948],[-88.95278,16.53432],[-88.95948,16.52977],[-88.95817,16.52539],[-88.95376,16.52131],[-88.95309,16.51559],[-88.96226,16.51406],[-88.97184,16.51138],[-88.97942,16.50908],[-88.98779,16.50794],[-88.99857,16.50411],[-89.00615,16.49952],[-89.01412,16.50411],[-89.0221,16.51253],[-89.03128,16.51635],[-89.03447,16.51214],[-89.04245,16.50258],[-89.06559,16.48116],[-89.07277,16.47772],[-89.08713,16.4781],[-89.10229,16.47466],[-89.11465,16.47198],[-89.12343,16.46854],[-89.13739,16.46509],[-89.15096,16.45897],[-89.16093,16.44635],[-89.16612,16.43334],[-89.18088,16.41612],[-89.19763,16.39851]]]},"properties":{"area_code":"toledo","area_name":"Toledo","boundary_source_name":"Toledo","area_unit_id":"bz-district-2006-geoboundaries-adm1:toledo","boundary_set_id":"bz-district-2006-geoboundaries-adm1","boundary_level":"district","boundary_vintage":"2006","land_area_sq_km":4299.648829749391}}
]}