{"type":"FeatureCollection","attribution":"© OpenStreetMap contributors, ODbL 1.0","features":[{"type":"Feature","geometry":{"type":"Point","coordinates":[-7.86806,52.63933]},"properties":{"osm_type":"way","osm_id":1023082836,"name":"Holycross Abbey","religion":"christian","denomination":"roman_catholic","start_date":"1180","end_date":null,"start_year":1180,"end_year":null}},{"type":"Feature","geometry":{"type":"Point","coordinates":[-6.27421,53.34376]},"properties":{"osm_type":"relation","osm_id":16656970,"name":"St Audoen's Church","religion":"christian","denomination":"anglican","start_date":"1190","end_date":null,"start_year":1190,"end_year":null}},{"type":"Feature","geometry":{"type":"Point","coordinates":[-6.66261,53.2181]},"properties":{"osm_type":"way","osm_id":592700684,"name":"Saint David's Church, Naas","religion":"christian","denomination":"anglican","start_date":"1212","end_date":null,"start_year":1212,"end_year":null}},{"type":"Feature","geometry":{"type":"Point","coordinates":[-8.43904,52.8063]},"properties":{"osm_type":"way","osm_id":359287575,"name":"Saint Flannan's Cathederal","religion":"christian","denomination":"anglican","start_date":"1225","end_date":null,"start_year":1225,"end_year":null}},{"type":"Feature","geometry":{"type":"Point","coordinates":[-9.05369,53.27271]},"properties":{"osm_type":"way","osm_id":128910161,"name":"Church of Saint Nicholas","religion":"christian","denomination":"anglican","start_date":"1320","end_date":null,"start_year":1320,"end_year":null}},{"type":"Feature","geometry":{"type":"Point","coordinates":[-6.15048,53.28985]},"properties":{"osm_type":"way","osm_id":305432056,"name":null,"religion":"christian","denomination":"anglican","start_date":"1668","end_date":null,"start_year":1668,"end_year":null}},{"type":"Feature","geometry":{"type":"Point","coordinates":[-7.15166,52.64447]},"properties":{"osm_type":"way","osm_id":150279441,"name":"Pitt","religion":"christian","denomination":"roman_catholic","start_date":"1732","end_date":null,"start_year":1732,"end_year":null}},{"type":"Feature","geometry":{"type":"Point","coordinates":[-6.15309,53.2936]},"properties":{"osm_type":"way","osm_id":58647428,"name":"Monkstown Church of Ireland","religion":"christian","denomination":"anglican","start_date":"1789","end_date":null,"start_year":1789,"end_year":null}},{"type":"Feature","geometry":{"type":"Point","coordinates":[-7.55373,52.7477]},"properties":{"osm_type":"way","osm_id":791920685,"name":"Saint Mary's Church","religion":"christian","denomination":"anglican","start_date":"1796","end_date":null,"start_year":1796,"end_year":null}},{"type":"Feature","geometry":{"type":"Point","coordinates":[-7.75642,52.51749]},"properties":{"osm_type":"way","osm_id":1022888620,"name":"Magorban Church","religion":"christian","denomination":"anglican","start_date":"1815","end_date":null,"start_year":1815,"end_year":null}},{"type":"Feature","geometry":{"type":"Point","coordinates":[-7.25826,52.68982]},"properties":{"osm_type":"way","osm_id":672965873,"name":"Holy Trinity Church","religion":"christian","denomination":"roman_catholic","start_date":"1817","end_date":null,"start_year":1817,"end_year":null}},{"type":"Feature","geometry":{"type":"Point","coordinates":[-7.25928,52.65504]},"properties":{"osm_type":"way","osm_id":100213864,"name":"Saint Canice's Church","religion":"christian","denomination":"roman_catholic","start_date":"1822-1825","end_date":null,"start_year":1822,"end_year":null}},{"type":"Feature","geometry":{"type":"Point","coordinates":[-6.99727,52.84771]},"properties":{"osm_type":"way","osm_id":436093378,"name":"Church of the Holy Cross","religion":"christian","denomination":"roman_catholic","start_date":"1822","end_date":null,"start_year":1822,"end_year":null}},{"type":"Feature","geometry":{"type":"Point","coordinates":[-9.17338,51.52964]},"properties":{"osm_type":"way","osm_id":438611756,"name":"St. Barrahane’s","religion":"christian","denomination":"anglican","start_date":"1826","end_date":null,"start_year":1826,"end_year":null}},{"type":"Feature","geometry":{"type":"Point","coordinates":[-8.46362,51.9018]},"properties":{"osm_type":"way","osm_id":104906738,"name":"Saint Patrick's Catholic Church","religion":"christian","denomination":"roman_catholic","start_date":"1832","end_date":null,"start_year":1832,"end_year":null}},{"type":"Feature","geometry":{"type":"Point","coordinates":[-9.14528,51.55356]},"properties":{"osm_type":"way","osm_id":947924513,"name":"St Brigid's Church","religion":"christian","denomination":"roman_catholic","start_date":"1832","end_date":null,"start_year":1832,"end_year":null}},{"type":"Feature","geometry":{"type":"Point","coordinates":[-7.20286,53.86287]},"properties":{"osm_type":"way","osm_id":331111469,"name":"Christ Church","religion":"christian","denomination":"anglican","start_date":"1834","end_date":null,"start_year":1834,"end_year":null}},{"type":"Feature","geometry":{"type":"Point","coordinates":[-7.25422,52.65108]},"properties":{"osm_type":"way","osm_id":172820398,"name":"Kilkenny Methodist Church","religion":"christian","denomination":"methodist","start_date":"1838-1840","end_date":null,"start_year":1838,"end_year":null}},{"type":"Feature","geometry":{"type":"Point","coordinates":[-6.53683,53.47006]},"properties":{"osm_type":"way","osm_id":299284976,"name":"Church of the Assumption Batterstown","religion":"christian","denomination":"roman_catholic","start_date":"1838-12-01","end_date":null,"start_year":1838,"end_year":null}},{"type":"Feature","geometry":{"type":"Point","coordinates":[-9.19731,51.52977]},"properties":{"osm_type":"way","osm_id":344604993,"name":"Saint Barahanes, Castlehaven","religion":"christian","denomination":"roman_catholic","start_date":"1840","end_date":null,"start_year":1840,"end_year":null}},{"type":"Feature","geometry":{"type":"Point","coordinates":[-7.59097,52.56125]},"properties":{"osm_type":"way","osm_id":1027119142,"name":"Crohane Church","religion":"christian","denomination":"anglican","start_date":"1846","end_date":null,"start_year":1846,"end_year":null}},{"type":"Feature","geometry":{"type":"Point","coordinates":[-7.23352,52.90091]},"properties":{"osm_type":"way","osm_id":859473195,"name":"Saint Lazerian's","religion":"christian","denomination":"roman_catholic","start_date":"1847","end_date":null,"start_year":1847,"end_year":null}},{"type":"Feature","geometry":{"type":"Point","coordinates":[-8.26846,53.4715]},"properties":{"osm_type":"way","osm_id":1124157854,"name":"St. Joseph's Church","religion":"christian","denomination":"roman_catholic","start_date":"1857","end_date":null,"start_year":1857,"end_year":null}},{"type":"Feature","geometry":{"type":"Point","coordinates":[-6.99606,52.63088]},"properties":{"osm_type":"way","osm_id":146490664,"name":"Holy Trinity Church","religion":"christian","denomination":"roman_catholic","start_date":"1858","end_date":null,"start_year":1858,"end_year":null}},{"type":"Feature","geometry":{"type":"Point","coordinates":[-8.50094,53.88383]},"properties":{"osm_type":"way","osm_id":218949388,"name":"St Baoithin's Church","religion":"christian","denomination":"roman_catholic","start_date":"1858","end_date":null,"start_year":1858,"end_year":null}},{"type":"Feature","geometry":{"type":"Point","coordinates":[-7.41533,52.58163]},"properties":{"osm_type":"way","osm_id":789749489,"name":"Saint Molua's Church","religion":"christian","denomination":"roman_catholic","start_date":"1859","end_date":null,"start_year":1859,"end_year":null}},{"type":"Feature","geometry":{"type":"Point","coordinates":[-7.35469,52.91046]},"properties":{"osm_type":"way","osm_id":36144883,"name":"Saint Michael and All Angels' Church","religion":"christian","denomination":"anglican","start_date":"1865","end_date":null,"start_year":1865,"end_year":null}},{"type":"Feature","geometry":{"type":"Point","coordinates":[-7.06471,52.62891]},"properties":{"osm_type":"way","osm_id":778065556,"name":"St. Mary's Church","religion":"christian","denomination":null,"start_date":"1871","end_date":null,"start_year":1871,"end_year":null}},{"type":"Feature","geometry":{"type":"Point","coordinates":[-6.59829,53.37981]},"properties":{"osm_type":"way","osm_id":1317723322,"name":"College Chapel","religion":"christian","denomination":"roman_catholic","start_date":"1875-1891","end_date":null,"start_year":1875,"end_year":null}},{"type":"Feature","geometry":{"type":"Point","coordinates":[-7.36434,52.41968]},"properties":{"osm_type":"way","osm_id":148781150,"name":"St. Nicholas' Church","religion":"christian","denomination":"roman_catholic","start_date":"1885","end_date":null,"start_year":1885,"end_year":null}},{"type":"Feature","geometry":{"type":"Point","coordinates":[-8.46862,51.90173]},"properties":{"osm_type":"way","osm_id":846972958,"name":"Cork Baptist Church","religion":"christian","denomination":"baptist","start_date":"1892","end_date":null,"start_year":1892,"end_year":null}},{"type":"Feature","geometry":{"type":"Point","coordinates":[-7.39785,52.73111]},"properties":{"osm_type":"way","osm_id":755495791,"name":"St. Lachtain's Church","religion":"christian","denomination":"roman_catholic","start_date":"1901","end_date":null,"start_year":1901,"end_year":null}},{"type":"Feature","geometry":{"type":"Point","coordinates":[-10.22509,51.94706]},"properties":{"osm_type":"way","osm_id":128397825,"name":"Daniel O'Connell Memorial Church of the Holy Cross","religion":"christian","denomination":"roman_catholic","start_date":"1902","end_date":null,"start_year":1902,"end_year":null}},{"type":"Feature","geometry":{"type":"Point","coordinates":[-8.47082,51.89589]},"properties":{"osm_type":"way","osm_id":32396823,"name":"Holy Trinity","religion":"christian","denomination":"roman_catholic","start_date":"1906","end_date":null,"start_year":1906,"end_year":null}},{"type":"Feature","geometry":{"type":"Point","coordinates":[-6.1706,53.52977]},"properties":{"osm_type":"way","osm_id":322713319,"name":"St Maccullin's (RC)","religion":"christian","denomination":"roman_catholic","start_date":"1925","end_date":null,"start_year":1925,"end_year":null}},{"type":"Feature","geometry":{"type":"Point","coordinates":[-8.47622,51.89808]},"properties":{"osm_type":"way","osm_id":54415132,"name":"Saint Augustine's","religion":"christian","denomination":"roman_catholic","start_date":"1942","end_date":null,"start_year":1942,"end_year":null}},{"type":"Feature","geometry":{"type":"Point","coordinates":[-6.24129,53.42852]},"properties":{"osm_type":"way","osm_id":25727969,"name":"Church of Our Lady Queen of Heaven","religion":"christian","denomination":"roman_catholic","start_date":"1964","end_date":null,"start_year":1964,"end_year":null}},{"type":"Feature","geometry":{"type":"Point","coordinates":[-9.05759,53.27521]},"properties":{"osm_type":"way","osm_id":150786580,"name":"Galway Cathedral","religion":"christian","denomination":"roman_catholic","start_date":"1965-08-15","end_date":null,"start_year":1965,"end_year":null}},{"type":"Feature","geometry":{"type":"Point","coordinates":[-7.18239,52.59299]},"properties":{"osm_type":"way","osm_id":149297129,"name":"St. Bennetts Church","religion":"christian","denomination":"roman_catholic","start_date":"1967","end_date":null,"start_year":1967,"end_year":null}},{"type":"Feature","geometry":{"type":"Point","coordinates":[-6.33017,53.30896]},"properties":{"osm_type":"way","osm_id":489410716,"name":"Church of the Holy Spirit","religion":"christian","denomination":"roman_catholic","start_date":"1969","end_date":null,"start_year":1969,"end_year":null}},{"type":"Feature","geometry":{"type":"Point","coordinates":[-6.15631,53.28043]},"properties":{"osm_type":"way","osm_id":52156722,"name":"Church of the Holy Family","religion":"christian","denomination":"roman_catholic","start_date":"1972","end_date":null,"start_year":1972,"end_year":null}},{"type":"Feature","geometry":{"type":"Point","coordinates":[-8.46412,51.9114]},"properties":{"osm_type":"way","osm_id":104005025,"name":"Saint Brendan's Church","religion":"christian","denomination":"roman_catholic","start_date":"1973","end_date":null,"start_year":1973,"end_year":null}},{"type":"Feature","geometry":{"type":"Point","coordinates":[-8.53089,51.87688]},"properties":{"osm_type":"way","osm_id":154868435,"name":"Church of the Real Presence","religion":"christian","denomination":"roman_catholic","start_date":"1973","end_date":null,"start_year":1973,"end_year":null}},{"type":"Feature","geometry":{"type":"Point","coordinates":[-8.4575,51.86602]},"properties":{"osm_type":"way","osm_id":74360084,"name":"Church of the Incarnation","religion":"christian","denomination":"roman_catholic","start_date":"1976","end_date":null,"start_year":1976,"end_year":null}},{"type":"Feature","geometry":{"type":"Point","coordinates":[-7.86734,52.63993]},"properties":{"osm_type":"way","osm_id":1024653746,"name":null,"religion":"christian","denomination":"roman_catholic","start_date":"1983","end_date":null,"start_year":1983,"end_year":null}},{"type":"Feature","geometry":{"type":"Point","coordinates":[-6.93056,52.39554]},"properties":{"osm_type":"way","osm_id":96882201,"name":"Our Lady of Good Counsel Church","religion":"christian","denomination":"roman_catholic","start_date":"1984","end_date":null,"start_year":1984,"end_year":null}},{"type":"Feature","geometry":{"type":"Point","coordinates":[-8.02625,53.11745]},"properties":{"osm_type":"way","osm_id":1073327858,"name":null,"religion":"christian","denomination":"roman_catholic","start_date":"1984","end_date":null,"start_year":1984,"end_year":null}},{"type":"Feature","geometry":{"type":"Point","coordinates":[-8.45968,51.92106]},"properties":{"osm_type":"way","osm_id":112589487,"name":"Saint Oliver's Church","religion":"christian","denomination":"roman_catholic","start_date":"1992","end_date":null,"start_year":1992,"end_year":null}},{"type":"Feature","geometry":{"type":"Point","coordinates":[-6.24117,53.39747]},"properties":{"osm_type":"way","osm_id":228652341,"name":"Chapel of Blessed Margaret Ball","religion":"christian","denomination":"roman_catholic","start_date":"1994","end_date":null,"start_year":1994,"end_year":null}},{"type":"Feature","geometry":{"type":"Point","coordinates":[-8.46665,51.89853]},"properties":{"osm_type":"way","osm_id":1370581764,"name":"Cork Church","religion":"christian","denomination":"nondenominational","start_date":"2013","end_date":null,"start_year":2013,"end_year":null}},{"type":"Feature","geometry":{"type":"Point","coordinates":[-6.58127,53.38331]},"properties":{"osm_type":"way","osm_id":1315884245,"name":"Maynooth Community Church","religion":"christian","denomination":"presbyterian","start_date":"2024-09","end_date":null,"start_year":2024,"end_year":null}}]}
