{"type":"FeatureCollection", "features": [
{"type":"Feature","geometry":{"type":"MultiPolygon","coordinates":[[[[-62.74085,17.37671],[-62.74123,17.37684],[-62.74149,17.37683],[-62.74152,17.37683],[-62.74202,17.37678],[-62.7422,17.37683],[-62.74244,17.3768],[-62.74269,17.37668],[-62.74282,17.37665],[-62.74317,17.37657],[-62.74351,17.37669],[-62.7439,17.37694],[-62.74436,17.37726],[-62.74477,17.37763],[-62.74504,17.37795],[-62.74521,17.37825],[-62.74537,17.37846],[-62.74566,17.37857],[-62.74593,17.37866],[-62.74611,17.37881],[-62.74633,17.37916],[-62.74656,17.37957],[-62.74682,17.3798],[-62.74707,17.37985],[-62.74748,17.37989],[-62.74809,17.37984],[-62.74854,17.37975],[-62.7489,17.37964],[-62.74931,17.37968],[-62.74943,17.37974],[-62.74955,17.37979],[-62.74988,17.37997],[-62.75018,17.38012],[-62.75034,17.38027],[-62.75059,17.38052],[-62.75073,17.38065],[-62.75088,17.38073],[-62.75103,17.38075],[-62.75124,17.38077],[-62.75147,17.38085],[-62.7518,17.38103],[-62.75218,17.3813],[-62.75268,17.38166],[-62.75299,17.38183],[-62.75305,17.38183],[-62.7532,17.38191],[-62.7534,17.38201],[-62.75364,17.38215],[-62.75394,17.38248],[-62.75411,17.38278],[-62.75416,17.38295],[-62.75425,17.38315],[-62.75438,17.38325],[-62.75456,17.38328],[-62.75487,17.38327],[-62.75533,17.38335],[-62.75554,17.38334],[-62.75586,17.38335],[-62.75614,17.38346],[-62.75641,17.38355],[-62.75672,17.38374],[-62.7569,17.38395],[-62.75712,17.38413],[-62.75735,17.38422],[-62.75758,17.38423],[-62.75784,17.38422],[-62.75819,17.38432],[-62.75861,17.38457],[-62.75926,17.38494],[-62.75959,17.38518],[-62.75984,17.38548],[-62.76017,17.38589],[-62.76036,17.38609],[-62.76054,17.38616],[-62.76072,17.38613],[-62.76103,17.38623],[-62.76159,17.38658],[-62.76213,17.38691],[-62.76299,17.3876],[-62.7643,17.38868],[-62.76476,17.38921],[-62.76497,17.38944],[-62.76509,17.38956],[-62.76539,17.38992],[-62.76546,17.39013],[-62.76569,17.39043],[-62.76589,17.39055],[-62.76621,17.3907],[-62.76666,17.39096],[-62.76715,17.3913],[-62.7677,17.39166],[-62.76795,17.39185],[-62.76818,17.39196],[-62.76868,17.39231],[-62.76917,17.39267],[-62.76974,17.39314],[-62.77033,17.39358],[-62.77079,17.39396],[-62.77136,17.39456],[-62.77171,17.39491],[-62.77203,17.39524],[-62.77253,17.39588],[-62.77302,17.39655],[-62.77328,17.39691],[-62.77347,17.39717],[-62.7737,17.39739],[-62.7739,17.39753],[-62.77419,17.39771],[-62.77434,17.39782],[-62.77436,17.39795],[-62.77437,17.39814],[-62.77446,17.39823],[-62.77458,17.39834],[-62.77463,17.39849],[-62.77465,17.39861],[-62.77469,17.39874],[-62.77477,17.39886],[-62.77487,17.39893],[-62.77494,17.39892],[-62.77503,17.39888],[-62.77508,17.39891],[-62.77509,17.399],[-62.77513,17.3992],[-62.77531,17.39933],[-62.77544,17.3994],[-62.77553,17.39951],[-62.77569,17.39962],[-62.77578,17.39976],[-62.77577,17.39986],[-62.77587,17.39996],[-62.77604,17.40013],[-62.7761,17.40029],[-62.77608,17.40054],[-62.7762,17.40079],[-62.77633,17.40116],[-62.77653,17.40141],[-62.77679,17.40159],[-62.77703,17.40185],[-62.77713,17.40194],[-62.77726,17.40197],[-62.77742,17.40195],[-62.77752,17.40195],[-62.77776,17.40212],[-62.77781,17.40223],[-62.77793,17.40236],[-62.77806,17.4025],[-62.77819,17.40255],[-62.7783,17.40256],[-62.77842,17.40262],[-62.77859,17.40262],[-62.77875,17.40266],[-62.77898,17.40285],[-62.77912,17.40296],[-62.77937,17.40308],[-62.77949,17.40316],[-62.77952,17.40331],[-62.77959,17.4034],[-62.77966,17.40347],[-62.77968,17.40354],[-62.77968,17.40372],[-62.77971,17.40382],[-62.7798,17.4039],[-62.77991,17.40394],[-62.78005,17.40396],[-62.78018,17.40397],[-62.78024,17.40402],[-62.78031,17.40404],[-62.78042,17.40415],[-62.78057,17.40418],[-62.78065,17.40418],[-62.78074,17.40418],[-62.78085,17.40405],[-62.78097,17.40391],[-62.78102,17.40379],[-62.78106,17.40368],[-62.78114,17.40366],[-62.78124,17.40364],[-62.7814,17.40353],[-62.78149,17.40349],[-62.78162,17.40341],[-62.78181,17.40338],[-62.78193,17.40334],[-62.78201,17.40334],[-62.78215,17.4033],[-62.78224,17.40318],[-62.78235,17.40306],[-62.78246,17.40299],[-62.78259,17.40305],[-62.78275,17.40313],[-62.78298,17.40326],[-62.78308,17.4034],[-62.78313,17.40348],[-62.78324,17.40353],[-62.78334,17.40365],[-62.78354,17.40382],[-62.78385,17.40401],[-62.78407,17.40411],[-62.78434,17.40419],[-62.78448,17.40426],[-62.78459,17.40433],[-62.78472,17.40451],[-62.78489,17.40459],[-62.78517,17.40469],[-62.78534,17.4048],[-62.78539,17.40487],[-62.78547,17.4049],[-62.7856,17.40488],[-62.78576,17.40483],[-62.7861,17.40485],[-62.78646,17.40489],[-62.7868,17.405],[-62.7871,17.40511],[-62.7873,17.40523],[-62.78734,17.40526],[-62.78755,17.40546],[-62.78766,17.40562],[-62.78773,17.40571],[-62.78782,17.40575],[-62.78793,17.40577],[-62.78818,17.40585],[-62.78841,17.40587],[-62.78859,17.40587],[-62.78886,17.40582],[-62.78911,17.40583],[-62.78932,17.40591],[-62.7896,17.40605],[-62.78989,17.40622],[-62.79001,17.40633],[-62.79004,17.40643],[-62.79002,17.40652],[-62.79006,17.40669],[-62.79003,17.40683],[-62.78997,17.40706],[-62.78993,17.40716],[-62.79001,17.40731],[-62.79012,17.40736],[-62.79025,17.40738],[-62.79036,17.40735],[-62.79043,17.40728],[-62.79068,17.40716],[-62.79085,17.40707],[-62.79099,17.40695],[-62.79116,17.40685],[-62.79135,17.40687],[-62.79146,17.40689],[-62.79152,17.40693],[-62.79173,17.40705],[-62.79197,17.40728],[-62.79211,17.40749],[-62.79229,17.40773],[-62.79251,17.40813],[-62.79264,17.40831],[-62.79268,17.4084],[-62.79264,17.40846],[-62.79273,17.4086],[-62.79284,17.40879],[-62.79294,17.40893],[-62.79302,17.40898],[-62.79303,17.40903],[-62.79313,17.40914],[-62.79332,17.40926],[-62.79355,17.40938],[-62.79386,17.40953],[-62.79407,17.40957],[-62.7943,17.40958],[-62.79454,17.40956],[-62.79477,17.40955],[-62.79499,17.40949],[-62.79513,17.40945],[-62.79521,17.40939],[-62.79528,17.40928],[-62.79539,17.4092],[-62.79551,17.40913],[-62.79565,17.40901],[-62.79622,17.40862],[-62.79658,17.40855],[-62.79745,17.40856],[-62.7983,17.40826],[-62.79871,17.40788],[-62.79891,17.4077],[-62.79909,17.40749],[-62.79921,17.40735],[-62.7994,17.40726],[-62.79964,17.40715],[-62.79988,17.40714],[-62.80007,17.40704],[-62.80029,17.40699],[-62.8004,17.40695],[-62.80059,17.40693],[-62.80089,17.40693],[-62.80108,17.40694],[-62.80121,17.407],[-62.80136,17.40706],[-62.80155,17.4071],[-62.80163,17.40716],[-62.8018,17.40726],[-62.80199,17.40739],[-62.80262,17.40791],[-62.80268,17.40796],[-62.80308,17.40891],[-62.80318,17.409],[-62.80325,17.40916],[-62.80334,17.40932],[-62.80349,17.40959],[-62.80362,17.40975],[-62.8037,17.40989],[-62.80376,17.41007],[-62.80384,17.41024],[-62.80398,17.41046],[-62.80407,17.41064],[-62.8041,17.41087],[-62.80413,17.41107],[-62.80421,17.41126],[-62.80427,17.41141],[-62.80432,17.41156],[-62.80441,17.41162],[-62.80455,17.41167],[-62.8047,17.41179],[-62.80493,17.41199],[-62.80522,17.41226],[-62.80551,17.41251],[-62.80568,17.41267],[-62.806,17.41293],[-62.80614,17.41301],[-62.80624,17.41306],[-62.80637,17.41311],[-62.80649,17.41318],[-62.80665,17.4133],[-62.8068,17.41342],[-62.80692,17.41358],[-62.807,17.41372],[-62.80706,17.4139],[-62.80715,17.41405],[-62.8072,17.41418],[-62.8073,17.41454],[-62.80745,17.41501],[-62.80753,17.41527],[-62.8076,17.41541],[-62.8077,17.41552],[-62.80789,17.41567],[-62.80806,17.41581],[-62.80811,17.41594],[-62.80817,17.41615],[-62.80826,17.41633],[-62.80837,17.41645],[-62.80849,17.41652],[-62.8086,17.41662],[-62.80874,17.41677],[-62.80901,17.41695],[-62.80909,17.41705],[-62.80935,17.41723],[-62.80958,17.41738],[-62.80981,17.41751],[-62.80999,17.41759],[-62.81016,17.41772],[-62.81032,17.41791],[-62.81044,17.41802],[-62.81061,17.41806],[-62.81081,17.41798],[-62.81091,17.4179],[-62.81094,17.41785],[-62.81102,17.41771],[-62.8112,17.41744],[-62.81141,17.41725],[-62.81152,17.41715],[-62.81168,17.41712],[-62.81214,17.417],[-62.81221,17.41697],[-62.81228,17.41695],[-62.81236,17.41697],[-62.81244,17.41696],[-62.81261,17.41691],[-62.81295,17.41676],[-62.81301,17.4167],[-62.81312,17.41663],[-62.81321,17.41662],[-62.81337,17.41652],[-62.81362,17.41646],[-62.81387,17.41642],[-62.81436,17.41641],[-62.81452,17.41644],[-62.81468,17.41649],[-62.81488,17.41651],[-62.81502,17.41653],[-62.81535,17.41666],[-62.81558,17.41677],[-62.81571,17.41684],[-62.81578,17.41695],[-62.81589,17.41714],[-62.81601,17.41731],[-62.8161,17.4174],[-62.8162,17.41747],[-62.81632,17.41752],[-62.81644,17.41753],[-62.81653,17.41748],[-62.81664,17.41741],[-62.81684,17.41729],[-62.81691,17.4172],[-62.81706,17.41706],[-62.81717,17.41701],[-62.81744,17.41701],[-62.81771,17.41703],[-62.81807,17.41705],[-62.81836,17.41717],[-62.81865,17.41725],[-62.81893,17.41728],[-62.81916,17.41725],[-62.81927,17.41717],[-62.81947,17.41702],[-62.81967,17.41689],[-62.81977,17.41684],[-62.81993,17.4168],[-62.82009,17.41679],[-62.82025,17.41686],[-62.82044,17.41687],[-62.82065,17.41686],[-62.82085,17.41679],[-62.82124,17.41661],[-62.82209,17.41622],[-62.82252,17.41588],[-62.82303,17.41585],[-62.82326,17.41571],[-62.82351,17.41551],[-62.82375,17.4153],[-62.82384,17.41514],[-62.82392,17.41484],[-62.82398,17.41454],[-62.82407,17.41441],[-62.82426,17.41423],[-62.82445,17.41417],[-62.82579,17.41351],[-62.82881,17.41249],[-62.83105,17.41173],[-62.83305,17.41177],[-62.83525,17.41249],[-62.83762,17.41241],[-62.83822,17.41216],[-62.83877,17.41128],[-62.84003,17.41077],[-62.84092,17.41006],[-62.84207,17.40992],[-62.84337,17.4105],[-62.84383,17.41031],[-62.84397,17.40998],[-62.84439,17.40942],[-62.84447,17.40859],[-62.84489,17.4078],[-62.84544,17.40721],[-62.84679,17.40632],[-62.84867,17.40632],[-62.84962,17.40555],[-62.84999,17.40499],[-62.85,17.40424],[-62.85032,17.40346],[-62.85079,17.40277],[-62.85149,17.4023],[-62.85228,17.40181],[-62.8522,17.40041],[-62.85243,17.39976],[-62.85336,17.39964],[-62.85391,17.39935],[-62.85414,17.39912],[-62.85417,17.39894],[-62.85429,17.39868],[-62.85466,17.39832],[-62.85514,17.39802],[-62.85573,17.39773],[-62.85639,17.39752],[-62.85675,17.39743],[-62.85708,17.39735],[-62.8572,17.39735],[-62.85732,17.39739],[-62.85747,17.39741],[-62.8576,17.39739],[-62.85777,17.39742],[-62.85795,17.39741],[-62.85805,17.39737],[-62.85812,17.39731],[-62.85818,17.39721],[-62.85824,17.39705],[-62.85832,17.39693],[-62.85841,17.39674],[-62.8585,17.39665],[-62.85863,17.39652],[-62.85873,17.39645],[-62.85881,17.39635],[-62.85887,17.39627],[-62.85895,17.39622],[-62.85897,17.39616],[-62.85895,17.39607],[-62.85898,17.39594],[-62.85901,17.39576],[-62.85903,17.3956],[-62.85906,17.39536],[-62.85908,17.39527],[-62.85915,17.39512],[-62.85923,17.39491],[-62.85925,17.39477],[-62.85928,17.39466],[-62.85933,17.39455],[-62.85938,17.39441],[-62.85942,17.39424],[-62.85942,17.39414],[-62.85938,17.39398],[-62.85933,17.39382],[-62.8593,17.39371],[-62.85925,17.39364],[-62.85917,17.39356],[-62.85915,17.39347],[-62.85914,17.39339],[-62.85918,17.39325],[-62.85926,17.39311],[-62.85948,17.39289],[-62.8597,17.39268],[-62.85981,17.39259],[-62.85991,17.39256],[-62.86013,17.39252],[-62.86032,17.3925],[-62.86057,17.39249],[-62.8607,17.39246],[-62.86082,17.39241],[-62.86092,17.39236],[-62.86101,17.3923],[-62.86109,17.39222],[-62.86115,17.39209],[-62.86121,17.39194],[-62.86126,17.39191],[-62.86135,17.39187],[-62.86143,17.39181],[-62.86149,17.3917],[-62.86151,17.39162],[-62.86148,17.3915],[-62.86151,17.39138],[-62.86153,17.39114],[-62.86159,17.39088],[-62.86162,17.39076],[-62.86169,17.39055],[-62.86173,17.39042],[-62.86173,17.3903],[-62.86172,17.39022],[-62.86164,17.3897],[-62.86162,17.38958],[-62.86164,17.38943],[-62.86168,17.38934],[-62.86175,17.38923],[-62.86181,17.38921],[-62.86189,17.38911],[-62.86196,17.38906],[-62.86206,17.389],[-62.86219,17.38891],[-62.8623,17.38882],[-62.86245,17.38862],[-62.86253,17.38852],[-62.86262,17.38842],[-62.8627,17.38825],[-62.86281,17.38813],[-62.86296,17.38801],[-62.86307,17.3879],[-62.86314,17.38782],[-62.86323,17.38766],[-62.8633,17.3875],[-62.86339,17.38735],[-62.86347,17.38727],[-62.86355,17.38721],[-62.86361,17.38713],[-62.86362,17.38702],[-62.86366,17.3869],[-62.86366,17.38677],[-62.86361,17.38668],[-62.86359,17.3865],[-62.86359,17.38627],[-62.86355,17.38603],[-62.86356,17.38586],[-62.86356,17.3857],[-62.86356,17.38549],[-62.86359,17.38539],[-62.86362,17.38529],[-62.86366,17.38515],[-62.86364,17.385],[-62.86352,17.38481],[-62.86343,17.38464],[-62.86334,17.38445],[-62.86322,17.38425],[-62.86315,17.38413],[-62.86303,17.38399],[-62.86294,17.38385],[-62.86286,17.38376],[-62.8628,17.38362],[-62.8628,17.38353],[-62.86275,17.38348],[-62.86274,17.38338],[-62.86275,17.38318],[-62.86281,17.38303],[-62.86286,17.38289],[-62.8629,17.38267],[-62.8629,17.38249],[-62.86295,17.38228],[-62.86301,17.38209],[-62.86305,17.38194],[-62.86308,17.38175],[-62.8631,17.3815],[-62.86316,17.38125],[-62.8632,17.38094],[-62.86321,17.38081],[-62.86324,17.38062],[-62.86329,17.38038],[-62.8633,17.38016],[-62.8633,17.37991],[-62.86322,17.37964],[-62.86319,17.37946],[-62.86319,17.37932],[-62.86323,17.37914],[-62.86332,17.37893],[-62.86343,17.37876],[-62.86351,17.37855],[-62.86354,17.37837],[-62.86351,17.37819],[-62.86345,17.37805],[-62.86334,17.37788],[-62.86327,17.37772],[-62.86321,17.37748],[-62.86315,17.37715],[-62.86314,17.37692],[-62.86317,17.37665],[-62.86323,17.37643],[-62.86327,17.37612],[-62.86332,17.37585],[-62.86335,17.37561],[-62.8633,17.37542],[-62.8633,17.3753],[-62.86337,17.37518],[-62.86343,17.37501],[-62.86346,17.37481],[-62.8635,17.3746],[-62.86366,17.37419],[-62.86383,17.37381],[-62.8639,17.3736],[-62.86399,17.37335],[-62.86406,17.3732],[-62.86409,17.37305],[-62.86411,17.37287],[-62.86412,17.37272],[-62.86414,17.3726],[-62.86416,17.3724],[-62.86411,17.37226],[-62.86402,17.37209],[-62.86396,17.37196],[-62.86392,17.37172],[-62.8639,17.3715],[-62.86389,17.37112],[-62.86394,17.37084],[-62.86396,17.37067],[-62.86399,17.37056],[-62.86405,17.37045],[-62.86412,17.37028],[-62.86408,17.37014],[-62.86398,17.36996],[-62.86381,17.36978],[-62.8634,17.36939],[-62.86317,17.36918],[-62.863,17.3691],[-62.86285,17.36903],[-62.86271,17.36895],[-62.8626,17.36883],[-62.86242,17.36869],[-62.86223,17.36856],[-62.86212,17.36848],[-62.86192,17.36836],[-62.86174,17.36828],[-62.86149,17.3682],[-62.86124,17.3681],[-62.86097,17.36798],[-62.86057,17.36781],[-62.86037,17.36778],[-62.86018,17.36772],[-62.86006,17.36765],[-62.85997,17.36757],[-62.85988,17.3675],[-62.85975,17.36735],[-62.85965,17.36719],[-62.85951,17.36705],[-62.85934,17.367],[-62.85916,17.36691],[-62.85906,17.36678],[-62.85887,17.36667],[-62.85856,17.36656],[-62.85821,17.36648],[-62.85756,17.36627],[-62.85683,17.36597],[-62.85654,17.36582],[-62.85612,17.36554],[-62.8557,17.36522],[-62.85535,17.365],[-62.85496,17.36475],[-62.85451,17.36444],[-62.85421,17.36415],[-62.85401,17.36392],[-62.85382,17.36368],[-62.85357,17.36356],[-62.8533,17.36326],[-62.85312,17.36294],[-62.85306,17.36276],[-62.85298,17.36251],[-62.85298,17.36236],[-62.85295,17.36209],[-62.85295,17.36202],[-62.85294,17.36188],[-62.85287,17.36175],[-62.85273,17.36158],[-62.85259,17.36129],[-62.85247,17.36087],[-62.85242,17.36061],[-62.85228,17.36043],[-62.852,17.36027],[-62.85194,17.36027],[-62.85167,17.36015],[-62.85137,17.3599],[-62.85086,17.35952],[-62.85069,17.35928],[-62.85056,17.3591],[-62.85043,17.35883],[-62.85027,17.35854],[-62.85005,17.35821],[-62.8499,17.35798],[-62.8495,17.35761],[-62.84924,17.35723],[-62.84918,17.35713],[-62.84911,17.35699],[-62.84899,17.35676],[-62.84892,17.35662],[-62.84891,17.3566],[-62.84887,17.35654],[-62.8488,17.3562],[-62.8488,17.35604],[-62.84866,17.35586],[-62.84836,17.35565],[-62.84817,17.35549],[-62.84793,17.35519],[-62.84764,17.35474],[-62.84749,17.35448],[-62.84746,17.3544],[-62.84735,17.35411],[-62.84727,17.35382],[-62.84725,17.35362],[-62.84708,17.35329],[-62.84701,17.35307],[-62.84697,17.35289],[-62.8468,17.35254],[-62.84673,17.35228],[-62.84674,17.35208],[-62.84678,17.35188],[-62.84686,17.35178],[-62.84707,17.35154],[-62.8472,17.35138],[-62.84723,17.35124],[-62.84728,17.3508],[-62.84736,17.35061],[-62.84741,17.35031],[-62.84745,17.35007],[-62.84748,17.34951],[-62.84751,17.34924],[-62.8474,17.34895],[-62.84728,17.34866],[-62.8471,17.34844],[-62.84682,17.34825],[-62.84642,17.34805],[-62.84596,17.34783],[-62.84541,17.34758],[-62.84509,17.3474],[-62.84491,17.3472],[-62.84473,17.34705],[-62.84459,17.34689],[-62.84442,17.34684],[-62.84426,17.3468],[-62.84391,17.34656],[-62.84348,17.34633],[-62.84304,17.34616],[-62.84278,17.34606],[-62.84242,17.34584],[-62.84196,17.34546],[-62.84164,17.34519],[-62.84133,17.34502],[-62.84085,17.34478],[-62.84072,17.34468],[-62.84036,17.34427],[-62.84022,17.34406],[-62.84014,17.34385],[-62.84002,17.34365],[-62.84002,17.34355],[-62.83984,17.34318],[-62.83923,17.34201],[-62.83821,17.34095],[-62.83795,17.34067],[-62.83786,17.34053],[-62.83788,17.34044],[-62.83784,17.34034],[-62.83766,17.34031],[-62.83753,17.3402],[-62.83718,17.33995],[-62.83669,17.33966],[-62.83639,17.33945],[-62.83601,17.33925],[-62.83593,17.33916],[-62.83594,17.33911],[-62.83604,17.33902],[-62.83618,17.33887],[-62.83626,17.33878],[-62.83621,17.33874],[-62.83618,17.33874],[-62.83596,17.33897],[-62.83586,17.33907],[-62.8357,17.33908],[-62.83559,17.33905],[-62.83548,17.33897],[-62.83535,17.33892],[-62.83509,17.3388],[-62.83503,17.33871],[-62.83503,17.33865],[-62.83503,17.33861],[-62.83508,17.3385],[-62.83514,17.33844],[-62.83523,17.33842],[-62.83524,17.33839],[-62.83526,17.33837],[-62.83526,17.3383],[-62.83527,17.33828],[-62.83532,17.33823],[-62.83554,17.33823],[-62.83577,17.33825],[-62.83586,17.3383],[-62.83595,17.33833],[-62.83601,17.33834],[-62.83611,17.33836],[-62.83626,17.33837],[-62.83628,17.33842],[-62.8363,17.33844],[-62.83632,17.33844],[-62.83633,17.33842],[-62.83633,17.33835],[-62.83631,17.33825],[-62.83594,17.3382],[-62.83583,17.33816],[-62.83575,17.33814],[-62.8353,17.33812],[-62.83519,17.33804],[-62.83502,17.33797],[-62.83475,17.33838],[-62.83444,17.33831],[-62.83417,17.33818],[-62.83394,17.33798],[-62.83375,17.33774],[-62.83347,17.33745],[-62.83324,17.33721],[-62.83288,17.33694],[-62.83263,17.3367],[-62.83238,17.3364],[-62.83209,17.33609],[-62.83177,17.3358],[-62.83166,17.33568],[-62.83151,17.33553],[-62.8312,17.3353],[-62.83112,17.33519],[-62.83094,17.33499],[-62.83076,17.33476],[-62.83049,17.33436],[-62.83021,17.33403],[-62.82973,17.33359],[-62.82927,17.33327],[-62.82883,17.33295],[-62.82849,17.33273],[-62.82795,17.33243],[-62.82751,17.33214],[-62.827,17.33184],[-62.82644,17.33157],[-62.8262,17.3314],[-62.82616,17.33131],[-62.82607,17.33125],[-62.82589,17.3312],[-62.82537,17.33093],[-62.82515,17.33084],[-62.82442,17.33035],[-62.8241,17.33019],[-62.82387,17.33012],[-62.8234,17.3301],[-62.823,17.33007],[-62.82252,17.32997],[-62.82215,17.32985],[-62.82197,17.3298],[-62.8216,17.3296],[-62.82105,17.32928],[-62.82045,17.32894],[-62.81988,17.32872],[-62.81956,17.32861],[-62.81903,17.32844],[-62.81857,17.32835],[-62.818,17.32823],[-62.81745,17.32809],[-62.81719,17.32799],[-62.81686,17.32783],[-62.81651,17.32765],[-62.8161,17.32743],[-62.81566,17.32722],[-62.81488,17.32683],[-62.81453,17.32667],[-62.81408,17.32644],[-62.81378,17.32628],[-62.81329,17.32598],[-62.81293,17.32571],[-62.81286,17.32566],[-62.81273,17.32555],[-62.8126,17.3255],[-62.81242,17.32544],[-62.8119,17.32529],[-62.81167,17.32521],[-62.81093,17.32494],[-62.81039,17.32473],[-62.81027,17.32469],[-62.80969,17.32441],[-62.80852,17.32384],[-62.80773,17.32344],[-62.8072,17.32325],[-62.80644,17.32298],[-62.80583,17.32269],[-62.80505,17.3223],[-62.80452,17.32199],[-62.80392,17.32164],[-62.8037,17.32142],[-62.80293,17.32099],[-62.80194,17.32043],[-62.80189,17.3204],[-62.80184,17.32031],[-62.80177,17.32029],[-62.80171,17.32027],[-62.80187,17.32009],[-62.80193,17.32002],[-62.80192,17.31998],[-62.80187,17.31998],[-62.80178,17.32006],[-62.80165,17.32019],[-62.80159,17.32024],[-62.80155,17.32026],[-62.80151,17.32026],[-62.80121,17.32013],[-62.80116,17.32011],[-62.80116,17.32007],[-62.80124,17.31983],[-62.80114,17.31987],[-62.80091,17.31977],[-62.8008,17.31973],[-62.80061,17.31965],[-62.80041,17.31958],[-62.79996,17.31959],[-62.79962,17.31946],[-62.79906,17.31921],[-62.79862,17.31896],[-62.79805,17.31857],[-62.79746,17.31819],[-62.79705,17.31785],[-62.7968,17.31748],[-62.79648,17.31702],[-62.79644,17.31698],[-62.79627,17.31679],[-62.79594,17.31643],[-62.79576,17.31608],[-62.79517,17.3153],[-62.795,17.31507],[-62.79487,17.31474],[-62.79476,17.31441],[-62.79449,17.314],[-62.79438,17.31369],[-62.79436,17.3134],[-62.7943,17.31311],[-62.79413,17.31287],[-62.79386,17.31262],[-62.79371,17.31233],[-62.79376,17.31201],[-62.79379,17.31146],[-62.79385,17.31104],[-62.79382,17.3104],[-62.7938,17.31009],[-62.7937,17.30986],[-62.79367,17.30981],[-62.79353,17.30969],[-62.7934,17.30959],[-62.79337,17.30958],[-62.79298,17.30948],[-62.79254,17.30944],[-62.79204,17.30915],[-62.79168,17.30883],[-62.7914,17.30847],[-62.79124,17.30835],[-62.79086,17.30772],[-62.79059,17.30714],[-62.79031,17.30661],[-62.79017,17.30647],[-62.79003,17.30618],[-62.79003,17.30592],[-62.78968,17.30508],[-62.78966,17.30503],[-62.78943,17.30445],[-62.78922,17.3039],[-62.78911,17.30353],[-62.78899,17.30323],[-62.78883,17.30308],[-62.78861,17.30297],[-62.78838,17.30293],[-62.78807,17.30292],[-62.78765,17.30297],[-62.78714,17.30309],[-62.78675,17.30316],[-62.78645,17.30323],[-62.78602,17.30333],[-62.78567,17.30329],[-62.78534,17.30318],[-62.78458,17.30296],[-62.78394,17.30272],[-62.7836,17.30254],[-62.78311,17.30225],[-62.78261,17.30189],[-62.78214,17.30163],[-62.78164,17.30142],[-62.78126,17.30136],[-62.78084,17.30131],[-62.78049,17.3013],[-62.78022,17.30123],[-62.77982,17.30105],[-62.77925,17.30088],[-62.77878,17.30068],[-62.7784,17.30048],[-62.77815,17.30019],[-62.77778,17.29992],[-62.77752,17.29982],[-62.77711,17.29973],[-62.77672,17.29964],[-62.77632,17.29948],[-62.77599,17.29926],[-62.77567,17.29896],[-62.77549,17.29872],[-62.77538,17.29851],[-62.77536,17.29833],[-62.77542,17.29815],[-62.77547,17.29783],[-62.77548,17.29767],[-62.77548,17.29752],[-62.77557,17.29721],[-62.77563,17.29702],[-62.77557,17.29669],[-62.77545,17.29641],[-62.77532,17.2962],[-62.77502,17.29607],[-62.77459,17.29588],[-62.77428,17.29585],[-62.77408,17.29595],[-62.7739,17.2961],[-62.77366,17.29623],[-62.77332,17.29635],[-62.77296,17.29635],[-62.77262,17.29631],[-62.7718,17.29617],[-62.77111,17.29607],[-62.77046,17.29593],[-62.77044,17.29592],[-62.7697,17.29567],[-62.76922,17.29542],[-62.76875,17.2951],[-62.76845,17.29478],[-62.76832,17.29456],[-62.76807,17.29433],[-62.76794,17.29427],[-62.76778,17.2942],[-62.76734,17.29404],[-62.76697,17.29396],[-62.76657,17.29398],[-62.76615,17.2941],[-62.76535,17.29426],[-62.76488,17.29445],[-62.76448,17.2946],[-62.7641,17.2947],[-62.76353,17.29472],[-62.76299,17.29468],[-62.76228,17.29456],[-62.76189,17.29445],[-62.7612,17.2941],[-62.76091,17.2939],[-62.76065,17.29353],[-62.76031,17.29304],[-62.76024,17.2928],[-62.76017,17.29277],[-62.76,17.29267],[-62.75968,17.29269],[-62.7594,17.29272],[-62.75897,17.29275],[-62.75867,17.29285],[-62.75831,17.29295],[-62.75792,17.29304],[-62.75762,17.29315],[-62.7573,17.29319],[-62.75682,17.29316],[-62.75609,17.29309],[-62.7558,17.29301],[-62.75558,17.2929],[-62.75541,17.2928],[-62.75526,17.29283],[-62.75506,17.2929],[-62.75485,17.29308],[-62.75465,17.29311],[-62.75428,17.29317],[-62.75396,17.29315],[-62.75377,17.29319],[-62.75318,17.29319],[-62.75289,17.29314],[-62.75272,17.29306],[-62.75239,17.29316],[-62.75213,17.29317],[-62.75188,17.29311],[-62.75157,17.29299],[-62.75125,17.29298],[-62.75098,17.29306],[-62.75061,17.29318],[-62.75031,17.29321],[-62.74998,17.29322],[-62.74971,17.29317],[-62.74935,17.29303],[-62.74915,17.29287],[-62.74893,17.29272],[-62.74874,17.29272],[-62.74852,17.29283],[-62.74816,17.29293],[-62.74769,17.29298],[-62.74734,17.29298],[-62.74686,17.29297],[-62.7466,17.29287],[-62.74657,17.29286],[-62.74633,17.29278],[-62.74608,17.29274],[-62.74569,17.29277],[-62.74533,17.29281],[-62.74496,17.29278],[-62.74478,17.2927],[-62.7446,17.29266],[-62.7444,17.29251],[-62.74409,17.29232],[-62.74397,17.29216],[-62.74393,17.29192],[-62.74387,17.29145],[-62.74385,17.29115],[-62.74389,17.29088],[-62.74387,17.29075],[-62.74372,17.29059],[-62.74357,17.29054],[-62.74335,17.29055],[-62.74315,17.29065],[-62.74289,17.29069],[-62.74282,17.29068],[-62.74262,17.29065],[-62.74239,17.29058],[-62.74219,17.29041],[-62.74205,17.29023],[-62.74205,17.29001],[-62.74201,17.28984],[-62.74195,17.28978],[-62.74185,17.28975],[-62.74132,17.2898],[-62.74103,17.28988],[-62.74084,17.28985],[-62.74055,17.2898],[-62.74021,17.2898],[-62.73996,17.28982],[-62.73993,17.2899],[-62.73988,17.29005],[-62.73978,17.29018],[-62.73958,17.29028],[-62.73941,17.29046],[-62.73917,17.29061],[-62.73883,17.29072],[-62.73829,17.2909],[-62.73798,17.29096],[-62.73767,17.29098],[-62.7372,17.29095],[-62.73686,17.29093],[-62.73657,17.29088],[-62.73634,17.29078],[-62.73613,17.29062],[-62.73592,17.2904],[-62.73572,17.29019],[-62.73566,17.29001],[-62.73556,17.28962],[-62.73546,17.2893],[-62.73546,17.28914],[-62.73552,17.28902],[-62.73547,17.28885],[-62.73527,17.28866],[-62.73503,17.28864],[-62.73468,17.28866],[-62.73448,17.28871],[-62.73363,17.28929],[-62.73265,17.28995],[-62.7323,17.29029],[-62.73187,17.29056],[-62.73189,17.29065],[-62.73198,17.29069],[-62.73215,17.29063],[-62.73229,17.29074],[-62.73235,17.29069],[-62.73235,17.29084],[-62.73229,17.29088],[-62.73225,17.29098],[-62.73224,17.29118],[-62.73232,17.29128],[-62.73235,17.29145],[-62.73233,17.29173],[-62.73225,17.29193],[-62.73206,17.29205],[-62.73181,17.29215],[-62.73154,17.29219],[-62.7314,17.29219],[-62.73141,17.29236],[-62.73143,17.2925],[-62.73139,17.29261],[-62.73008,17.29318],[-62.72955,17.29332],[-62.72825,17.29363],[-62.72728,17.29394],[-62.72687,17.29396],[-62.72645,17.29394],[-62.72642,17.29394],[-62.72628,17.29391],[-62.72626,17.29379],[-62.7262,17.2938],[-62.72611,17.29382],[-62.72601,17.29384],[-62.72595,17.29385],[-62.72589,17.29387],[-62.72576,17.29385],[-62.72563,17.29386],[-62.72541,17.29395],[-62.72526,17.29397],[-62.72516,17.29405],[-62.72514,17.29418],[-62.72517,17.29431],[-62.72508,17.29432],[-62.72505,17.29418],[-62.72505,17.29378],[-62.72507,17.29345],[-62.72508,17.29247],[-62.72497,17.29247],[-62.72495,17.29351],[-62.72422,17.29352],[-62.72422,17.29212],[-62.72421,17.29209],[-62.72423,17.29194],[-62.72493,17.29195],[-62.72542,17.29201],[-62.72566,17.29215],[-62.72582,17.29235],[-62.7259,17.29239],[-62.72599,17.29239],[-62.72607,17.29234],[-62.7261,17.29224],[-62.72608,17.29212],[-62.72597,17.29199],[-62.7257,17.29183],[-62.72539,17.29175],[-62.7249,17.29169],[-62.72421,17.29169],[-62.72398,17.29169],[-62.72286,17.29169],[-62.72278,17.29169],[-62.7227,17.2917],[-62.7212,17.29175],[-62.72106,17.29177],[-62.72096,17.29187],[-62.72095,17.29196],[-62.72095,17.29199],[-62.72098,17.29211],[-62.72093,17.29219],[-62.72044,17.29287],[-62.72044,17.2946],[-62.7198,17.29457],[-62.7198,17.29444],[-62.71973,17.29444],[-62.71973,17.29457],[-62.71802,17.29454],[-62.71719,17.2945],[-62.71658,17.29447],[-62.71578,17.29448],[-62.71495,17.29448],[-62.71438,17.29443],[-62.71291,17.29416],[-62.71259,17.29411],[-62.71251,17.29407],[-62.71247,17.29398],[-62.71255,17.29396],[-62.71258,17.29393],[-62.71258,17.29384],[-62.71252,17.29378],[-62.71212,17.29369],[-62.71182,17.29355],[-62.7117,17.29338],[-62.71133,17.29323],[-62.71123,17.29323],[-62.71114,17.29326],[-62.71104,17.29321],[-62.71094,17.29319],[-62.71084,17.29316],[-62.71077,17.29315],[-62.71074,17.29316],[-62.71072,17.29318],[-62.71072,17.2932],[-62.71074,17.29324],[-62.71078,17.29325],[-62.7108,17.29326],[-62.71086,17.29328],[-62.71092,17.29328],[-62.71101,17.29329],[-62.71115,17.29334],[-62.71119,17.29337],[-62.71123,17.29338],[-62.71122,17.29342],[-62.71126,17.29343],[-62.71127,17.2934],[-62.71151,17.2935],[-62.71157,17.2937],[-62.71163,17.29371],[-62.71158,17.29384],[-62.71114,17.29391],[-62.71089,17.29388],[-62.71074,17.29384],[-62.71085,17.29346],[-62.71084,17.29343],[-62.71081,17.29342],[-62.71078,17.29343],[-62.71076,17.29345],[-62.71069,17.29369],[-62.71039,17.29366],[-62.71028,17.29363],[-62.70992,17.29342],[-62.70974,17.29332],[-62.70952,17.2932],[-62.70937,17.29309],[-62.70921,17.29296],[-62.70905,17.29279],[-62.70894,17.29262],[-62.70893,17.29253],[-62.70901,17.29179],[-62.70899,17.29165],[-62.70903,17.2915],[-62.70904,17.29109],[-62.70897,17.29106],[-62.70903,17.291],[-62.70905,17.29089],[-62.70906,17.2907],[-62.70908,17.29062],[-62.70919,17.29028],[-62.70922,17.2903],[-62.70923,17.29046],[-62.7093,17.29046],[-62.70936,17.29047],[-62.70939,17.29011],[-62.70943,17.29002],[-62.70944,17.28998],[-62.70937,17.28974],[-62.70877,17.28878],[-62.7086,17.28851],[-62.70857,17.28843],[-62.70863,17.28834],[-62.70881,17.28822],[-62.70912,17.28807],[-62.70914,17.28812],[-62.70925,17.28819],[-62.70929,17.28817],[-62.70922,17.28796],[-62.70928,17.28793],[-62.70914,17.28768],[-62.70925,17.2876],[-62.70984,17.2873],[-62.70993,17.28724],[-62.71012,17.28714],[-62.7106,17.28613],[-62.71051,17.2861],[-62.71041,17.28606],[-62.71042,17.28599],[-62.71039,17.28595],[-62.71001,17.28583],[-62.70996,17.28583],[-62.70993,17.28584],[-62.70986,17.28589],[-62.70928,17.28718],[-62.70817,17.28802],[-62.7081,17.28809],[-62.708,17.28808],[-62.70787,17.28807],[-62.70774,17.28798],[-62.70759,17.28788],[-62.70748,17.28779],[-62.70731,17.28759],[-62.70718,17.28745],[-62.70711,17.28731],[-62.70683,17.28713],[-62.70659,17.28697],[-62.70639,17.28675],[-62.70632,17.28658],[-62.70629,17.28641],[-62.70632,17.28631],[-62.70639,17.28618],[-62.70636,17.28606],[-62.70625,17.28591],[-62.7061,17.28586],[-62.70595,17.28581],[-62.7058,17.28567],[-62.70575,17.28557],[-62.70578,17.28547],[-62.70583,17.28539],[-62.70573,17.28526],[-62.70551,17.28514],[-62.70533,17.28503],[-62.70521,17.28506],[-62.70511,17.28506],[-62.70494,17.28502],[-62.7049,17.28492],[-62.70489,17.2848],[-62.7049,17.2847],[-62.70516,17.2847],[-62.70522,17.28469],[-62.7052,17.28457],[-62.7051,17.28441],[-62.70487,17.28428],[-62.70463,17.28418],[-62.7045,17.28413],[-62.70436,17.28405],[-62.70431,17.28405],[-62.70426,17.28413],[-62.70415,17.28415],[-62.70398,17.28412],[-62.70391,17.28409],[-62.70384,17.28407],[-62.7037,17.28391],[-62.70364,17.28378],[-62.70361,17.28376],[-62.70357,17.28372],[-62.70353,17.28368],[-62.70342,17.28356],[-62.70316,17.28334],[-62.70279,17.28316],[-62.70234,17.28296],[-62.70209,17.2829],[-62.70163,17.28271],[-62.70135,17.28259],[-62.70119,17.28253],[-62.70102,17.28248],[-62.70072,17.28244],[-62.70055,17.28234],[-62.7003,17.28226],[-62.70019,17.28231],[-62.70001,17.28231],[-62.69967,17.2823],[-62.6995,17.28228],[-62.6993,17.28238],[-62.69891,17.28258],[-62.69881,17.28263],[-62.69857,17.28275],[-62.69855,17.28276],[-62.69846,17.28281],[-62.69844,17.28289],[-62.69833,17.28295],[-62.69814,17.28297],[-62.69786,17.28296],[-62.69778,17.28296],[-62.6977,17.28295],[-62.69765,17.28289],[-62.69762,17.2828],[-62.69759,17.28273],[-62.69745,17.28267],[-62.69727,17.28259],[-62.69708,17.28247],[-62.69699,17.28239],[-62.69687,17.28235],[-62.69681,17.28233],[-62.69675,17.28231],[-62.69672,17.28236],[-62.69669,17.28244],[-62.69661,17.28248],[-62.69649,17.28244],[-62.69637,17.28248],[-62.69624,17.28254],[-62.69604,17.2826],[-62.69591,17.28261],[-62.69573,17.2826],[-62.69556,17.28256],[-62.69546,17.28249],[-62.69534,17.28236],[-62.69538,17.28228],[-62.69532,17.28219],[-62.6952,17.28215],[-62.69512,17.28209],[-62.69492,17.282],[-62.69463,17.28195],[-62.69437,17.28196],[-62.69405,17.28191],[-62.69376,17.28188],[-62.69362,17.28186],[-62.69353,17.28189],[-62.69326,17.28188],[-62.69315,17.28184],[-62.69306,17.28184],[-62.69293,17.28193],[-62.69277,17.28201],[-62.69267,17.28201],[-62.69243,17.282],[-62.69222,17.28193],[-62.69205,17.28185],[-62.69184,17.28176],[-62.69168,17.28172],[-62.69144,17.28172],[-62.6913,17.28173],[-62.69113,17.28175],[-62.69107,17.28175],[-62.69099,17.28174],[-62.68939,17.28132],[-62.68888,17.28117],[-62.68878,17.28115],[-62.68839,17.28105],[-62.68796,17.2809],[-62.68745,17.28068],[-62.68697,17.28047],[-62.6869,17.28044],[-62.68681,17.28036],[-62.68668,17.28015],[-62.68664,17.28001],[-62.68664,17.27998],[-62.68664,17.2799],[-62.68671,17.27987],[-62.68685,17.27986],[-62.68701,17.27984],[-62.68701,17.2798],[-62.68693,17.27978],[-62.68673,17.27981],[-62.68662,17.27982],[-62.68645,17.2794],[-62.68635,17.27908],[-62.68635,17.27888],[-62.68644,17.27869],[-62.68644,17.27858],[-62.68632,17.27852],[-62.68605,17.27835],[-62.68594,17.27817],[-62.68567,17.27805],[-62.68539,17.27786],[-62.68523,17.27771],[-62.68516,17.27764],[-62.6851,17.27754],[-62.685,17.27748],[-62.68491,17.27734],[-62.68477,17.27722],[-62.6844,17.27708],[-62.68431,17.27698],[-62.68419,17.27699],[-62.68364,17.27661],[-62.6832,17.27635],[-62.68308,17.27624],[-62.68269,17.27598],[-62.68254,17.2758],[-62.68265,17.27575],[-62.68289,17.2757],[-62.68284,17.27563],[-62.6825,17.27571],[-62.68235,17.2757],[-62.68226,17.27557],[-62.6823,17.27547],[-62.68215,17.27531],[-62.68207,17.27522],[-62.68195,17.27519],[-62.68162,17.27509],[-62.68103,17.27518],[-62.68063,17.27517],[-62.68029,17.27506],[-62.68006,17.27534],[-62.67993,17.27544],[-62.67981,17.27547],[-62.67931,17.27527],[-62.67921,17.27519],[-62.67931,17.27472],[-62.67931,17.27452],[-62.67951,17.27444],[-62.68032,17.27473],[-62.68068,17.27492],[-62.68105,17.27492],[-62.68144,17.27488],[-62.68211,17.27492],[-62.68215,17.27493],[-62.68259,17.27506],[-62.68321,17.27535],[-62.68322,17.27546],[-62.68335,17.27555],[-62.68341,17.27549],[-62.68329,17.2753],[-62.68278,17.27501],[-62.68215,17.27483],[-62.68213,17.27483],[-62.68195,17.27482],[-62.68144,17.27479],[-62.68073,17.27482],[-62.68036,17.27463],[-62.67974,17.27443],[-62.67962,17.27436],[-62.67954,17.27427],[-62.67946,17.2742],[-62.67951,17.27419],[-62.6797,17.27422],[-62.67975,17.27422],[-62.67977,17.27417],[-62.67974,17.27414],[-62.67955,17.27411],[-62.67941,17.27407],[-62.67928,17.27408],[-62.67905,17.27423],[-62.67896,17.27427],[-62.67877,17.27422],[-62.67868,17.27423],[-62.67863,17.27426],[-62.6786,17.27435],[-62.67866,17.27439],[-62.67869,17.27444],[-62.67881,17.27446],[-62.67889,17.27448],[-62.67893,17.27448],[-62.67885,17.27455],[-62.67881,17.27469],[-62.67869,17.27477],[-62.6786,17.27485],[-62.6784,17.27488],[-62.67818,17.27488],[-62.67778,17.27479],[-62.67739,17.27464],[-62.67669,17.27437],[-62.67567,17.27397],[-62.6746,17.27354],[-62.67351,17.2731],[-62.67286,17.27285],[-62.67245,17.27265],[-62.67217,17.27249],[-62.67176,17.27234],[-62.67149,17.27214],[-62.67117,17.27183],[-62.67061,17.27145],[-62.67001,17.27109],[-62.66999,17.27099],[-62.66969,17.27076],[-62.66851,17.2702],[-62.66766,17.26962],[-62.66751,17.26957],[-62.66737,17.26941],[-62.66721,17.2693],[-62.6671,17.26917],[-62.66685,17.26901],[-62.66657,17.26874],[-62.66629,17.2685],[-62.66603,17.26832],[-62.66583,17.26816],[-62.66582,17.26803],[-62.66583,17.26788],[-62.66577,17.26792],[-62.66571,17.2679],[-62.66563,17.26785],[-62.66558,17.2677],[-62.66551,17.26766],[-62.66522,17.26746],[-62.66495,17.26717],[-62.66484,17.26705],[-62.66484,17.26692],[-62.66485,17.2668],[-62.66482,17.26674],[-62.6647,17.26669],[-62.66455,17.26655],[-62.66424,17.26632],[-62.66393,17.26605],[-62.66357,17.26566],[-62.66324,17.26531],[-62.66312,17.26516],[-62.66303,17.26503],[-62.66305,17.26493],[-62.663,17.26478],[-62.66289,17.26476],[-62.66283,17.26467],[-62.66278,17.26446],[-62.66263,17.26411],[-62.66254,17.2639],[-62.6624,17.26376],[-62.66236,17.26368],[-62.66203,17.26328],[-62.66176,17.26294],[-62.6617,17.26281],[-62.66165,17.26265],[-62.66151,17.26253],[-62.6615,17.26247],[-62.66156,17.26241],[-62.66154,17.26233],[-62.66149,17.2623],[-62.66138,17.26231],[-62.66128,17.26234],[-62.66122,17.2623],[-62.66115,17.26222],[-62.66071,17.26167],[-62.66043,17.2614],[-62.65987,17.26073],[-62.65961,17.26037],[-62.65951,17.25973],[-62.65897,17.25828],[-62.65906,17.25778],[-62.6595,17.25697],[-62.65936,17.25668],[-62.65932,17.25645],[-62.65941,17.25611],[-62.65943,17.25606],[-62.65941,17.25591],[-62.65932,17.2558],[-62.65923,17.25566],[-62.65909,17.25552],[-62.6588,17.25531],[-62.65856,17.25506],[-62.65846,17.25493],[-62.65842,17.2548],[-62.65849,17.25469],[-62.65855,17.25454],[-62.65852,17.25405],[-62.65871,17.25352],[-62.65877,17.25303],[-62.65845,17.25272],[-62.65803,17.25253],[-62.65762,17.25239],[-62.65731,17.25169],[-62.65718,17.25143],[-62.65695,17.25088],[-62.65685,17.25064],[-62.6568,17.25026],[-62.65679,17.24988],[-62.65684,17.2496],[-62.65721,17.24909],[-62.65782,17.24871],[-62.65842,17.24773],[-62.65919,17.24713],[-62.65969,17.24635],[-62.65994,17.24611],[-62.66002,17.24588],[-62.66004,17.24571],[-62.65998,17.24542],[-62.6599,17.24518],[-62.65981,17.24495],[-62.65975,17.24464],[-62.6597,17.24444],[-62.6597,17.24435],[-62.65964,17.24435],[-62.6596,17.24438],[-62.65952,17.24433],[-62.65929,17.24424],[-62.65916,17.24418],[-62.6586,17.24343],[-62.65854,17.24335],[-62.65833,17.24296],[-62.65827,17.24284],[-62.6581,17.24253],[-62.65788,17.24217],[-62.65765,17.24164],[-62.6573,17.24072],[-62.65722,17.24046],[-62.65717,17.24016],[-62.65718,17.23987],[-62.65721,17.23968],[-62.65732,17.23943],[-62.65757,17.23914],[-62.65811,17.2386],[-62.65845,17.23828],[-62.65849,17.23824],[-62.65849,17.23803],[-62.65849,17.2376],[-62.65855,17.23729],[-62.6586,17.23693],[-62.65864,17.23663],[-62.65871,17.23624],[-62.65881,17.23596],[-62.65885,17.23574],[-62.65892,17.23557],[-62.65908,17.23529],[-62.65934,17.23499],[-62.66024,17.23438],[-62.66074,17.23397],[-62.66107,17.23365],[-62.66139,17.23329],[-62.66174,17.23299],[-62.66204,17.23275],[-62.66252,17.23255],[-62.66309,17.23231],[-62.66335,17.23221],[-62.66368,17.23205],[-62.6639,17.23196],[-62.66396,17.23188],[-62.66402,17.23186],[-62.6641,17.23186],[-62.66425,17.23179],[-62.66441,17.23159],[-62.6647,17.23103],[-62.66476,17.23079],[-62.66474,17.23056],[-62.66473,17.23034],[-62.66468,17.23025],[-62.66467,17.23009],[-62.66479,17.22991],[-62.66471,17.22966],[-62.66476,17.22943],[-62.66491,17.22932],[-62.66475,17.22917],[-62.66462,17.22898],[-62.66452,17.22873],[-62.6645,17.22847],[-62.66442,17.22815],[-62.66435,17.22805],[-62.6644,17.22794],[-62.66453,17.2278],[-62.66447,17.22773],[-62.66435,17.22767],[-62.66428,17.22758],[-62.66415,17.22749],[-62.664,17.22747],[-62.66382,17.22752],[-62.66373,17.22766],[-62.66363,17.22769],[-62.66349,17.22763],[-62.66338,17.22752],[-62.66325,17.22747],[-62.66311,17.22755],[-62.66294,17.22744],[-62.66274,17.22737],[-62.66252,17.22745],[-62.66236,17.22741],[-62.66219,17.22736],[-62.66203,17.22721],[-62.66176,17.22708],[-62.66151,17.22682],[-62.66141,17.2267],[-62.66125,17.22667],[-62.66107,17.22669],[-62.6609,17.22676],[-62.66075,17.22667],[-62.66071,17.22661],[-62.66057,17.22648],[-62.66038,17.22625],[-62.66028,17.22611],[-62.66015,17.22582],[-62.66003,17.22543],[-62.66002,17.22509],[-62.6601,17.22494],[-62.6602,17.22449],[-62.66034,17.22408],[-62.66046,17.22387],[-62.66057,17.22371],[-62.66055,17.22358],[-62.6605,17.2235],[-62.66041,17.2235],[-62.66025,17.22346],[-62.66003,17.22347],[-62.65987,17.22338],[-62.6597,17.22327],[-62.65958,17.22315],[-62.65946,17.22298],[-62.65936,17.22278],[-62.65952,17.22264],[-62.65955,17.22258],[-62.65948,17.22255],[-62.65935,17.22258],[-62.65937,17.22235],[-62.65944,17.22218],[-62.65937,17.222],[-62.65939,17.22183],[-62.65925,17.22173],[-62.65912,17.22163],[-62.6591,17.22144],[-62.65898,17.22131],[-62.65885,17.22106],[-62.65879,17.22095],[-62.6587,17.22078],[-62.65862,17.22061],[-62.65852,17.22037],[-62.65846,17.2201],[-62.65848,17.21993],[-62.65855,17.21964],[-62.65872,17.21938],[-62.65885,17.21906],[-62.65904,17.21859],[-62.65934,17.21818],[-62.65963,17.21775],[-62.6599,17.21727],[-62.66005,17.21706],[-62.66009,17.21689],[-62.66018,17.21667],[-62.66029,17.21653],[-62.66024,17.21643],[-62.66,17.21625],[-62.65976,17.21607],[-62.65964,17.21599],[-62.65936,17.21571],[-62.6592,17.21558],[-62.65913,17.21552],[-62.65907,17.21538],[-62.65882,17.21522],[-62.65868,17.21512],[-62.65857,17.21502],[-62.65858,17.21491],[-62.6586,17.21483],[-62.65854,17.21478],[-62.65838,17.21484],[-62.6582,17.21478],[-62.65803,17.21467],[-62.65795,17.2146],[-62.65791,17.21448],[-62.65781,17.21439],[-62.65784,17.21433],[-62.65794,17.21426],[-62.65799,17.21411],[-62.65795,17.21393],[-62.65788,17.21378],[-62.65787,17.21361],[-62.65788,17.21352],[-62.65784,17.21344],[-62.65773,17.2134],[-62.65753,17.21338],[-62.65732,17.21347],[-62.65714,17.21337],[-62.65652,17.2135],[-62.65618,17.21348],[-62.65596,17.21331],[-62.6557,17.21315],[-62.65569,17.21296],[-62.65557,17.21291],[-62.65549,17.21302],[-62.65537,17.21307],[-62.65517,17.21302],[-62.65501,17.21296],[-62.65486,17.21301],[-62.65472,17.21288],[-62.65457,17.21281],[-62.65443,17.21287],[-62.65424,17.21285],[-62.65411,17.21299],[-62.65395,17.21302],[-62.65374,17.21311],[-62.65368,17.21331],[-62.65345,17.21358],[-62.65295,17.21395],[-62.65271,17.21415],[-62.65228,17.21435],[-62.6519,17.21467],[-62.65168,17.21493],[-62.65146,17.21515],[-62.6514,17.21563],[-62.65141,17.21599],[-62.65149,17.2163],[-62.6516,17.21663],[-62.65172,17.21678],[-62.65182,17.21703],[-62.65192,17.21718],[-62.65215,17.21743],[-62.65231,17.21756],[-62.65238,17.2177],[-62.65237,17.21783],[-62.65225,17.21805],[-62.65212,17.2182],[-62.65198,17.21822],[-62.6519,17.21841],[-62.65198,17.21866],[-62.65203,17.21895],[-62.65206,17.21946],[-62.65205,17.21973],[-62.65195,17.21984],[-62.6518,17.22],[-62.65177,17.22013],[-62.65187,17.22027],[-62.65172,17.22033],[-62.65174,17.22047],[-62.65174,17.22091],[-62.65192,17.22138],[-62.65195,17.22168],[-62.65197,17.22199],[-62.65212,17.22221],[-62.65222,17.22245],[-62.65226,17.22276],[-62.65229,17.22332],[-62.65232,17.22375],[-62.65231,17.22407],[-62.65222,17.22439],[-62.65217,17.2245],[-62.65208,17.22459],[-62.65194,17.2249],[-62.65179,17.22508],[-62.65152,17.22532],[-62.65113,17.2256],[-62.65062,17.22594],[-62.64992,17.22631],[-62.64937,17.22657],[-62.64919,17.2266],[-62.64886,17.22682],[-62.64847,17.22692],[-62.64792,17.22706],[-62.64716,17.22718],[-62.64693,17.22713],[-62.64677,17.22712],[-62.64673,17.22712],[-62.64667,17.22712],[-62.64584,17.22706],[-62.64568,17.22696],[-62.64543,17.22669],[-62.64522,17.22632],[-62.64509,17.22603],[-62.64499,17.22569],[-62.6449,17.2256],[-62.64477,17.22525],[-62.64465,17.22491],[-62.6446,17.22471],[-62.64464,17.22455],[-62.64446,17.22454],[-62.64422,17.22451],[-62.64403,17.22449],[-62.64365,17.2243],[-62.64329,17.22405],[-62.64315,17.22394],[-62.64281,17.22325],[-62.6425,17.22273],[-62.64223,17.22228],[-62.64201,17.22204],[-62.64166,17.22196],[-62.64132,17.22208],[-62.64091,17.22228],[-62.6405,17.22265],[-62.64027,17.22317],[-62.64031,17.22343],[-62.64044,17.22355],[-62.6405,17.2237],[-62.64051,17.22394],[-62.64038,17.22454],[-62.63997,17.22572],[-62.63962,17.22643],[-62.63921,17.22689],[-62.63873,17.22737],[-62.63845,17.22752],[-62.63799,17.22756],[-62.63784,17.22748],[-62.63752,17.22733],[-62.63737,17.22741],[-62.6372,17.22758],[-62.63713,17.22778],[-62.63713,17.22811],[-62.63702,17.2283],[-62.63682,17.22842],[-62.6359,17.22885],[-62.63462,17.2295],[-62.63399,17.2297],[-62.63327,17.22979],[-62.63255,17.22977],[-62.63252,17.22975],[-62.63248,17.22974],[-62.63245,17.22974],[-62.63245,17.22976],[-62.63229,17.22982],[-62.63211,17.22982],[-62.63186,17.22978],[-62.63156,17.22965],[-62.63133,17.2295],[-62.63127,17.2294],[-62.63128,17.2292],[-62.63134,17.22894],[-62.63123,17.22862],[-62.63087,17.22726],[-62.63087,17.227],[-62.63079,17.22681],[-62.63055,17.22661],[-62.62993,17.22653],[-62.62949,17.22642],[-62.62926,17.22624],[-62.62897,17.22623],[-62.62891,17.22633],[-62.62881,17.22634],[-62.62841,17.22622],[-62.628,17.22618],[-62.62731,17.22638],[-62.62688,17.22662],[-62.62673,17.22687],[-62.62631,17.22717],[-62.62617,17.22721],[-62.62609,17.22733],[-62.6261,17.22766],[-62.626,17.22783],[-62.62582,17.22824],[-62.62577,17.22874],[-62.62576,17.2289],[-62.62588,17.22894],[-62.62602,17.22914],[-62.62605,17.22923],[-62.62596,17.22936],[-62.62599,17.22955],[-62.6261,17.22963],[-62.62608,17.22984],[-62.62617,17.23005],[-62.62626,17.23011],[-62.62637,17.23007],[-62.62682,17.23051],[-62.62694,17.23067],[-62.62691,17.23079],[-62.6269,17.23094],[-62.62698,17.23106],[-62.62715,17.23107],[-62.62735,17.23121],[-62.62742,17.23141],[-62.62756,17.23148],[-62.62775,17.23145],[-62.62789,17.23135],[-62.62823,17.23127],[-62.62836,17.23133],[-62.62849,17.23142],[-62.62871,17.23177],[-62.62882,17.23222],[-62.62883,17.23293],[-62.62873,17.2337],[-62.62863,17.23405],[-62.62857,17.23429],[-62.62843,17.23458],[-62.62814,17.23506],[-62.62793,17.23543],[-62.62791,17.23544],[-62.62649,17.2361],[-62.62562,17.2365],[-62.62408,17.23695],[-62.62344,17.23773],[-62.62325,17.23799],[-62.62302,17.23832],[-62.62245,17.23889],[-62.62172,17.23955],[-62.62128,17.24014],[-62.62155,17.24054],[-62.62181,17.24053],[-62.6217,17.24088],[-62.6214,17.24097],[-62.62149,17.24111],[-62.62142,17.24115],[-62.62141,17.24125],[-62.62148,17.24136],[-62.62159,17.24151],[-62.62168,17.24161],[-62.622,17.24156],[-62.62216,17.24162],[-62.62218,17.24182],[-62.62209,17.24213],[-62.6218,17.24236],[-62.62184,17.24269],[-62.62218,17.24255],[-62.62246,17.24274],[-62.62257,17.2427],[-62.62262,17.24262],[-62.62267,17.24265],[-62.62278,17.24275],[-62.62286,17.24297],[-62.62286,17.24355],[-62.62291,17.24394],[-62.62283,17.24411],[-62.62283,17.24438],[-62.62287,17.24457],[-62.62308,17.24487],[-62.62337,17.24522],[-62.62354,17.24539],[-62.62361,17.24592],[-62.62381,17.24646],[-62.62397,17.24659],[-62.62411,17.2467],[-62.62414,17.24681],[-62.6243,17.24692],[-62.6244,17.24707],[-62.62428,17.24715],[-62.62417,17.24725],[-62.62422,17.24734],[-62.6244,17.24738],[-62.62461,17.24736],[-62.6249,17.24745],[-62.62502,17.24745],[-62.62509,17.24753],[-62.62522,17.24759],[-62.62543,17.24754],[-62.62551,17.24768],[-62.62563,17.24784],[-62.62578,17.24825],[-62.62591,17.24855],[-62.62586,17.24873],[-62.62588,17.24895],[-62.62586,17.24913],[-62.62571,17.24937],[-62.62552,17.24958],[-62.62537,17.24972],[-62.62538,17.24982],[-62.62546,17.2499],[-62.62545,17.24999],[-62.62552,17.25021],[-62.62568,17.25045],[-62.62575,17.25057],[-62.62589,17.2507],[-62.62599,17.25073],[-62.62602,17.25067],[-62.62591,17.25055],[-62.62593,17.25045],[-62.62619,17.25044],[-62.62638,17.25035],[-62.62656,17.25033],[-62.62677,17.25039],[-62.62692,17.25056],[-62.62704,17.25071],[-62.62706,17.25084],[-62.62715,17.25094],[-62.6274,17.25098],[-62.62772,17.25099],[-62.62865,17.25124],[-62.63021,17.25169],[-62.63038,17.25177],[-62.6306,17.25186],[-62.63075,17.25178],[-62.63104,17.25181],[-62.63131,17.25192],[-62.63182,17.25213],[-62.6319,17.25225],[-62.63189,17.25242],[-62.63204,17.25261],[-62.63217,17.25261],[-62.63221,17.25271],[-62.6323,17.25284],[-62.63244,17.25295],[-62.63254,17.25311],[-62.63266,17.2532],[-62.63278,17.25319],[-62.63284,17.25312],[-62.63298,17.25307],[-62.63313,17.25318],[-62.63359,17.25358],[-62.6336,17.25374],[-62.63369,17.25387],[-62.6338,17.25386],[-62.63392,17.2539],[-62.63397,17.25408],[-62.63389,17.25416],[-62.63394,17.25427],[-62.63413,17.25427],[-62.63432,17.25417],[-62.6345,17.25421],[-62.63465,17.25435],[-62.63466,17.25448],[-62.63457,17.25462],[-62.6346,17.25471],[-62.63457,17.25483],[-62.63454,17.25494],[-62.6346,17.25498],[-62.63469,17.25491],[-62.63477,17.25482],[-62.63501,17.25491],[-62.63526,17.25508],[-62.63531,17.25522],[-62.6355,17.25525],[-62.63558,17.25535],[-62.63569,17.25553],[-62.63594,17.25569],[-62.63612,17.25561],[-62.63632,17.25524],[-62.63664,17.25449],[-62.63679,17.25426],[-62.63681,17.25401],[-62.63687,17.25381],[-62.63707,17.25309],[-62.6373,17.25242],[-62.63737,17.25217],[-62.63751,17.25193],[-62.63757,17.25174],[-62.63757,17.25143],[-62.63801,17.25061],[-62.63825,17.25038],[-62.6386,17.25015],[-62.63923,17.24989],[-62.63983,17.24976],[-62.64049,17.2497],[-62.64131,17.24976],[-62.64165,17.24985],[-62.64195,17.24999],[-62.64259,17.25046],[-62.64287,17.25084],[-62.64301,17.25119],[-62.64304,17.25148],[-62.64276,17.2519],[-62.64268,17.25217],[-62.64276,17.2525],[-62.64276,17.25287],[-62.64265,17.25325],[-62.64256,17.25354],[-62.64258,17.25374],[-62.64279,17.25383],[-62.64311,17.254],[-62.6433,17.25419],[-62.64358,17.25481],[-62.64375,17.25493],[-62.64386,17.25525],[-62.64391,17.25557],[-62.64399,17.2558],[-62.64414,17.25586],[-62.64431,17.25602],[-62.64459,17.2567],[-62.64475,17.25707],[-62.64521,17.25773],[-62.64655,17.25737],[-62.64834,17.25863],[-62.64863,17.26012],[-62.65004,17.26155],[-62.65035,17.26219],[-62.65139,17.26268],[-62.65213,17.26246],[-62.65292,17.26211],[-62.65392,17.26201],[-62.65522,17.26288],[-62.6561,17.26314],[-62.6566,17.26348],[-62.65668,17.26371],[-62.6567,17.26396],[-62.65648,17.26408],[-62.65619,17.26444],[-62.65619,17.26491],[-62.65613,17.26547],[-62.65631,17.26578],[-62.65651,17.26588],[-62.65687,17.26639],[-62.65754,17.26716],[-62.65827,17.26885],[-62.6593,17.26964],[-62.6602,17.26978],[-62.66087,17.2703],[-62.66106,17.27033],[-62.66129,17.27021],[-62.66144,17.27025],[-62.66178,17.27041],[-62.662,17.27058],[-62.66224,17.27092],[-62.66243,17.27127],[-62.66255,17.27139],[-62.66267,17.27143],[-62.66276,17.27154],[-62.6628,17.27171],[-62.66294,17.27197],[-62.66296,17.27214],[-62.6629,17.2723],[-62.663,17.27242],[-62.66321,17.27259],[-62.6634,17.27266],[-62.66366,17.27272],[-62.66392,17.273],[-62.66389,17.27313],[-62.66396,17.2734],[-62.6641,17.27371],[-62.66418,17.27396],[-62.6643,17.27405],[-62.66442,17.2741],[-62.66451,17.27403],[-62.6646,17.27399],[-62.66467,17.27386],[-62.66476,17.27382],[-62.66488,17.27384],[-62.66503,17.27386],[-62.66517,17.27386],[-62.66523,17.27395],[-62.66536,17.27394],[-62.66572,17.2741],[-62.66606,17.27419],[-62.66622,17.27417],[-62.66637,17.27425],[-62.66667,17.27423],[-62.6669,17.27419],[-62.66701,17.27421],[-62.66712,17.27416],[-62.66737,17.27418],[-62.66748,17.27423],[-62.66755,17.27418],[-62.66779,17.27416],[-62.66803,17.27417],[-62.668,17.2743],[-62.66813,17.27438],[-62.66825,17.27437],[-62.6684,17.27461],[-62.6683,17.27482],[-62.66839,17.27523],[-62.66872,17.27537],[-62.66894,17.27532],[-62.66919,17.27518],[-62.66934,17.27519],[-62.66952,17.27526],[-62.67002,17.27556],[-62.67061,17.27603],[-62.67074,17.27623],[-62.67084,17.27644],[-62.6709,17.27663],[-62.67104,17.27673],[-62.67129,17.2768],[-62.67163,17.27683],[-62.6719,17.27691],[-62.67222,17.27708],[-62.67273,17.27748],[-62.67361,17.27826],[-62.67397,17.27857],[-62.67507,17.27997],[-62.67557,17.2806],[-62.67618,17.28145],[-62.67644,17.28183],[-62.67679,17.28219],[-62.67672,17.28229],[-62.67674,17.28267],[-62.67675,17.28296],[-62.67698,17.28384],[-62.67738,17.28438],[-62.67818,17.28478],[-62.67843,17.28479],[-62.67858,17.28476],[-62.67868,17.28466],[-62.67882,17.28448],[-62.67887,17.28433],[-62.67895,17.28423],[-62.67916,17.28392],[-62.67931,17.28382],[-62.67952,17.28374],[-62.67965,17.28374],[-62.67973,17.28367],[-62.67984,17.28353],[-62.6801,17.28344],[-62.68029,17.2835],[-62.68051,17.28356],[-62.68101,17.28375],[-62.68148,17.28397],[-62.68187,17.28426],[-62.68215,17.28458],[-62.68231,17.28476],[-62.68257,17.28506],[-62.68302,17.28579],[-62.68326,17.28638],[-62.68341,17.28677],[-62.68351,17.2873],[-62.68362,17.28788],[-62.68362,17.28842],[-62.68339,17.28997],[-62.68311,17.29068],[-62.6832,17.2907],[-62.68323,17.29073],[-62.68325,17.29076],[-62.68325,17.29081],[-62.68323,17.29092],[-62.68318,17.29108],[-62.68317,17.29115],[-62.68316,17.29122],[-62.68316,17.29156],[-62.68291,17.29213],[-62.68285,17.29228],[-62.68284,17.29235],[-62.68284,17.29247],[-62.68285,17.29257],[-62.68288,17.29266],[-62.68299,17.29284],[-62.68309,17.29302],[-62.68316,17.29323],[-62.68318,17.29341],[-62.68315,17.2936],[-62.68308,17.29374],[-62.68297,17.29398],[-62.68296,17.29408],[-62.683,17.29422],[-62.68305,17.2945],[-62.68305,17.29469],[-62.683,17.29491],[-62.6829,17.29513],[-62.68278,17.29537],[-62.68265,17.29554],[-62.68263,17.29561],[-62.68264,17.2957],[-62.68282,17.29602],[-62.68293,17.2962],[-62.68298,17.29628],[-62.68314,17.29634],[-62.68346,17.29634],[-62.68488,17.29788],[-62.68504,17.29812],[-62.68514,17.29837],[-62.68516,17.29855],[-62.68506,17.29888],[-62.68483,17.29966],[-62.68439,17.30072],[-62.68427,17.30093],[-62.68416,17.30108],[-62.684,17.30137],[-62.68396,17.30153],[-62.68395,17.30165],[-62.68399,17.3017],[-62.68405,17.30174],[-62.68406,17.30181],[-62.68415,17.3019],[-62.68423,17.30197],[-62.68431,17.30198],[-62.68444,17.30197],[-62.68456,17.30197],[-62.68466,17.30198],[-62.6848,17.30194],[-62.68496,17.3019],[-62.68503,17.3019],[-62.6851,17.30185],[-62.68527,17.30187],[-62.68553,17.30184],[-62.68578,17.30181],[-62.68587,17.30181],[-62.68604,17.30181],[-62.68637,17.30183],[-62.68722,17.30213],[-62.68732,17.30212],[-62.68741,17.30214],[-62.68746,17.30217],[-62.68746,17.30222],[-62.68743,17.30226],[-62.68739,17.30231],[-62.68741,17.30238],[-62.6875,17.30248],[-62.68759,17.30253],[-62.68771,17.30257],[-62.68784,17.30257],[-62.68796,17.30253],[-62.68808,17.30251],[-62.68862,17.3027],[-62.68927,17.3031],[-62.68972,17.30346],[-62.69043,17.30442],[-62.69089,17.3051],[-62.69149,17.30635],[-62.69177,17.30715],[-62.69203,17.30851],[-62.69203,17.30853],[-62.69193,17.30965],[-62.69153,17.31091],[-62.6908,17.31189],[-62.69075,17.31222],[-62.69139,17.31292],[-62.69215,17.31372],[-62.69219,17.31376],[-62.69231,17.31389],[-62.69269,17.31431],[-62.69339,17.31511],[-62.69472,17.31663],[-62.69551,17.31746],[-62.697,17.31905],[-62.69761,17.32029],[-62.69898,17.322],[-62.69992,17.32347],[-62.70025,17.32412],[-62.70077,17.32523],[-62.70101,17.32576],[-62.7012,17.3263],[-62.70139,17.32674],[-62.70156,17.32702],[-62.70168,17.32728],[-62.70178,17.32779],[-62.70197,17.3285],[-62.70215,17.32907],[-62.70231,17.32937],[-62.70251,17.32978],[-62.7026,17.32998],[-62.70259,17.33019],[-62.70272,17.33055],[-62.70295,17.33107],[-62.7032,17.33155],[-62.70339,17.33185],[-62.70355,17.33218],[-62.70359,17.33246],[-62.70359,17.33287],[-62.70367,17.33334],[-62.70377,17.33365],[-62.70392,17.334],[-62.7041,17.33424],[-62.70428,17.33441],[-62.70443,17.3346],[-62.70457,17.33471],[-62.70471,17.33477],[-62.70492,17.33496],[-62.70496,17.33502],[-62.70514,17.33526],[-62.70537,17.33555],[-62.70552,17.33569],[-62.70683,17.33688],[-62.70824,17.33903],[-62.70842,17.33931],[-62.7088,17.33976],[-62.70899,17.33996],[-62.7092,17.3402],[-62.70932,17.34051],[-62.70945,17.34082],[-62.70961,17.34106],[-62.70976,17.34117],[-62.70998,17.34129],[-62.71034,17.34153],[-62.71109,17.34219],[-62.71158,17.3426],[-62.71252,17.34344],[-62.71348,17.34444],[-62.71388,17.34486],[-62.71466,17.34573],[-62.71599,17.34722],[-62.71655,17.34785],[-62.71701,17.34839],[-62.71856,17.35014],[-62.71863,17.35022],[-62.71882,17.35057],[-62.71924,17.3511],[-62.7195,17.35146],[-62.71991,17.35203],[-62.72032,17.35269],[-62.72071,17.35346],[-62.72106,17.35406],[-62.72127,17.3544],[-62.72146,17.35481],[-62.72145,17.35503],[-62.72145,17.35521],[-62.72152,17.35538],[-62.72165,17.35559],[-62.72192,17.35591],[-62.72218,17.35625],[-62.72224,17.35641],[-62.72234,17.35659],[-62.72245,17.35664],[-62.7226,17.35663],[-62.72283,17.35667],[-62.72303,17.35676],[-62.72344,17.35718],[-62.7238,17.35753],[-62.72429,17.3581],[-62.72452,17.35848],[-62.72465,17.35864],[-62.72461,17.35884],[-62.72453,17.35913],[-62.72451,17.35935],[-62.72448,17.35947],[-62.72455,17.35958],[-62.72466,17.35964],[-62.72488,17.35971],[-62.725,17.35967],[-62.72515,17.35972],[-62.72534,17.35971],[-62.72557,17.3598],[-62.72579,17.35995],[-62.72599,17.36015],[-62.72615,17.36039],[-62.72621,17.36056],[-62.72619,17.36079],[-62.72613,17.36115],[-62.72608,17.3616],[-62.72617,17.36186],[-62.72624,17.36215],[-62.72641,17.36239],[-62.72654,17.36255],[-62.72665,17.36267],[-62.72675,17.36275],[-62.72692,17.36273],[-62.72708,17.36277],[-62.72725,17.36292],[-62.72736,17.36308],[-62.72756,17.3633],[-62.72776,17.36355],[-62.72796,17.36369],[-62.72819,17.36377],[-62.72836,17.36379],[-62.72859,17.36392],[-62.72863,17.36405],[-62.72872,17.36416],[-62.72866,17.36423],[-62.72865,17.36437],[-62.72873,17.36452],[-62.72884,17.36456],[-62.729,17.36464],[-62.72916,17.36472],[-62.7293,17.36472],[-62.72949,17.36484],[-62.72971,17.36507],[-62.73005,17.36532],[-62.73036,17.36548],[-62.73073,17.36565],[-62.73109,17.36584],[-62.73162,17.36625],[-62.73222,17.36684],[-62.73264,17.3673],[-62.73287,17.36772],[-62.73305,17.3682],[-62.73331,17.36885],[-62.73353,17.3695],[-62.73372,17.36977],[-62.73401,17.37003],[-62.73432,17.37018],[-62.73458,17.37024],[-62.73479,17.37031],[-62.73499,17.3705],[-62.73507,17.37073],[-62.73523,17.37104],[-62.7354,17.37121],[-62.73574,17.37135],[-62.73641,17.37151],[-62.73687,17.37151],[-62.7373,17.37143],[-62.73754,17.37145],[-62.73793,17.37154],[-62.73833,17.37177],[-62.73874,17.37212],[-62.73903,17.37258],[-62.73928,17.37305],[-62.73936,17.3735],[-62.73944,17.37392],[-62.73944,17.37434],[-62.73938,17.37488],[-62.73942,17.37534],[-62.73958,17.37569],[-62.7399,17.376],[-62.74006,17.3763],[-62.74045,17.37654],[-62.74085,17.37671]]],[[[-62.57748,17.10337],[-62.57731,17.10338],[-62.57676,17.1033],[-62.57662,17.10329],[-62.57616,17.10346],[-62.57576,17.10348],[-62.57496,17.10369],[-62.57474,17.10375],[-62.57421,17.10381],[-62.5739,17.10375],[-62.57379,17.10373],[-62.57319,17.10366],[-62.57262,17.10363],[-62.57192,17.10383],[-62.57142,17.10389],[-62.571,17.10407],[-62.57025,17.10462],[-62.56955,17.10466],[-62.56925,17.10457],[-62.56883,17.10477],[-62.56861,17.10494],[-62.56849,17.10504],[-62.56828,17.10535],[-62.56762,17.1057],[-62.56672,17.10642],[-62.56618,17.10664],[-62.56519,17.107],[-62.56424,17.10718],[-62.56343,17.10729],[-62.56333,17.10731],[-62.56268,17.10725],[-62.56227,17.10736],[-62.56189,17.10736],[-62.56116,17.10741],[-62.56055,17.10725],[-62.55973,17.107],[-62.55909,17.10681],[-62.55862,17.10654],[-62.55802,17.10649],[-62.55765,17.10664],[-62.5572,17.10681],[-62.55685,17.10671],[-62.55653,17.10651],[-62.55455,17.10664],[-62.55441,17.10671],[-62.55426,17.10678],[-62.55368,17.10787],[-62.55326,17.10856],[-62.55274,17.10909],[-62.55203,17.10959],[-62.55145,17.11003],[-62.55089,17.11007],[-62.55056,17.11042],[-62.55014,17.1109],[-62.55007,17.1111],[-62.54944,17.11192],[-62.54902,17.11238],[-62.54883,17.11285],[-62.54877,17.11326],[-62.54867,17.11356],[-62.54852,17.11386],[-62.54823,17.11402],[-62.5477,17.11416],[-62.54745,17.11441],[-62.54739,17.11471],[-62.54747,17.11495],[-62.54781,17.11522],[-62.54779,17.11545],[-62.54784,17.11608],[-62.54765,17.11678],[-62.54715,17.11777],[-62.54676,17.11851],[-62.54644,17.11925],[-62.54635,17.11952],[-62.5463,17.11964],[-62.54642,17.11996],[-62.54646,17.12061],[-62.5463,17.12076],[-62.54584,17.12112],[-62.5457,17.12122],[-62.54555,17.12176],[-62.54546,17.12224],[-62.54551,17.12261],[-62.54552,17.12324],[-62.54537,17.12427],[-62.54531,17.12489],[-62.5452,17.12559],[-62.54508,17.12635],[-62.54468,17.12699],[-62.54437,17.12727],[-62.54379,17.12742],[-62.54349,17.12758],[-62.54302,17.12782],[-62.54284,17.12819],[-62.54268,17.1289],[-62.54279,17.1295],[-62.54282,17.12963],[-62.54282,17.13022],[-62.54263,17.13061],[-62.54213,17.13081],[-62.54177,17.1311],[-62.54166,17.13174],[-62.54163,17.13189],[-62.54175,17.13296],[-62.54167,17.13382],[-62.54155,17.13412],[-62.54145,17.13443],[-62.54121,17.13484],[-62.54121,17.13521],[-62.54118,17.13555],[-62.5412,17.13579],[-62.54156,17.13616],[-62.54163,17.13645],[-62.54184,17.13663],[-62.54202,17.13678],[-62.5423,17.13711],[-62.54227,17.13762],[-62.54209,17.13834],[-62.54177,17.13869],[-62.54174,17.13873],[-62.54102,17.13912],[-62.54091,17.13933],[-62.54085,17.13944],[-62.54082,17.13987],[-62.54083,17.14014],[-62.54096,17.14026],[-62.54102,17.14067],[-62.54108,17.14111],[-62.54092,17.14148],[-62.54048,17.14229],[-62.54038,17.14249],[-62.53987,17.14319],[-62.53967,17.14364],[-62.53963,17.1442],[-62.53963,17.14484],[-62.53982,17.14547],[-62.54005,17.14607],[-62.54032,17.1467],[-62.54073,17.14719],[-62.54108,17.14744],[-62.54127,17.14773],[-62.54145,17.14822],[-62.54163,17.14878],[-62.54182,17.14939],[-62.54208,17.14993],[-62.54225,17.15026],[-62.54232,17.15053],[-62.54224,17.15076],[-62.54224,17.151],[-62.54237,17.15157],[-62.54238,17.15188],[-62.54253,17.15235],[-62.5426,17.15284],[-62.5425,17.15324],[-62.54251,17.15363],[-62.54263,17.15422],[-62.54279,17.15476],[-62.54279,17.15481],[-62.54276,17.15512],[-62.54244,17.15549],[-62.54239,17.1558],[-62.54241,17.15593],[-62.54246,17.15627],[-62.54234,17.15654],[-62.54227,17.15698],[-62.5423,17.15717],[-62.54208,17.15787],[-62.54214,17.15823],[-62.54199,17.15864],[-62.54184,17.15913],[-62.54187,17.1602],[-62.54207,17.16093],[-62.5426,17.16154],[-62.54302,17.16233],[-62.54315,17.16258],[-62.54341,17.16282],[-62.54345,17.16285],[-62.54399,17.16414],[-62.54401,17.16434],[-62.54417,17.16488],[-62.54427,17.16523],[-62.5443,17.16566],[-62.54429,17.16613],[-62.54461,17.16793],[-62.54478,17.1692],[-62.54478,17.16967],[-62.54468,17.16997],[-62.5446,17.17024],[-62.54475,17.1708],[-62.5448,17.17122],[-62.54472,17.17172],[-62.54481,17.17201],[-62.54478,17.17237],[-62.54455,17.17263],[-62.54436,17.17304],[-62.54426,17.17345],[-62.54427,17.17371],[-62.54427,17.17386],[-62.54421,17.17418],[-62.54413,17.17451],[-62.54417,17.17487],[-62.54432,17.17514],[-62.54491,17.1754],[-62.54549,17.17573],[-62.54571,17.17607],[-62.54573,17.17668],[-62.54569,17.17677],[-62.5456,17.17697],[-62.54535,17.17731],[-62.54526,17.17783],[-62.54527,17.17863],[-62.54529,17.17877],[-62.54539,17.1792],[-62.54532,17.17965],[-62.54525,17.17997],[-62.54533,17.18019],[-62.54539,17.18046],[-62.54557,17.1807],[-62.54616,17.18104],[-62.54659,17.18125],[-62.54699,17.18166],[-62.54716,17.18204],[-62.54733,17.18235],[-62.54742,17.18275],[-62.54758,17.18277],[-62.54789,17.1831],[-62.54828,17.1835],[-62.54836,17.18354],[-62.54856,17.18362],[-62.54867,17.18382],[-62.549,17.18415],[-62.54937,17.18444],[-62.54949,17.18465],[-62.54994,17.18509],[-62.55041,17.18547],[-62.55052,17.1856],[-62.5511,17.18586],[-62.55156,17.18616],[-62.55172,17.18641],[-62.55182,17.18658],[-62.55209,17.18721],[-62.55228,17.18752],[-62.55239,17.1877],[-62.55253,17.18811],[-62.55259,17.18863],[-62.55274,17.18917],[-62.55292,17.18952],[-62.55329,17.18994],[-62.55367,17.19026],[-62.55403,17.1904],[-62.55415,17.19038],[-62.55453,17.19034],[-62.55507,17.19067],[-62.5555,17.19125],[-62.55546,17.19193],[-62.5553,17.19276],[-62.5552,17.19313],[-62.55534,17.19329],[-62.55533,17.19347],[-62.55542,17.19368],[-62.55556,17.19382],[-62.55564,17.19404],[-62.55572,17.19404],[-62.5559,17.19421],[-62.55612,17.1945],[-62.55642,17.19466],[-62.55719,17.19478],[-62.55744,17.19477],[-62.55796,17.19489],[-62.55885,17.19514],[-62.55912,17.19531],[-62.55924,17.19536],[-62.55974,17.19569],[-62.56003,17.19585],[-62.56021,17.19591],[-62.56029,17.19586],[-62.56078,17.19586],[-62.56165,17.19573],[-62.56195,17.19564],[-62.56252,17.19564],[-62.56327,17.19549],[-62.56423,17.19537],[-62.56462,17.19544],[-62.56504,17.19562],[-62.5655,17.19598],[-62.56574,17.1961],[-62.56605,17.19607],[-62.56635,17.1957],[-62.56676,17.19553],[-62.56729,17.19568],[-62.5675,17.19574],[-62.56805,17.19629],[-62.56839,17.1968],[-62.56859,17.19755],[-62.56857,17.1979],[-62.56865,17.19813],[-62.56879,17.19829],[-62.56937,17.19836],[-62.56997,17.19864],[-62.57037,17.19878],[-62.57083,17.19928],[-62.57109,17.19984],[-62.57116,17.20056],[-62.57164,17.20102],[-62.57201,17.20151],[-62.57216,17.20204],[-62.57218,17.20223],[-62.57236,17.2023],[-62.57279,17.20242],[-62.57289,17.20252],[-62.57389,17.20355],[-62.57402,17.20369],[-62.57445,17.2048],[-62.57457,17.20492],[-62.57473,17.2048],[-62.57592,17.20543],[-62.57605,17.2054],[-62.57615,17.20548],[-62.5761,17.20553],[-62.5761,17.20561],[-62.57615,17.20565],[-62.57622,17.20564],[-62.57625,17.20546],[-62.57634,17.20546],[-62.57642,17.20548],[-62.57656,17.20558],[-62.57669,17.20569],[-62.57733,17.20599],[-62.57722,17.20617],[-62.57722,17.2062],[-62.57725,17.20622],[-62.5773,17.20623],[-62.57732,17.20621],[-62.57739,17.20602],[-62.57808,17.20647],[-62.57812,17.20661],[-62.57837,17.20643],[-62.57855,17.20656],[-62.57907,17.20707],[-62.57924,17.2072],[-62.5795,17.20735],[-62.57951,17.20737],[-62.57967,17.20747],[-62.58002,17.20756],[-62.58018,17.20761],[-62.58034,17.20761],[-62.58069,17.2077],[-62.5808,17.20769],[-62.58101,17.20763],[-62.58115,17.20755],[-62.58123,17.20748],[-62.58134,17.20741],[-62.58147,17.20736],[-62.58161,17.20733],[-62.58198,17.20726],[-62.58254,17.20714],[-62.58258,17.20714],[-62.58262,17.20716],[-62.58266,17.20717],[-62.58268,17.20715],[-62.58269,17.20712],[-62.58269,17.20705],[-62.5827,17.20701],[-62.58273,17.20697],[-62.58304,17.20682],[-62.58317,17.20678],[-62.58329,17.20677],[-62.58345,17.20677],[-62.58378,17.2068],[-62.58395,17.20682],[-62.58402,17.20683],[-62.58406,17.20683],[-62.5841,17.20681],[-62.58418,17.20677],[-62.58425,17.20673],[-62.58435,17.2067],[-62.58447,17.20668],[-62.58453,17.20668],[-62.58457,17.20666],[-62.5846,17.20664],[-62.58463,17.20662],[-62.58472,17.20654],[-62.58484,17.20646],[-62.585,17.20639],[-62.58512,17.20636],[-62.58518,17.20633],[-62.58532,17.2063],[-62.58544,17.2063],[-62.58567,17.2063],[-62.58664,17.20627],[-62.58719,17.20638],[-62.5873,17.20643],[-62.58761,17.20655],[-62.58786,17.20664],[-62.58795,17.20664],[-62.58845,17.20692],[-62.58866,17.20706],[-62.5891,17.20736],[-62.58947,17.20762],[-62.59013,17.20774],[-62.59079,17.20765],[-62.59148,17.20744],[-62.59224,17.20705],[-62.59228,17.20703],[-62.59288,17.20694],[-62.59374,17.20677],[-62.59444,17.20682],[-62.59452,17.2067],[-62.59481,17.20651],[-62.59514,17.20639],[-62.59567,17.20614],[-62.59602,17.20599],[-62.59609,17.20596],[-62.59677,17.20585],[-62.59832,17.20552],[-62.59987,17.20507],[-62.60133,17.2048],[-62.60227,17.2048],[-62.60316,17.20485],[-62.60342,17.20487],[-62.6045,17.20483],[-62.60539,17.20495],[-62.60599,17.20523],[-62.60642,17.20554],[-62.60651,17.20563],[-62.6067,17.2058],[-62.60707,17.20597],[-62.6076,17.20598],[-62.60822,17.20589],[-62.60869,17.20568],[-62.60911,17.20523],[-62.6097,17.20461],[-62.61033,17.20417],[-62.61081,17.20383],[-62.61153,17.20349],[-62.61192,17.20319],[-62.61214,17.20292],[-62.61194,17.20274],[-62.61166,17.20254],[-62.61134,17.20245],[-62.61119,17.20253],[-62.61105,17.20249],[-62.61069,17.20187],[-62.61076,17.20135],[-62.61096,17.20065],[-62.61111,17.20019],[-62.61122,17.19983],[-62.61178,17.19906],[-62.61231,17.19867],[-62.61239,17.1986],[-62.61257,17.19862],[-62.61286,17.19861],[-62.61326,17.1981],[-62.61342,17.1975],[-62.61368,17.19709],[-62.61404,17.19646],[-62.61408,17.1959],[-62.61435,17.19545],[-62.61517,17.19478],[-62.6158,17.19446],[-62.61612,17.19441],[-62.61641,17.19411],[-62.61661,17.194],[-62.61678,17.1937],[-62.61716,17.19332],[-62.61767,17.19255],[-62.61799,17.19244],[-62.61822,17.19185],[-62.61858,17.19147],[-62.61884,17.19128],[-62.61852,17.19105],[-62.61827,17.1908],[-62.61798,17.19063],[-62.61766,17.19037],[-62.6178,17.18929],[-62.61807,17.18875],[-62.6182,17.18849],[-62.61825,17.18846],[-62.61843,17.1883],[-62.61864,17.18812],[-62.61885,17.18754],[-62.61892,17.18747],[-62.62042,17.18814],[-62.62087,17.18756],[-62.62077,17.18743],[-62.62038,17.18793],[-62.61999,17.18774],[-62.61996,17.18773],[-62.6198,17.18765],[-62.61924,17.18733],[-62.61939,17.18686],[-62.61909,17.18673],[-62.6191,17.18631],[-62.6191,17.18595],[-62.61913,17.18573],[-62.61936,17.18534],[-62.61967,17.18493],[-62.62078,17.18386],[-62.62103,17.18346],[-62.6211,17.18337],[-62.62156,17.1828],[-62.62258,17.18152],[-62.623,17.18094],[-62.62335,17.18059],[-62.62408,17.17951],[-62.62533,17.1771],[-62.62576,17.17625],[-62.62622,17.175],[-62.6267,17.17382],[-62.62707,17.17276],[-62.62739,17.17212],[-62.62765,17.17147],[-62.62765,17.17128],[-62.62775,17.1709],[-62.62773,17.17051],[-62.62793,17.16989],[-62.62819,17.16916],[-62.62853,17.16762],[-62.62867,17.16704],[-62.62878,17.16608],[-62.62886,17.16549],[-62.62895,17.16483],[-62.62906,17.16401],[-62.62907,17.1639],[-62.62916,17.16326],[-62.62922,17.16238],[-62.62931,17.16192],[-62.62937,17.16148],[-62.62938,17.16115],[-62.6294,17.16069],[-62.62941,17.16065],[-62.62946,17.16019],[-62.62954,17.1599],[-62.6296,17.15965],[-62.6296,17.15932],[-62.62957,17.15907],[-62.62957,17.15888],[-62.62962,17.15866],[-62.6297,17.1584],[-62.62972,17.15831],[-62.62971,17.15822],[-62.62968,17.15811],[-62.62962,17.15799],[-62.62953,17.15782],[-62.62943,17.15762],[-62.62936,17.15741],[-62.62935,17.15737],[-62.62934,17.15728],[-62.62933,17.15712],[-62.62933,17.15672],[-62.62932,17.15663],[-62.6293,17.15654],[-62.62922,17.15636],[-62.62912,17.15608],[-62.62904,17.1557],[-62.629,17.15551],[-62.62892,17.15518],[-62.62873,17.15441],[-62.62864,17.15399],[-62.62863,17.15368],[-62.62863,17.15342],[-62.62858,17.15224],[-62.62856,17.15206],[-62.62843,17.15126],[-62.62807,17.14971],[-62.62793,17.14839],[-62.62812,17.14713],[-62.62819,17.14686],[-62.62826,17.14675],[-62.62845,17.14663],[-62.62861,17.14652],[-62.6287,17.14643],[-62.62877,17.1463],[-62.62888,17.14616],[-62.62904,17.14573],[-62.6291,17.14531],[-62.62922,17.14517],[-62.62977,17.14456],[-62.62979,17.14423],[-62.62993,17.14386],[-62.62994,17.14341],[-62.62988,17.14098],[-62.62987,17.13891],[-62.63099,17.13886],[-62.63099,17.13878],[-62.63098,17.1387],[-62.63017,17.13874],[-62.63012,17.13833],[-62.63012,17.13829],[-62.63001,17.13754],[-62.63001,17.13752],[-62.62995,17.13741],[-62.62984,17.13741],[-62.62973,17.13726],[-62.6297,17.13645],[-62.62985,17.13515],[-62.62993,17.13481],[-62.63004,17.13437],[-62.63022,17.13402],[-62.63042,17.13362],[-62.63083,17.13326],[-62.63091,17.13319],[-62.63104,17.13323],[-62.63125,17.13323],[-62.63139,17.13308],[-62.63152,17.1331],[-62.6317,17.13303],[-62.63244,17.13318],[-62.63298,17.13324],[-62.63308,17.13316],[-62.63323,17.13306],[-62.63334,17.13298],[-62.63353,17.13291],[-62.6334,17.13271],[-62.63315,17.13251],[-62.63316,17.13221],[-62.63322,17.13193],[-62.63306,17.13177],[-62.63294,17.13154],[-62.63281,17.13134],[-62.63261,17.13096],[-62.63237,17.13052],[-62.6322,17.12998],[-62.63224,17.1294],[-62.6324,17.12906],[-62.63238,17.12885],[-62.63204,17.12859],[-62.63177,17.12826],[-62.63159,17.12801],[-62.63137,17.12796],[-62.63108,17.12771],[-62.63092,17.12748],[-62.63069,17.12736],[-62.63001,17.12717],[-62.62928,17.12667],[-62.62891,17.12621],[-62.62891,17.1258],[-62.62883,17.1254],[-62.62884,17.12526],[-62.62874,17.12512],[-62.62836,17.12455],[-62.62797,17.12402],[-62.62769,17.12351],[-62.62772,17.12322],[-62.62785,17.1225],[-62.62773,17.12242],[-62.62765,17.12236],[-62.62785,17.12219],[-62.62748,17.12142],[-62.62717,17.12028],[-62.62687,17.11951],[-62.62622,17.11904],[-62.62559,17.11859],[-62.62542,17.11825],[-62.62547,17.11799],[-62.62527,17.11766],[-62.62507,17.11732],[-62.62487,17.11708],[-62.62439,17.11671],[-62.62448,17.11633],[-62.62452,17.1162],[-62.62436,17.11594],[-62.62409,17.11584],[-62.62383,17.1154],[-62.62379,17.11507],[-62.62375,17.11499],[-62.62363,17.11489],[-62.62344,17.11472],[-62.62316,17.11431],[-62.62268,17.11356],[-62.6223,17.11267],[-62.62227,17.11229],[-62.62235,17.11198],[-62.62251,17.11133],[-62.62235,17.10986],[-62.62274,17.10929],[-62.62423,17.10833],[-62.6243,17.10843],[-62.62434,17.10842],[-62.62444,17.1083],[-62.62521,17.10886],[-62.62527,17.10879],[-62.62532,17.10873],[-62.62439,17.108],[-62.62315,17.1088],[-62.62304,17.10882],[-62.6229,17.10886],[-62.6225,17.10891],[-62.62205,17.10888],[-62.62171,17.10879],[-62.62154,17.10856],[-62.62099,17.10847],[-62.62042,17.1083],[-62.61979,17.10791],[-62.61947,17.10752],[-62.61945,17.10684],[-62.61954,17.1064],[-62.61931,17.1064],[-62.61897,17.10626],[-62.61859,17.10614],[-62.61786,17.10602],[-62.61722,17.10566],[-62.61678,17.10522],[-62.61665,17.10476],[-62.61668,17.10451],[-62.61654,17.10425],[-62.61638,17.10401],[-62.61617,17.10399],[-62.61599,17.10399],[-62.61571,17.10392],[-62.61547,17.10374],[-62.61516,17.10322],[-62.61481,17.10286],[-62.61448,17.10286],[-62.61396,17.10259],[-62.61345,17.10218],[-62.61327,17.10168],[-62.61309,17.10125],[-62.61288,17.10119],[-62.61252,17.10107],[-62.61225,17.10083],[-62.6122,17.10038],[-62.61216,17.10022],[-62.61211,17.10002],[-62.61181,17.10008],[-62.61134,17.09986],[-62.61103,17.09941],[-62.61087,17.09859],[-62.6109,17.09818],[-62.61089,17.09788],[-62.61058,17.09764],[-62.61004,17.09745],[-62.60982,17.09722],[-62.60929,17.09674],[-62.60876,17.09655],[-62.60864,17.0965],[-62.608,17.09665],[-62.60786,17.09668],[-62.60744,17.09663],[-62.60724,17.09647],[-62.60709,17.09614],[-62.60627,17.09559],[-62.60615,17.09542],[-62.60595,17.09518],[-62.60573,17.0952],[-62.60547,17.0953],[-62.60535,17.09529],[-62.60509,17.09536],[-62.60487,17.09548],[-62.60457,17.09554],[-62.60384,17.09526],[-62.60305,17.09485],[-62.60268,17.09455],[-62.60229,17.09442],[-62.60164,17.09464],[-62.60101,17.0945],[-62.60019,17.09417],[-62.59999,17.09419],[-62.59992,17.09441],[-62.59961,17.09433],[-62.5993,17.09425],[-62.59916,17.09442],[-62.59898,17.09452],[-62.59876,17.09448],[-62.59855,17.09455],[-62.59836,17.09462],[-62.59821,17.09459],[-62.59769,17.09466],[-62.59741,17.09496],[-62.5973,17.09521],[-62.59696,17.0952],[-62.59671,17.09538],[-62.59657,17.09566],[-62.5964,17.09609],[-62.59619,17.09625],[-62.59581,17.09617],[-62.59569,17.09617],[-62.59563,17.09617],[-62.59555,17.09617],[-62.59519,17.09617],[-62.59439,17.09608],[-62.59393,17.09607],[-62.59354,17.09622],[-62.59338,17.09617],[-62.59302,17.09605],[-62.59274,17.09604],[-62.5926,17.09603],[-62.59217,17.09592],[-62.59186,17.0958],[-62.59159,17.09598],[-62.59135,17.0962],[-62.59116,17.09625],[-62.59062,17.09653],[-62.59033,17.09685],[-62.59025,17.09731],[-62.58991,17.0975],[-62.58963,17.09774],[-62.58937,17.09811],[-62.58885,17.09845],[-62.58834,17.09902],[-62.58792,17.09929],[-62.58726,17.09972],[-62.58649,17.10008],[-62.5862,17.09996],[-62.58591,17.09984],[-62.58543,17.09967],[-62.5852,17.09978],[-62.58508,17.10005],[-62.58459,17.10046],[-62.58452,17.10054],[-62.58417,17.10089],[-62.58359,17.10133],[-62.58335,17.10138],[-62.583,17.10145],[-62.58249,17.10139],[-62.58216,17.10142],[-62.58181,17.1016],[-62.58144,17.10161],[-62.58089,17.10142],[-62.58046,17.10133],[-62.58024,17.10144],[-62.5793,17.10189],[-62.57889,17.10238],[-62.57855,17.1027],[-62.57822,17.10306],[-62.57775,17.10336],[-62.57748,17.10337]]],[[[-62.61094,17.22671],[-62.61085,17.2266],[-62.61079,17.22654],[-62.61072,17.22646],[-62.61058,17.22642],[-62.61048,17.2264],[-62.61032,17.2264],[-62.61022,17.22643],[-62.61015,17.22654],[-62.61009,17.2267],[-62.61,17.22689],[-62.60995,17.22692],[-62.60993,17.22698],[-62.60997,17.22702],[-62.60992,17.22709],[-62.60994,17.22714],[-62.61,17.22716],[-62.60998,17.22721],[-62.61002,17.22723],[-62.61007,17.22724],[-62.6101,17.22718],[-62.61014,17.22719],[-62.61016,17.22726],[-62.61023,17.22729],[-62.61029,17.22731],[-62.61038,17.22729],[-62.61045,17.22731],[-62.6105,17.22727],[-62.61057,17.22732],[-62.61065,17.22727],[-62.61075,17.22719],[-62.61089,17.22703],[-62.61094,17.2269],[-62.61095,17.22679],[-62.61094,17.22671]]]]},"properties":{"area_code":"KN","area_name":"Saint Kitts and Nevis"}}
]}