{"type":"FeatureCollection","attribution":"© OpenStreetMap contributors, ODbL 1.0","features":[{"type":"Feature","geometry":{"type":"Point","coordinates":[126.45538,36.78786]},"properties":{"osm_type":"way","osm_id":1038618739,"name":"본당","religion":"christian","denomination":"catholic","start_date":"1908-05-09","end_date":null,"start_year":1908,"end_year":null}},{"type":"Feature","geometry":{"type":"Point","coordinates":[126.4554,36.78773]},"properties":{"osm_type":"way","osm_id":1261868441,"name":"서산동문동성당","religion":"christian","denomination":"catholic","start_date":"1908-05-09","end_date":null,"start_year":1908,"end_year":null}},{"type":"Feature","geometry":{"type":"Point","coordinates":[126.97887,37.55937]},"properties":{"osm_type":"way","osm_id":1216021750,"name":null,"religion":"christian","denomination":null,"start_date":"1964","end_date":null,"start_year":1964,"end_year":null}},{"type":"Feature","geometry":{"type":"Point","coordinates":[129.2231,35.18834]},"properties":{"osm_type":"way","osm_id":382701819,"name":"해동용궁사","religion":"buddhist","denomination":null,"start_date":"1970s","end_date":null,"start_year":1970,"end_year":null}},{"type":"Feature","geometry":{"type":"Point","coordinates":[128.12297,35.41592]},"properties":{"osm_type":"way","osm_id":690869676,"name":"buddha","religion":"buddhist","denomination":null,"start_date":"1988.7.31","end_date":null,"start_year":1988,"end_year":null}},{"type":"Feature","geometry":{"type":"Point","coordinates":[127.04253,37.73969]},"properties":{"osm_type":"node","osm_id":12410390195,"name":"천주교의정부교구청","religion":"christian","denomination":"catholic","start_date":"2004-06-24","end_date":null,"start_year":2004,"end_year":null}},{"type":"Feature","geometry":{"type":"Point","coordinates":[129.17807,35.16741]},"properties":{"osm_type":"way","osm_id":499196464,"name":"새삶교회","religion":"christian","denomination":null,"start_date":"2012","end_date":null,"start_year":2012,"end_year":null}},{"type":"Feature","geometry":{"type":"Point","coordinates":[128.60696,35.86269]},"properties":{"osm_type":"way","osm_id":1363173663,"name":null,"religion":null,"denomination":null,"start_date":"2014","end_date":null,"start_year":2014,"end_year":null}},{"type":"Feature","geometry":{"type":"Point","coordinates":[126.97353,37.57069]},"properties":{"osm_type":"way","osm_id":355658152,"name":"새문안교회","religion":"christian","denomination":null,"start_date":"2019","end_date":null,"start_year":2019,"end_year":null}},{"type":"Feature","geometry":{"type":"Point","coordinates":[129.34919,35.79481]},"properties":{"osm_type":"way","osm_id":382647781,"name":"석굴암","religion":"buddhist","denomination":null,"start_date":"~750","end_date":null,"start_year":null,"end_year":null}}]}
